{"version": 0.6, "generator": "Overpass API 0.7.62.4 2390de5a", "osm3s": {"timestamp_osm_base": "2024-11-25T15:51:51Z", "copyright": "The data included in this document is from www.openstreetmap.org. The data is made available under ODbL."}, "elements": [{"type": "node", "id": 194544630, "lat": 41.3752662, "lon": 2.1673005, "tags": {"addr:country": "ES", "amenity": "bank", "atm:network": "Telebanco 4B", "brand": "Banco Santander", "brand:en": "Santander Bank", "brand:es": "Banco Santander", "brand:wikidata": "Q6496310", "brand:wikipedia": "es:Banco Santander", "name": "BBVA", "name:ca": "Banc Santander", "name:en": "Santander Bank", "name:es": "Banco Santander", "network": "Telebanco 4B", "official_name": "Santander Group", "old_name": "Banco Popular Espa\u00f1ol", "operator": "Banco Popular"}}, {"type": "node", "id": 194545328, "lat": 41.3751836, "lon": 2.167281, "tags": {"amenity": "bank", "brand": "BBVA", "brand:wikidata": "Q806189", "brand:wikipedia": "en:Banco Bilbao Vizcaya Argentaria", "name": "BBVA", "name:1926-2010": "Caixa Catalunya", "name:2011-2016": "CatalunyaCaixa", "name:ca": "BBVA", "official_name": "Banco Bilbao Vizcaya Argentaria"}}, {"type": "node", "id": 194546734, "lat": 41.3745992, "lon": 2.1670947, "tags": {"amenity": "bank", "brand": "Banco Santander", "brand:en": "Santander Bank", "brand:es": "Banco Santander", "brand:wikidata": "Q6496310", "brand:wikipedia": "es:Banco Santander", "check_date": "2023-05-09", "name": "Banco Santander", "name:ca": "Banc Santander", "name:en": "Santander Bank", "name:es": "Banco Santander", "official_name": "Santander Group"}}, {"type": "node", "id": 364731494, "lat": 41.3915078, "lon": 2.1596088, "tags": {"amenity": "bank", "atm": "yes", "atm:network": "Servired", "brand": "Caixabank", "brand:website": "https://caixabank.es", "brand:wikidata": "Q847225", "brand:wikipedia": "es:CaixaBank", "contact:website": "https://www.caixabank.es", "name": "Caixabank", "operator": "La Caixa"}}, {"type": "node", "id": 364741249, "lat": 41.3942379, "lon": 2.1519775, "tags": {"amenity": "bank", "atm": "yes", "atm:network": "Servired", "brand": "Caixabank", "brand:website": "https://caixabank.es", "brand:wikidata": "Q847225", "brand:wikipedia": "es:CaixaBank", "contact:website": "https://www.caixabank.es", "name": "Caixabank", "operator": "Caixabank", "wheelchair": "yes"}}, {"type": "node", "id": 364741290, "lat": 41.3945755, "lon": 2.1507661, "tags": {"addr:country": "ES", "addr:housenumber": "550", "addr:street": "Avinguda Diagonal", "amenity": "bank", "atm": "yes", "atm:network": "Telebanco 4B", "atm:operator": "Banco Santander", "brand": "Banco Santander", "brand:en": "Santander Bank", "brand:es": "Banco Santander", "brand:wikidata": "Q6496310", "brand:wikipedia": "es:Banco Santander", "name": "Banco Santander", "name:ca": "Banc Santander", "name:en": "Santander Bank", "name:es": "Banco Santander", "official_name": "Santander Group", "operator": "Santander"}}, {"type": "node", "id": 364829683, "lat": 41.3921295, "lon": 2.140754, "tags": {"amenity": "bank", "atm": "yes", "brand": "Unicaja Banco", "brand:wikidata": "Q2543704", "brand:wikipedia": "en:Unicaja", "check_date": "2023-09-28", "name": "Unicaja Banco", "name:1990-2010": "Caja Espa\u00f1a", "name:ca": "Unicaja Banc", "short_name": "Unicaja"}}, {"type": "node", "id": 364829684, "lat": 41.3920229, "lon": 2.1403364, "tags": {"addr:country": "ES", "amenity": "bank", "atm": "yes", "atm:network": "Servired", "atm:operator": "BBVA", "brand": "BBVA", "brand:wikidata": "Q806189", "brand:wikipedia": "en:Banco Bilbao Vizcaya Argentaria", "name": "BBVA", "name:ca": "BBVA", "official_name": "Banco Bilbao Vizcaya Argentaria", "operator": "BBVA"}}, {"type": "node", "id": 391065322, "lat": 41.4094335, "lon": 2.1740898}, {"type": "node", "id": 391065323, "lat": 41.4096172, "lon": 2.1740898}, {"type": "node", "id": 506236270, "lat": 41.3936284, "lon": 2.1877737, "tags": {"amenity": "bank", "atm": "yes", "atm:network": "Servired", "brand": "Caixabank", "brand:website": "https://caixabank.es", "brand:wikidata": "Q847225", "brand:wikipedia": "es:CaixaBank", "contact:website": "https://www.caixabank.es", "name": "Caixabank", "opening_hours": "Mo-Th 08:30-18:30; Fr-Sa 08:30-14:30; Jul 01-Sep 15: Mo-Fr 08:30-14:30", "operator": "La Caixa"}}, {"type": "node", "id": 537748856, "lat": 41.3771402, "lon": 2.1353987, "tags": {"amenity": "bank", "atm": "yes", "name:2010": "Caixa Pened\u00e8s", "operator:2010": "Caixa Pened\u00e8s"}}, {"type": "node", "id": 537748857, "lat": 41.3774031, "lon": 2.1340291, "tags": {"addr:city": "Barcelona", "addr:country": "ES", "amenity": "bank", "atm": "yes", "atm:network": "Servired", "brand": "Caixabank", "brand:website": "https://caixabank.es", "brand:wikidata": "Q847225", "brand:wikipedia": "es:CaixaBank", "contact:website": "https://www.caixabank.es", "drive_through": "no", "name": "Caixabank", "opening_hours": "Mo-Fr 08:15-14:00; Th 16:15-18:45", "operator": "Caja Navarra"}}, {"type": "node", "id": 565479521, "lat": 41.375553, "lon": 2.1344148, "tags": {"amenity": "bank", "atm": "yes", "atm:network": "Servired", "atm:operator": "CatalunyaCaixa", "brand": "BBVA", "brand:wikidata": "Q806189", "brand:wikipedia": "en:Banco Bilbao Vizcaya Argentaria", "name": "BBVA", "name:2011-2016": "CatalunyaCaixa", "name:ca": "BBVA", "official_name": "Banco Bilbao Vizcaya Argentaria"}}, {"type": "node", "id": 569923971, "lat": 41.3829842, "lon": 2.1825834, "tags": {"amenity": "bank", "atm": "yes", "atm:network": "Servired", "brand": "Caixabank", "brand:website": "https://caixabank.es", "brand:wikidata": "Q847225", "brand:wikipedia": "es:CaixaBank", "contact:website": "https://www.caixabank.es", "name": "Caixabank", "operator": "La Caixa"}}, {"type": "node", "id": 571920576, "lat": 41.3759677, "lon": 2.1355553, "tags": {"amenity": "bank", "atm": "yes", "brand": "Bankinter", "brand:wikidata": "Q806808", "brand:wikipedia": "es:Bankinter", "name": "Bankinter", "name:ca": "Bankinter"}}, {"type": "node", "id": 572207902, "lat": 41.4469515, "lon": 2.1764365, "tags": {"amenity": "bank", "atm": "yes", "atm:network": "Servired", "brand": "Caixabank", "brand:website": "https://caixabank.es", "brand:wikidata": "Q847225", "brand:wikipedia": "es:CaixaBank", "contact:website": "https://www.caixabank.es", "name": "Caixabank", "operator": "CaixaBank"}}, {"type": "node", "id": 652423013, "lat": 41.4461074, "lon": 2.174339, "tags": {"amenity": "bank", "atm": "yes", "name": "Unnim", "operator": "caixa sabadell"}}, {"type": "node", "id": 660100522, "lat": 41.4048069, "lon": 2.1961029, "tags": {"amenity": "bank", "atm": "yes", "atm:network": "Servired", "brand": "Caixabank", "brand:website": "https://caixabank.es", "brand:wikidata": "Q847225", "brand:wikipedia": "es:CaixaBank", "contact:website": "https://www.caixabank.es", "name": "Caixabank negocis", "operator": "La Caixa"}}, {"type": "node", "id": 673978275, "lat": 41.3846859, "lon": 2.1678768, "tags": {"amenity": "bank", "brand": "Caixabank", "brand:website": "https://caixabank.es", "brand:wikidata": "Q847225", "brand:wikipedia": "es:CaixaBank", "contact:website": "https://www.caixabank.es", "name": "Caixabank"}}, {"type": "node", "id": 678297043, "lat": 41.401221, "lon": 2.1465667, "tags": {"amenity": "bank", "brand": "Caixabank", "brand:website": "https://caixabank.es", "brand:wikidata": "Q847225", "brand:wikipedia": "es:CaixaBank", "contact:website": "https://www.caixabank.es", "name": "Caixabank"}}, {"type": "node", "id": 686617339, "lat": 41.4037562, "lon": 2.1465582, "tags": {"amenity": "bank", "brand": "Caixabank", "brand:website": "https://caixabank.es", "brand:wikidata": "Q847225", "brand:wikipedia": "es:CaixaBank", "contact:website": "https://www.caixabank.es", "name": "Caixabank"}}, {"type": "node", "id": 690411255, "lat": 41.3876376, "lon": 2.1268367, "tags": {"amenity": "bank", "atm": "yes", "atm:network": "Servired", "brand": "Caixabank", "brand:website": "https://caixabank.es", "brand:wikidata": "Q847225", "brand:wikipedia": "es:CaixaBank", "contact:website": "https://www.caixabank.es", "name": "Caixabank", "operator": "La Caixa"}}, {"type": "node", "id": 704037337, "lat": 41.3865873, "lon": 2.1714197, "tags": {"addr:housenumber": "17", "addr:postcode": "08002", "addr:street": "Pla\u00e7a Catalunya", "amenity": "bank", "check_date": "2023-04-27", "contact:twitter": "BancoDeEspana", "name": "Banco de Espa\u00f1a", "opening_hours": "Mo-Fr 08:30-14:00", "website": "https://www.bde.es/wbe/es/sobre-banco/organizacion/sucursales/barcelona.html"}}, {"type": "node", "id": 704045125, "lat": 41.3884918, "lon": 2.1665367, "tags": {"amenity": "bank", "brand": "Caixabank", "brand:website": "https://caixabank.es", "brand:wikidata": "Q847225", "brand:wikipedia": "es:CaixaBank", "contact:website": "https://www.caixabank.es", "name": "Caixabank", "wheelchair": "yes"}}, {"type": "node", "id": 704048811, "lat": 41.3870545, "lon": 2.1682922, "tags": {"amenity": "bank", "atm": "yes", "atm:network": "Servired", "brand": "Caixabank", "brand:website": "https://caixabank.es", "brand:wikidata": "Q847225", "brand:wikipedia": "es:CaixaBank", "contact:website": "https://www.caixabank.es", "name": "Caixabank", "operator": "La Caixa"}}, {"type": "node", "id": 704049345, "lat": 41.3869232, "lon": 2.1685381, "tags": {"addr:city": "Barcelona", "addr:housenumber": "7", "addr:postcode": "08002", "addr:street": "Pla\u00e7a Catalunya", "amenity": "bank", "brand": "Caixabank", "brand:website": "https://caixabank.es", "brand:wikidata": "Q847225", "brand:wikipedia": "es:CaixaBank", "contact:website": "https://www.caixabank.es", "name": "Caixabank", "opening_hours": "Oct-Jun: Mo-Th 08:30-18:30; Oct-Jun: PH,Fr 08:30-14:30; Jul-Sep: Mo-Fr 08:30-14:30"}}, {"type": "node", "id": 704063707, "lat": 41.3905849, "lon": 2.1663478, "tags": {"addr:city": "Barcelona", "addr:country": "ES", "addr:housenumber": "25", "addr:street": "Passeig de Gr\u00e0cia", "amenity": "bank", "atm:network": "Servired", "atm:operator": "BBVA", "brand": "BBVA", "brand:wikidata": "Q806189", "brand:wikipedia": "en:Banco Bilbao Vizcaya Argentaria", "check_date": "2023-10-28", "entrance": "yes", "name": "BBVA", "name:ca": "BBVA", "network": "Servired", "official_name": "Banco Bilbao Vizcaya Argentaria", "opening_hours": "Mo-Fr 08:30-14:00", "operator": "BBVA", "wheelchair": "yes"}}, {"type": "node", "id": 704066406, "lat": 41.3895639, "lon": 2.1651222, "tags": {"amenity": "bank", "brand": "Caixabank", "brand:website": "https://caixabank.es", "brand:wikidata": "Q847225", "brand:wikipedia": "es:CaixaBank", "contact:website": "https://www.caixabank.es", "name": "Caixabank", "opening_hours": "Mo-Th 08:30-18:30; Fr 08:30-14:30", "wheelchair": "yes"}}, {"type": "node", "id": 704066558, "lat": 41.3906521, "lon": 2.1637704, "tags": {"amenity": "bank", "brand": "Banco Santander", "brand:en": "Santander Bank", "brand:es": "Banco Santander", "brand:wikidata": "Q6496310", "brand:wikipedia": "es:Banco Santander", "check_date": "2024-01-16", "name": "Banco Santander", "name:ca": "Banc Santander", "name:en": "Santander Bank", "name:es": "Banco Santander", "official_name": "Santander Group", "operator": "Santander"}}, {"type": "node", "id": 709125022, "lat": 41.3752518, "lon": 2.138552, "tags": {"amenity": "bank", "brand": "BBVA", "brand:wikidata": "Q806189", "brand:wikipedia": "en:Banco Bilbao Vizcaya Argentaria", "name": "BBVA", "name:ca": "BBVA", "official_name": "Banco Bilbao Vizcaya Argentaria"}}, {"type": "node", "id": 709125033, "lat": 41.3751939, "lon": 2.1375321, "tags": {"amenity": "bank", "operator": "La Caixa"}}, {"type": "node", "id": 814996990, "lat": 41.3890519, "lon": 2.1558912, "tags": {"addr:country": "ES", "amenity": "bank", "atm": "yes", "atm:network": "Telebanco 4B", "atm:operator": "Banco Santander", "brand": "Banco Santander", "brand:en": "Santander Bank", "brand:es": "Banco Santander", "brand:wikidata": "Q6496310", "brand:wikipedia": "es:Banco Santander", "name": "Banco Santander", "name:ca": "Banc Santander", "name:en": "Santander Bank", "name:es": "Banco Santander", "official_name": "Santander Group", "operator": "Santander"}}, {"type": "node", "id": 919804491, "lat": 41.3934278, "lon": 2.1872304, "tags": {"amenity": "bank", "atm": "yes", "atm:network": "Servired", "brand": "Banco Sabadell", "brand:ca": "Banc Sabadell", "brand:es": "Banco Sabadell", "brand:wikidata": "Q762330", "brand:wikipedia": "es:Banco Sabadell", "name": "Banco Sabadell", "name:ca": "Banc Sabadell", "name:es": "Banco Sabadell", "official_name": "Banco de Sabadell, S.A."}}, {"type": "node", "id": 1086926611, "lat": 41.4429351, "lon": 2.2025515, "tags": {"amenity": "bank", "atm": "yes", "atm:network": "Servired", "brand": "Banco Sabadell", "brand:ca": "Banc Sabadell", "brand:es": "Banco Sabadell", "brand:wikidata": "Q762330", "brand:wikipedia": "es:Banco Sabadell", "name": "Banco Sabadell", "name:ca": "Banc Sabadell", "name:es": "Banco Sabadell", "official_name": "Banco de Sabadell, S.A.", "operator": "Banc Sabadell"}}, {"type": "node", "id": 1154217270, "lat": 41.4062955, "lon": 2.2143725, "tags": {"addr:city": "Barcelona", "addr:housenumber": "281", "addr:postcode": "08019", "addr:street": "Passeig del Taulat", "amenity": "bank", "atm": "yes", "atm:network": "Servired", "brand": "Caixabank", "brand:website": "https://caixabank.es", "brand:wikidata": "Q847225", "brand:wikipedia": "es:CaixaBank", "contact:website": "https://www.caixabank.es", "name": "Caixabank", "operator": "La Caixa"}}, {"type": "node", "id": 1374305085, "lat": 41.3899015, "lon": 2.1207524, "tags": {"addr:street": "Pg. Manuel Girona 10", "amenity": "bank", "atm": "yes", "brand": "Deutsche Bank", "brand:wikidata": "Q66048", "name": "Deutsche Bank"}}, {"type": "node", "id": 1374305819, "lat": 41.3899778, "lon": 2.1210528, "tags": {"addr:country": "ES", "amenity": "bank", "atm": "yes", "atm:network": "Telebanco 4B", "atm:operator": "Banco Santander", "brand": "Banco Santander", "brand:en": "Santander Bank", "brand:es": "Banco Santander", "brand:wikidata": "Q6496310", "brand:wikipedia": "es:Banco Santander", "name": "Banco Santander", "name:ca": "Banc Santander", "name:en": "Santander Bank", "name:es": "Banco Santander", "official_name": "Santander Group", "operator": "Santander"}}, {"type": "node", "id": 1374305820, "lat": 41.3900092, "lon": 2.1212298, "tags": {"amenity": "bank", "atm": "yes", "atm:network": "Servired", "brand": "Caixabank", "brand:website": "https://caixabank.es", "brand:wikidata": "Q847225", "brand:wikipedia": "es:CaixaBank", "contact:website": "https://www.caixabank.es", "name": "Caixabank", "operator": "La Caixa"}}, {"type": "node", "id": 1374636401, "lat": 41.3820117, "lon": 2.1472903, "tags": {"amenity": "bank", "brand": "CajaSur", "brand:wikidata": "Q3751637", "brand:wikipedia": "en:CajaSur", "name": "CajaSur", "source": "survey"}}, {"type": "node", "id": 1375060939, "lat": 41.389509, "lon": 2.1289462, "tags": {"addr:country": "ES", "amenity": "bank", "atm:network": "Servired", "atm:operator": "BBVA", "brand": "BBVA", "brand:wikidata": "Q806189", "brand:wikipedia": "en:Banco Bilbao Vizcaya Argentaria", "name": "BBVA", "name:ca": "BBVA", "network": "Servired", "official_name": "Banco Bilbao Vizcaya Argentaria", "operator": "BBVA"}}, {"type": "node", "id": 1375061094, "lat": 41.3893377, "lon": 2.1285616, "tags": {"amenity": "bank", "brand": "Caixabank", "brand:website": "https://caixabank.es", "brand:wikidata": "Q847225", "brand:wikipedia": "es:CaixaBank", "contact:website": "https://www.caixabank.es", "name": "Caixabank"}}, {"type": "node", "id": 1375085556, "lat": 41.4222643, "lon": 2.2053323, "tags": {"amenity": "bank", "atm": "yes", "atm:network": "Servired", "bank:network": "Caixabank", "brand": "Caixabank", "brand:website": "https://caixabank.es", "brand:wikidata": "Q847225", "brand:wikipedia": "es:CaixaBank", "contact:website": "https://www.caixabank.es", "name": "Caixabank", "operator": "La Caixa"}}, {"type": "node", "id": 1375265142, "lat": 41.3891569, "lon": 2.1218255, "tags": {"addr:country": "ES", "amenity": "bank", "atm": "yes", "atm:network": "Telebanco 4B", "brand": "Banco Santander", "brand:en": "Santander Bank", "brand:es": "Banco Santander", "brand:wikidata": "Q6496310", "brand:wikipedia": "es:Banco Santander", "name": "Banco Santander", "name:ca": "Banc Santander", "name:en": "Santander Bank", "name:es": "Banco Santander", "network": "Telebanco 4B", "official_name": "Santander Group", "old_name": "Banco Popular Espa\u00f1ol", "operator": "Banco Popular"}}, {"type": "node", "id": 1375281460, "lat": 41.3894429, "lon": 2.1248616, "tags": {"amenity": "bank", "atm": "yes", "atm:network": "Servired", "atm:operator": "CatalunyaCaixa", "brand": "BBVA", "brand:wikidata": "Q806189", "brand:wikipedia": "en:Banco Bilbao Vizcaya Argentaria", "name": "BBVA", "name:2011-2016": "CatalunyaCaixa", "name:ca": "BBVA", "official_name": "Banco Bilbao Vizcaya Argentaria"}}, {"type": "node", "id": 1375281461, "lat": 41.3897943, "lon": 2.1227077, "tags": {"amenity": "bank", "atm": "yes", "atm:network": "Servired", "brand": "Caixabank", "brand:website": "https://caixabank.es", "brand:wikidata": "Q847225", "brand:wikipedia": "es:CaixaBank", "contact:website": "https://www.caixabank.es", "name": "Caixabank", "operator": "La Caixa"}}, {"type": "node", "id": 1375281469, "lat": 41.3898951, "lon": 2.1246067, "tags": {"amenity": "bank", "atm": "no", "brand": "Banco Santander", "brand:en": "Santander Bank", "brand:es": "Banco Santander", "brand:wikidata": "Q6496310", "brand:wikipedia": "es:Banco Santander", "name": "Banco Santander", "name:ca": "Banc Santander", "name:en": "Santander Bank", "name:es": "Banco Santander", "official_name": "Santander Group", "operator": "Santander"}}, {"type": "node", "id": 1458910237, "lat": 41.4304004, "lon": 2.1813944, "tags": {"amenity": "bank", "brand": "Caixabank", "brand:website": "https://caixabank.es", "brand:wikidata": "Q847225", "brand:wikipedia": "es:CaixaBank", "contact:website": "https://www.caixabank.es", "fee": "varies", "name": "Caixabank", "network": "Servired", "operator": "CaixaBank", "source": "survey"}}, {"type": "node", "id": 1466014020, "lat": 41.4304263, "lon": 2.1803487, "tags": {"amenity": "bank", "brand": "Ibercaja", "brand:wikidata": "Q5907815", "brand:wikipedia": "es:Ibercaja", "fee": "varies", "name": "Ibercaja", "source": "survey"}}, {"type": "node", "id": 1466034842, "lat": 41.4301351, "lon": 2.1782431, "tags": {"amenity": "bank", "brand": "BBVA", "brand:wikidata": "Q806189", "brand:wikipedia": "en:Banco Bilbao Vizcaya Argentaria", "name": "BBVA", "name:ca": "BBVA", "official_name": "Banco Bilbao Vizcaya Argentaria", "operator": "BBVA"}}, {"type": "node", "id": 1474078086, "lat": 41.3903125, "lon": 2.157694, "tags": {"amenity": "bank", "atm": "yes", "atm:network": "Servired", "atm:operator": "Banco Caixa Geral", "name": "Banco Caixa Geral"}}, {"type": "node", "id": 1474198032, "lat": 41.3927796, "lon": 2.1459282, "tags": {"addr:housenumber": "475", "addr:street": "Avenida Diagonal", "amenity": "bank", "brand": "ING", "brand:wikidata": "Q645708", "brand:wikipedia": "en:ING Group", "description": "oficina naranja", "name": "ING", "opening_hours": "Mo-Th 08:00-19:30; Fr 08:00-15:00; Sa 09:00-14:00", "website": "https://www.ing.es/", "wheelchair": "yes"}}, {"type": "node", "id": 1596366251, "lat": 41.3795476, "lon": 2.1878327, "tags": {"addr:country": "ES", "addr:housenumber": "24", "addr:postcode": "08003", "addr:street": "Passeig Joan de Borb\u00f3", "amenity": "bank", "atm": "yes", "atm:network": "Telebanco 4B", "atm:operator": "Banco Santander", "brand": "Banco Santander", "brand:en": "Santander Bank", "brand:es": "Banco Santander", "brand:wikidata": "Q6496310", "brand:wikipedia": "es:Banco Santander", "name": "Banco Santander", "name:ca": "Banc Santander", "name:en": "Santander Bank", "name:es": "Banco Santander", "official_name": "Santander Group", "operator": "Santander"}}, {"type": "node", "id": 1597692090, "lat": 41.3806691, "lon": 2.1886277, "tags": {"amenity": "bank", "atm": "yes", "atm:network": "Servired", "brand": "Banco Sabadell", "brand:ca": "Banc Sabadell", "brand:es": "Banco Sabadell", "brand:wikidata": "Q762330", "brand:wikipedia": "es:Banco Sabadell", "name": "Banco Sabadell", "name:ca": "Banc Sabadell", "name:es": "Banco Sabadell", "official_name": "Banco de Sabadell, S.A.", "opening_hours": "Oct-Mar: Mo-We,Fr 08:15-14:00; Oct-Mar: Th 08:15-18:30; Apr-Sep: Mo-Fr 08:15-14:00"}}, {"type": "node", "id": 1597700756, "lat": 41.3802457, "lon": 2.1896919, "tags": {"amenity": "bank", "atm": "yes", "atm:network": "Servired", "brand": "Caixabank", "brand:website": "https://caixabank.es", "brand:wikidata": "Q847225", "brand:wikipedia": "es:CaixaBank", "contact:website": "https://www.caixabank.es", "name": "Caixabank", "operator": "La Caixa"}}, {"type": "node", "id": 1610091453, "lat": 41.3752407, "lon": 2.1213939}, {"type": "node", "id": 1610091478, "lat": 41.3751384, "lon": 2.1214906}, {"type": "node", "id": 1610091496, "lat": 41.3749461, "lon": 2.1211433}, {"type": "node", "id": 1610091507, "lat": 41.3752306, "lon": 2.1213671}, {"type": "node", "id": 1610091525, "lat": 41.3750454, "lon": 2.1210479}, {"type": "node", "id": 1667577999, "lat": 41.3818648, "lon": 2.1352552, "tags": {"amenity": "bank", "atm": "yes", "brand": "Caixabank", "brand:website": "https://caixabank.es", "brand:wikidata": "Q847225", "brand:wikipedia": "es:CaixaBank", "contact:website": "https://www.caixabank.es", "name": "Caixabank"}}, {"type": "node", "id": 1674675224, "lat": 41.4231071, "lon": 2.1852187, "tags": {"amenity": "bank", "atm": "yes", "atm:network": "Servired", "brand": "Caixabank", "brand:website": "https://caixabank.es", "brand:wikidata": "Q847225", "brand:wikipedia": "es:CaixaBank", "contact:website": "https://www.caixabank.es", "name": "Caixabank", "operator": "La Caixa"}}, {"type": "node", "id": 1709802642, "lat": 41.4456471, "lon": 2.1725284, "tags": {"addr:housenumber": "10-12", "addr:postcode": "08042", "addr:street": "Carrer d'Alc\u00e1ntara", "amenity": "bank", "atm": "yes", "atm:network": "Servired", "brand": "Caixabank", "brand:website": "https://caixabank.es", "brand:wikidata": "Q847225", "brand:wikipedia": "es:CaixaBank", "contact:website": "https://www.caixabank.es", "name": "Caixabank", "operator": "CaixaBank"}}, {"type": "node", "id": 1710718840, "lat": 41.3834371, "lon": 2.1391669, "tags": {"amenity": "bank", "atm": "yes", "brand": "Deutsche Bank", "brand:wikidata": "Q66048", "brand:wikipedia": "en:Deutsche Bank", "name": "Deutsche Bank", "network": "Servired"}}, {"type": "node", "id": 1710724115, "lat": 41.3829579, "lon": 2.1390012, "tags": {"amenity": "bank", "atm": "yes", "atm:network": "Servired", "brand": "Caixabank", "brand:website": "https://caixabank.es", "brand:wikidata": "Q847225", "brand:wikipedia": "es:CaixaBank", "check_date": "2022-12-01", "contact:website": "https://www.caixabank.es", "name": "Caixabank", "opening_hours": "Mo-Th 08:30-18:30; Fr 08:30-14:30", "operator": "La Caixa"}}, {"type": "node", "id": 1738174274, "lat": 41.3747255, "lon": 2.1447829, "tags": {"amenity": "bank", "atm": "yes", "atm:network": "Servired", "brand": "Caixabank", "brand:website": "https://caixabank.es", "brand:wikidata": "Q847225", "brand:wikipedia": "es:CaixaBank", "contact:website": "https://www.caixabank.es", "name": "Caixabank", "operator": "La Caixa"}}, {"type": "node", "id": 1738174281, "lat": 41.3750057, "lon": 2.1447403, "tags": {"amenity": "bank"}}, {"type": "node", "id": 1806294682, "lat": 41.3888171, "lon": 2.1123186, "tags": {"addr:country": "ES", "amenity": "bank", "atm": "yes", "atm:network": "Telebanco 4B", "atm:operator": "Banco Santander", "brand": "Banco Santander", "brand:en": "Santander Bank", "brand:es": "Banco Santander", "brand:wikidata": "Q6496310", "brand:wikipedia": "es:Banco Santander", "name": "Banco Santander", "name:ca": "Banc Santander", "name:en": "Santander Bank", "name:es": "Banco Santander", "official_name": "Santander Group", "operator": "Santander"}}, {"type": "node", "id": 1845455476, "lat": 41.4063709, "lon": 2.1768618, "tags": {"amenity": "bank", "brand": "Banco Sabadell", "brand:ca": "Banc Sabadell", "brand:es": "Banco Sabadell", "brand:wikidata": "Q762330", "name": "Banco Sabadell", "name:2010": "Caixa Pened\u00e9s", "name:ca": "Banc Sabadell", "name:es": "Banco Sabadell", "official_name": "Banco de Sabadell, S.A."}}, {"type": "node", "id": 1845455477, "lat": 41.4063937, "lon": 2.1761857, "tags": {"amenity": "bank", "atm": "yes", "brand": "Caixabank", "brand:website": "https://caixabank.es", "brand:wikidata": "Q847225", "brand:wikipedia": "es:CaixaBank", "contact:website": "https://www.caixabank.es", "name": "Caixabank"}}, {"type": "node", "id": 1857242569, "lat": 41.4046754, "lon": 2.1768309, "tags": {"addr:country": "ES", "amenity": "bank", "atm": "yes", "atm:network": "Servired", "atm:operator": "BBVA", "brand": "BBVA", "brand:wikidata": "Q806189", "brand:wikipedia": "en:Banco Bilbao Vizcaya Argentaria", "name": "BBVA", "name:ca": "BBVA", "official_name": "Banco Bilbao Vizcaya Argentaria", "operator": "BBVA"}}, {"type": "node", "id": 1880204236, "lat": 41.3721471, "lon": 2.1262943, "tags": {"amenity": "bank", "atm": "yes", "atm:network": "Servired", "brand": "Caixabank", "brand:website": "https://caixabank.es", "brand:wikidata": "Q847225", "brand:wikipedia": "es:CaixaBank", "contact:website": "https://www.caixabank.es", "name": "Caixabank", "operator": "La Caixa"}}, {"type": "node", "id": 1888022694, "lat": 41.3941482, "lon": 2.1588452, "tags": {"addr:city": "Barcelona", "addr:country": "ES", "amenity": "bank", "atm": "yes", "atm:network": "Servired", "brand": "Banco Sabadell", "brand:ca": "Banc Sabadell", "brand:es": "Banco Sabadell", "brand:wikidata": "Q762330", "brand:wikipedia": "es:Banco Sabadell", "name": "Banco Sabadell", "name:ca": "Banc Sabadell", "name:es": "Banco Sabadell", "official_name": "Banco de Sabadell, S.A."}}, {"type": "node", "id": 1934456472, "lat": 41.4066737, "lon": 2.2099773, "tags": {"amenity": "bank", "atm": "yes", "atm:network": "Servired", "atm:operator": "CatalunyaCaixa", "brand": "BBVA", "brand:wikidata": "Q806189", "brand:wikipedia": "en:Banco Bilbao Vizcaya Argentaria", "name": "BBVA", "name:2011-2016": "CatalunyaCaixa", "name:ca": "BBVA", "official_name": "Banco Bilbao Vizcaya Argentaria"}}, {"type": "node", "id": 1934456579, "lat": 41.4006711, "lon": 2.2020595, "tags": {"amenity": "bank", "atm": "yes", "atm:network": "Servired", "brand": "Caixabank", "brand:website": "https://caixabank.es", "brand:wikidata": "Q847225", "brand:wikipedia": "es:CaixaBank", "contact:website": "https://www.caixabank.es", "name": "Caixabank", "opening_hours": "Mo-Th 08:30-18:30; Fr 08:30-14:30", "operator": "La Caixa", "wheelchair": "yes"}}, {"type": "node", "id": 1934456590, "lat": 41.4032636, "lon": 2.2048364, "tags": {"amenity": "bank", "atm": "yes", "atm:network": "Servired", "brand": "Caixabank", "brand:website": "https://caixabank.es", "brand:wikidata": "Q847225", "brand:wikipedia": "es:CaixaBank", "contact:website": "https://www.caixabank.es", "name": "Caixabank", "operator": "La Caixa"}}, {"type": "node", "id": 1980989602, "lat": 41.3893706, "lon": 2.1492695, "tags": {"amenity": "bank", "atm": "yes", "atm:network": "Servired", "atm:operator": "CatalunyaCaixa", "brand": "BBVA", "brand:wikidata": "Q806189", "brand:wikipedia": "en:Banco Bilbao Vizcaya Argentaria", "name": "BBVA", "name:2011-2016": "CatalunyaCaixa", "name:ca": "BBVA", "official_name": "Banco Bilbao Vizcaya Argentaria"}}, {"type": "node", "id": 2091604700, "lat": 41.3814046, "lon": 2.1463949, "tags": {"amenity": "bank", "atm": "yes", "atm:network": "Servired", "brand": "Caixabank", "brand:website": "https://caixabank.es", "brand:wikidata": "Q847225", "brand:wikipedia": "es:CaixaBank", "contact:website": "https://www.caixabank.es", "name": "Caixabank", "operator": "La Caixa", "source": "survey"}}, {"type": "node", "id": 2122722739, "lat": 41.3972539, "lon": 2.1403699, "tags": {"addr:country": "ES", "amenity": "bank", "atm:network": "Telebanco 4B", "atm:operator": "Banco Santander", "brand": "Banco Santander", "brand:en": "Santander Bank", "brand:es": "Banco Santander", "brand:wikidata": "Q6496310", "brand:wikipedia": "es:Banco Santander", "name": "Banco Santander", "name:ca": "Banc Santander", "name:en": "Santander Bank", "name:es": "Banco Santander", "network": "Telebanco 4B", "official_name": "Santander Group", "operator": "Santander"}}, {"type": "node", "id": 2122722741, "lat": 41.3952885, "lon": 2.1426216, "tags": {"amenity": "bank", "brand": "BBVA", "brand:wikidata": "Q806189", "brand:wikipedia": "en:Banco Bilbao Vizcaya Argentaria", "name": "BBVA", "name:1926-2010": "Caixa Catalunya", "name:2011-2016": "CatalunyaCaixa", "name:ca": "BBVA", "official_name": "Banco Bilbao Vizcaya Argentaria"}}, {"type": "node", "id": 2122722746, "lat": 41.3953959, "lon": 2.142715, "tags": {"amenity": "bank", "brand": "Caixabank", "brand:website": "https://caixabank.es", "brand:wikidata": "Q847225", "brand:wikipedia": "es:CaixaBank", "contact:website": "https://www.caixabank.es", "name": "Caixabank"}}, {"type": "node", "id": 2122722748, "lat": 41.3969281, "lon": 2.1407117, "tags": {"amenity": "bank", "brand": "Caixabank", "brand:website": "https://caixabank.es", "brand:wikidata": "Q847225", "brand:wikipedia": "es:CaixaBank", "contact:website": "https://www.caixabank.es", "name": "Caixabank"}}, {"type": "node", "id": 2175616323, "lat": 41.386329, "lon": 2.1127751, "tags": {"amenity": "bank", "atm": "yes", "atm:network": "Servired", "brand": "Caixabank", "brand:website": "https://caixabank.es", "brand:wikidata": "Q847225", "brand:wikipedia": "es:CaixaBank", "contact:website": "https://www.caixabank.es", "name": "Caixabank", "operator": "La Caixa"}}, {"type": "node", "id": 2189959186, "lat": 41.4052775, "lon": 2.1936878, "tags": {"amenity": "bank", "atm": "yes", "atm:network": "Servired", "brand": "Banco Sabadell", "brand:ca": "Banc Sabadell", "brand:es": "Banco Sabadell", "brand:wikidata": "Q762330", "brand:wikipedia": "es:Banco Sabadell", "name": "Banco Sabadell", "name:ca": "Banc Sabadell", "name:es": "Banco Sabadell", "official_name": "Banco de Sabadell, S.A.", "opening_hours": "Mo-Fr 08:15-13:00"}}, {"type": "node", "id": 2193095313, "lat": 41.4029241, "lon": 2.1979768, "tags": {"addr:country": "ES", "addr:housenumber": "184", "addr:street": "Pere IV", "amenity": "bank", "atm": "yes", "atm:network": "Telebanco 4B", "atm:operator": "Banco Santander", "brand": "Banco Santander", "brand:en": "Santander Bank", "brand:es": "Banco Santander", "brand:wikidata": "Q6496310", "brand:wikipedia": "es:Banco Santander", "name": "Banco Santander", "name:ca": "Banc Santander", "name:en": "Santander Bank", "name:es": "Banco Santander", "official_name": "Santander Group", "operator": "Santander", "wheelchair": "yes"}}, {"type": "node", "id": 2193095315, "lat": 41.4048847, "lon": 2.1974976, "tags": {"amenity": "bank", "atm": "yes", "atm:network": "Euro 6000", "brand": "Ibercaja", "brand:wikidata": "Q5907815", "brand:wikipedia": "es:Ibercaja", "name": "Ibercaja"}}, {"type": "node", "id": 2193095385, "lat": 41.4028418, "lon": 2.1990982, "tags": {"addr:country": "ES", "amenity": "bank", "atm": "yes", "atm:network": "Servired", "atm:operator": "BBVA", "brand": "BBVA", "brand:wikidata": "Q806189", "brand:wikipedia": "en:Banco Bilbao Vizcaya Argentaria", "name": "BBVA", "name:ca": "BBVA", "official_name": "Banco Bilbao Vizcaya Argentaria", "operator": "BBVA"}}, {"type": "node", "id": 2193095407, "lat": 41.4031816, "lon": 2.1978561, "tags": {"addr:city": "Barcelona", "addr:country": "ES", "addr:housenumber": "161-165", "addr:postcode": "08018", "addr:street": "Pere IV", "amenity": "bank", "atm": "yes", "atm:network": "Telebanco 4B", "atm:operator": "Banco Santander", "brand": "Banco Santander", "brand:en": "Santander Bank", "brand:es": "Banco Santander", "brand:wikidata": "Q6496310", "brand:wikipedia": "es:Banco Santander", "name": "Banco Santander", "name:ca": "Banc Santander", "name:en": "Santander Bank", "name:es": "Banco Santander", "official_name": "Santander Group", "operator": "Santander"}}, {"type": "node", "id": 2193095421, "lat": 41.4029201, "lon": 2.198988, "tags": {"amenity": "bank", "atm": "yes", "atm:network": "Servired", "brand": "Banco Sabadell", "brand:ca": "Banc Sabadell", "brand:es": "Banco Sabadell", "brand:wikidata": "Q762330", "brand:wikipedia": "es:Banco Sabadell", "name": "Banco Sabadell", "name:ca": "Banc Sabadell", "name:es": "Banco Sabadell", "official_name": "Banco de Sabadell, S.A."}}, {"type": "node", "id": 2246376631, "lat": 41.3830627, "lon": 2.1796795, "tags": {"addr:housenumber": "13", "addr:postcode": "08003", "addr:street": "Via Laietana", "amenity": "bank", "brand": "Deutsche Bank", "brand:wikidata": "Q66048", "brand:wikipedia": "en:Deutsche Bank", "check_date": "2023-04-30", "name": "Deutsche Bank"}}, {"type": "node", "id": 2264344228, "lat": 41.3851358, "lon": 2.1760715}, {"type": "node", "id": 2264344249, "lat": 41.3853799, "lon": 2.1763962}, {"type": "node", "id": 2315194887, "lat": 41.3907272, "lon": 2.1433685, "tags": {"amenity": "bank", "atm": "yes", "atm:network": "Servired", "brand": "Caixabank", "brand:wikidata": "Q847225", "check_date": "2022-12-01", "name": "Caixabank", "name:en": "CaixaBank", "wheelchair": "yes"}}, {"type": "node", "id": 2370814344, "lat": 41.3810538, "lon": 2.1325565, "tags": {"amenity": "bank", "brand": "Caixabank", "brand:website": "https://caixabank.es", "brand:wikidata": "Q847225", "brand:wikipedia": "es:CaixaBank", "contact:website": "https://www.caixabank.es", "name": "Caixabank"}}, {"type": "node", "id": 2392224039, "lat": 41.3843653, "lon": 2.1844612, "tags": {"amenity": "bank", "atm": "yes", "atm:network": "Servired", "brand": "Banco Sabadell", "brand:ca": "Banc Sabadell", "brand:es": "Banco Sabadell", "brand:wikidata": "Q762330", "brand:wikipedia": "es:Banco Sabadell", "check_date": "2023-04-23", "name": "Banco Sabadell", "name:ca": "Banc Sabadell", "name:es": "Banco Sabadell", "official_name": "Banco de Sabadell, S.A."}}, {"type": "node", "id": 2409004026, "lat": 41.430312, "lon": 2.17635, "tags": {"addr:country": "ES", "amenity": "bank", "atm": "yes", "atm:network": "Telebanco 4B", "atm:operator": "Banco Santander", "brand": "Banco Santander", "brand:en": "Santander Bank", "brand:es": "Banco Santander", "brand:wikidata": "Q6496310", "brand:wikipedia": "es:Banco Santander", "name": "Banco Santander", "name:ca": "Banc Santander", "name:en": "Santander Bank", "name:es": "Banco Santander", "official_name": "Santander Group", "operator": "Santander", "source": "local_knowledge", "wheelchair": "no"}}, {"type": "node", "id": 2418577712, "lat": 41.3990439, "lon": 2.1431682, "tags": {"amenity": "bank", "brand": "BBVA", "brand:wikidata": "Q806189", "brand:wikipedia": "en:Banco Bilbao Vizcaya Argentaria", "name": "BBVA", "name:ca": "BBVA", "official_name": "Banco Bilbao Vizcaya Argentaria", "website": "http://www.BBVA.es"}}, {"type": "node", "id": 2464535912, "lat": 41.4033463, "lon": 2.2025442, "tags": {"amenity": "bank", "atm": "yes", "atm:network": "Servired", "brand": "Caixabank", "brand:website": "https://caixabank.es", "brand:wikidata": "Q847225", "brand:wikipedia": "es:CaixaBank", "contact:website": "https://www.caixabank.es", "name": "Caixabank"}}, {"type": "node", "id": 2481052841, "lat": 41.3728346, "lon": 2.1604888, "tags": {"amenity": "bank", "brand": "Banco Sabadell", "brand:ca": "Banc Sabadell", "brand:es": "Banco Sabadell", "brand:wikidata": "Q762330", "brand:wikipedia": "es:Banco Sabadell", "entrance": "yes", "name": "Banco Sabadell", "name:ca": "Banc Sabadell", "name:es": "Banco Sabadell", "official_name": "Banco de Sabadell, S.A.", "old_name": "Caixa Pened\u00e8s"}}, {"type": "node", "id": 2492717308, "lat": 41.3850052, "lon": 2.1456046, "tags": {"addr:city": "Barcelona", "addr:housenumber": "233", "addr:postcode": "08029", "addr:street": "Carrer de Rocafort", "amenity": "bank", "atm": "yes", "atm:network": "Servired", "brand": "Caixabank", "brand:website": "https://caixabank.es", "brand:wikidata": "Q847225", "brand:wikipedia": "es:CaixaBank", "contact:website": "https://www.caixabank.es", "name": "Caixabank", "operator": "La Caixa"}}, {"type": "node", "id": 2499985876, "lat": 41.3863204, "lon": 2.1818654, "tags": {"amenity": "bank", "brand": "Caixabank", "brand:website": "https://caixabank.es", "brand:wikidata": "Q847225", "brand:wikipedia": "es:CaixaBank", "check_date": "2023-10-29", "contact:website": "https://www.caixabank.es", "name": "Caixabank", "opening_hours": "Mo-Th 08:30-18:30; Fr,PH 08:30-14:30; Sa,Su off; Jul 01-Sep 15: Mo-Fr 08:30-14:30", "source": "survey"}}, {"type": "node", "id": 2500570200, "lat": 41.3864991, "lon": 2.1636849, "tags": {"addr:country": "ES", "amenity": "bank", "atm": "yes", "atm:network": "Telebanco 4B", "atm:operator": "Banco Santander", "brand": "Banco Santander", "brand:en": "Santander Bank", "brand:es": "Banco Santander", "brand:wikidata": "Q6496310", "brand:wikipedia": "es:Banco Santander", "name": "Banco Santander", "name:ca": "Banc Santander", "name:en": "Santander Bank", "name:es": "Banco Santander", "official_name": "Santander Group", "operator": "Santander"}}, {"type": "node", "id": 2503270790, "lat": 41.3975229, "lon": 2.1643894, "tags": {"addr:housenumber": "357", "addr:postcode": "08037", "addr:street": "Avinguda Diagonal", "amenity": "bank", "brand": "Caixabank", "brand:website": "https://caixabank.es", "brand:wikidata": "Q847225", "brand:wikipedia": "es:CaixaBank", "contact:website": "https://www.caixabank.es", "entrance": "yes", "name": "Caixabank"}}, {"type": "node", "id": 2509788222, "lat": 41.3783552, "lon": 2.154207, "tags": {"amenity": "bank", "atm": "yes", "brand": "Caixabank", "brand:website": "https://caixabank.es", "brand:wikidata": "Q847225", "brand:wikipedia": "es:CaixaBank", "contact:website": "https://www.caixabank.es", "name": "Caixabank"}}, {"type": "node", "id": 2560078801, "lat": 41.3804438, "lon": 2.1567621, "tags": {"amenity": "bank", "atm": "no", "brand": "Caixabank", "brand:website": "https://caixabank.es", "brand:wikidata": "Q847225", "brand:wikipedia": "es:CaixaBank", "contact:website": "https://www.caixabank.es", "name": "Caixabank", "wheelchair": "yes"}}, {"type": "node", "id": 2624038853, "lat": 41.3989732, "lon": 2.1681522, "tags": {"addr:housenumber": "390", "addr:street": "Avinguda Diagonal", "amenity": "bank", "atm": "yes", "atm:network": "Servired", "brand": "Caixabank", "brand:website": "https://caixabank.es", "brand:wikidata": "Q847225", "brand:wikipedia": "es:CaixaBank", "check_date": "2024-10-22", "contact:website": "https://www.caixabank.es", "name": "Caixabank", "operator": "La Caixa"}}, {"type": "node", "id": 2627845563, "lat": 41.4163889, "lon": 2.1852576, "tags": {"amenity": "bank", "atm": "yes", "atm:network": "Servired", "brand": "Banco Sabadell", "brand:ca": "Banc Sabadell", "brand:es": "Banco Sabadell", "brand:wikidata": "Q762330", "brand:wikipedia": "es:Banco Sabadell", "name": "Banco Sabadell", "name:ca": "Banc Sabadell", "name:es": "Banco Sabadell", "official_name": "Banco de Sabadell, S.A."}}, {"type": "node", "id": 2643514075, "lat": 41.3899581, "lon": 2.1464073, "tags": {"addr:housenumber": "19", "addr:street": "Avinguda de Sarri\u00e0", "amenity": "bank", "brand": "Banco Sabadell", "brand:ca": "Banc Sabadell", "brand:es": "Banco Sabadell", "brand:wikidata": "Q762330", "brand:wikipedia": "es:Banco Sabadell", "name": "Banco Sabadell", "name:ca": "Banc Sabadell", "name:es": "Banco Sabadell", "official_name": "Banco de Sabadell, S.A.", "wheelchair": "yes"}}, {"type": "node", "id": 2689415402, "lat": 41.3979567, "lon": 2.1296933, "tags": {"addr:country": "ES", "amenity": "bank", "atm": "yes", "atm:network": "Servired", "atm:operator": "BBVA", "brand": "BBVA", "brand:wikidata": "Q806189", "brand:wikipedia": "en:Banco Bilbao Vizcaya Argentaria", "name": "BBVA", "name:ca": "BBVA", "official_name": "Banco Bilbao Vizcaya Argentaria", "operator": "BBVA"}}, {"type": "node", "id": 2700343385, "lat": 41.4103763, "lon": 2.137725, "tags": {"addr:country": "ES", "amenity": "bank", "atm": "yes", "atm:network": "Servired", "atm:operator": "BBVA", "brand": "BBVA", "brand:wikidata": "Q806189", "brand:wikipedia": "en:Banco Bilbao Vizcaya Argentaria", "name": "BBVA", "name:ca": "BBVA", "official_name": "Banco Bilbao Vizcaya Argentaria", "operator": "BBVA"}}, {"type": "node", "id": 2700343388, "lat": 41.4121693, "lon": 2.140481, "tags": {"addr:city": "Barcelona", "addr:housenumber": "226", "addr:street": "Avinguda de la Rep\u00fablica Argentina", "amenity": "bank", "atm": "yes", "atm:network": "Servired", "atm:operator": "CatalunyaCaixa", "brand": "BBVA", "brand:wikidata": "Q806189", "brand:wikipedia": "en:Banco Bilbao Vizcaya Argentaria", "name": "BBVA", "name:2011-2016": "CatalunyaCaixa", "name:ca": "BBVA", "official_name": "Banco Bilbao Vizcaya Argentaria"}}, {"type": "node", "id": 2700343389, "lat": 41.4113838, "lon": 2.1381684, "tags": {"addr:country": "ES", "amenity": "bank", "atm": "yes", "atm:network": "Telebanco 4B", "atm:operator": "Banco Santander", "brand": "Banco Santander", "brand:en": "Santander Bank", "brand:es": "Banco Santander", "brand:wikidata": "Q6496310", "brand:wikipedia": "es:Banco Santander", "name": "Banco Santander", "name:ca": "Banc Santander", "name:en": "Santander Bank", "name:es": "Banco Santander", "official_name": "Santander Group", "operator": "Banco Santander"}}, {"type": "node", "id": 2717585005, "lat": 41.4108881, "lon": 2.1382796, "tags": {"amenity": "bank", "atm": "yes", "atm:network": "Servired", "brand": "Caixabank", "brand:website": "https://caixabank.es", "brand:wikidata": "Q847225", "brand:wikipedia": "es:CaixaBank", "contact:website": "https://www.caixabank.es", "name": "Caixabank", "operator": "La Caixa"}}, {"type": "node", "id": 2726600849, "lat": 41.4110636, "lon": 2.1380964, "tags": {"amenity": "bank", "atm": "yes", "atm:network": "Servired", "brand": "Banco Sabadell", "brand:ca": "Banc Sabadell", "brand:es": "Banco Sabadell", "brand:wikidata": "Q762330", "brand:wikipedia": "es:Banco Sabadell", "name": "Banco Sabadell", "name:ca": "Banc Sabadell", "name:es": "Banco Sabadell", "official_name": "Banco de Sabadell, S.A."}}, {"type": "node", "id": 2788454402, "lat": 41.4072814, "lon": 2.2083679, "tags": {"addr:city": "Barcelona", "addr:housenumber": "328-340", "addr:postcode": "08019", "addr:street": "Carrer de Pujades", "amenity": "bank", "atm": "yes", "brand": "Caixabank", "brand:website": "https://caixabank.es", "brand:wikidata": "Q847225", "brand:wikipedia": "es:CaixaBank", "contact:website": "https://www.caixabank.es", "name": "Caixabank"}}, {"type": "node", "id": 2956932675, "lat": 41.4346389, "lon": 2.2019513, "tags": {"addr:city": "Sant Adri\u00e0 del Bes\u00f3s", "addr:country": "ES", "addr:housenumber": "17-23", "addr:street": "Carrer de la Formiga", "amenity": "bank", "atm": "yes", "atm:network": "Telebanco 4B", "atm:operator": "Banco Santander", "brand": "Banco Santander", "brand:en": "Santander Bank", "brand:es": "Banco Santander", "brand:wikidata": "Q6496310", "brand:wikipedia": "es:Banco Santander", "name": "Banco Santander", "name:ca": "Banc Santander", "name:en": "Santander Bank", "name:es": "Banco Santander", "official_name": "Santander Group"}}, {"type": "node", "id": 2956932680, "lat": 41.436369, "lon": 2.2056213, "tags": {"amenity": "bank", "atm": "yes", "brand": "Caixa Catalunya", "operator": "Servicaixa"}}, {"type": "node", "id": 2956932681, "lat": 41.4363787, "lon": 2.2058414, "tags": {"addr:city": "Sant Adri\u00e0 del Bes\u00f3s", "addr:country": "ES", "addr:housenumber": "135", "addr:street": "Carrer de Sant Adri\u00e0", "amenity": "bank", "atm": "yes", "atm:network": "Telebanco 4B", "atm:operator": "Banco Santander", "brand": "Banco Santander", "brand:en": "Santander Bank", "brand:es": "Banco Santander", "brand:wikidata": "Q6496310", "brand:wikipedia": "es:Banco Santander", "name": "Banco Santander", "name:ca": "Banc Santander", "name:en": "Santander Bank", "name:es": "Banco Santander", "official_name": "Santander Group"}}, {"type": "node", "id": 2967993572, "lat": 41.3825323, "lon": 2.1742993, "tags": {"amenity": "bank", "brand": "Caixabank", "brand:website": "https://caixabank.es", "brand:wikidata": "Q847225", "brand:wikipedia": "es:CaixaBank", "contact:website": "https://www.caixabank.es", "name": "Caixabank"}}, {"type": "node", "id": 2969274954, "lat": 41.400412, "lon": 2.1687535, "tags": {"amenity": "bank", "brand": "BBVA", "brand:wikidata": "Q806189", "brand:wikipedia": "en:Banco Bilbao Vizcaya Argentaria", "name": "BBVA", "name:2011-2016": "CatalunyaCaixa", "name:ca": "BBVA", "official_name": "Banco Bilbao Vizcaya Argentaria"}}, {"type": "node", "id": 2969276724, "lat": 41.4013928, "lon": 2.1664467, "tags": {"amenity": "bank", "brand": "Caixabank", "brand:website": "https://caixabank.es", "brand:wikidata": "Q847225", "brand:wikipedia": "es:CaixaBank", "check_date": "2024-10-22", "contact:website": "https://www.caixabank.es", "name": "Caixabank", "wheelchair": "yes"}}, {"type": "node", "id": 2969276728, "lat": 41.4025856, "lon": 2.1647692, "tags": {"amenity": "bank", "brand": "BBVA", "brand:wikidata": "Q806189", "brand:wikipedia": "en:Banco Bilbao Vizcaya Argentaria", "name": "BBVA", "name:2011-2016": "CatalunyaCaixa", "name:ca": "BBVA", "official_name": "Banco Bilbao Vizcaya Argentaria"}}, {"type": "node", "id": 2969276730, "lat": 41.4034022, "lon": 2.1635858, "tags": {"amenity": "bank", "brand": "BBVA", "brand:wikidata": "Q806189", "brand:wikipedia": "en:Banco Bilbao Vizcaya Argentaria", "check_date": "2023-08-21", "name": "BBVA", "name:ca": "BBVA", "official_name": "Banco Bilbao Vizcaya Argentaria", "opening_hours": "Mo-Fr 08:30-14:15"}}, {"type": "node", "id": 2969276958, "lat": 41.4023748, "lon": 2.1720118, "tags": {"amenity": "bank", "brand": "Cajamar", "brand:wikidata": "Q8254971", "brand:wikipedia": "es:Cajamar", "name": "Cajamar"}}, {"type": "node", "id": 2970751852, "lat": 41.4018329, "lon": 2.1533512, "tags": {"amenity": "bank", "brand": "Caixabank", "brand:website": "https://caixabank.es", "brand:wikidata": "Q847225", "brand:wikipedia": "es:CaixaBank", "contact:website": "https://www.caixabank.es", "name": "Caixabank", "opening_hours": "Mo-Th 08:30-18:30; Fr 08:30-14:30", "operator": "Caixabank", "wheelchair": "yes"}}, {"type": "node", "id": 2971984062, "lat": 41.3809162, "lon": 2.1715844, "tags": {"amenity": "bank", "brand": "Caixabank", "brand:website": "https://caixabank.es", "brand:wikidata": "Q847225", "brand:wikipedia": "es:CaixaBank", "contact:website": "https://www.caixabank.es", "name": "Caixabank"}}, {"type": "node", "id": 2971984399, "lat": 41.3795383, "lon": 2.1744276, "tags": {"amenity": "bank", "brand": "Western Union", "brand:wikidata": "Q861042", "brand:wikipedia": "en:Western Union", "check_date": "2024-05-24", "name": "Western Union"}}, {"type": "node", "id": 3006291532, "lat": 41.4155514, "lon": 2.1630005, "tags": {"amenity": "bank", "atm": "yes", "atm:network": "Servired", "brand": "Caixabank", "brand:website": "https://caixabank.es", "brand:wikidata": "Q847225", "brand:wikipedia": "es:CaixaBank", "contact:website": "https://www.caixabank.es", "name": "Caixabank", "opening_hours": "Mo-Fr 08:00-14:00; Th 08:00-19:00"}}, {"type": "node", "id": 3006698179, "lat": 41.4073689, "lon": 2.1581581, "tags": {"amenity": "bank", "atm": "yes", "atm:network": "Servired", "brand": "Caixabank", "brand:website": "https://caixabank.es", "brand:wikidata": "Q847225", "brand:wikipedia": "es:CaixaBank", "check_date": "2024-05-01", "contact:website": "https://www.caixabank.es", "name": "Caixabank"}}, {"type": "node", "id": 3006698813, "lat": 41.4077184, "lon": 2.1587508, "tags": {"amenity": "bank", "atm": "yes", "check_date": "2024-05-01", "name": "Targobank"}}, {"type": "node", "id": 3007026883, "lat": 41.4136187, "lon": 2.1614526, "tags": {"amenity": "bank", "atm": "yes", "atm:network": "Telebanco 4B", "atm:operator": "Banco Santander", "brand": "Banco Santander", "brand:en": "Santander Bank", "brand:es": "Banco Santander", "brand:wikidata": "Q6496310", "brand:wikipedia": "es:Banco Santander", "name": "Banco Santander", "name:ca": "Banc Santander", "name:en": "Santander Bank", "name:es": "Banco Santander", "official_name": "Santander Group", "operator": "Santander", "wheelchair": "no"}}, {"type": "node", "id": 3011930745, "lat": 41.413333, "lon": 2.1616455, "tags": {"amenity": "bank", "atm": "yes", "brand": "BBVA", "brand:wikidata": "Q806189", "brand:wikipedia": "en:Banco Bilbao Vizcaya Argentaria", "name": "BBVA", "name:1926-2010": "Caixa Catalunya", "name:2011-2016": "CatalunyaCaixa", "name:ca": "BBVA", "official_name": "Banco Bilbao Vizcaya Argentaria"}}, {"type": "node", "id": 3011930746, "lat": 41.4130632, "lon": 2.1618549, "tags": {"amenity": "bank", "atm": "yes", "atm:network": "Servired", "atm:operator": "BBVA", "brand": "BBVA", "brand:wikidata": "Q806189", "brand:wikipedia": "en:Banco Bilbao Vizcaya Argentaria", "name": "BBVA", "name:ca": "BBVA", "official_name": "Banco Bilbao Vizcaya Argentaria"}}, {"type": "node", "id": 3011930748, "lat": 41.4131724, "lon": 2.1614453, "tags": {"amenity": "bank", "atm": "yes", "atm:network": "Servired", "brand": "Caixabank", "brand:website": "https://caixabank.es", "brand:wikidata": "Q847225", "brand:wikipedia": "es:CaixaBank", "contact:website": "https://www.caixabank.es", "name": "Caixabank", "wheelchair": "yes"}}, {"type": "node", "id": 3016011405, "lat": 41.4116849, "lon": 2.16053, "tags": {"amenity": "bank", "atm": "yes", "name": "Caixa d'Enginyers", "name:ca": "Caixa d'Enginyers"}}, {"type": "node", "id": 3044256134, "lat": 41.4091346, "lon": 2.2036597, "tags": {"amenity": "bank", "atm": "yes", "atm:network": "Servired", "brand": "Caixabank", "brand:website": "https://caixabank.es", "brand:wikidata": "Q847225", "brand:wikipedia": "es:CaixaBank", "contact:website": "https://www.caixabank.es", "name": "Caixabank"}}, {"type": "node", "id": 3044257333, "lat": 41.41534, "lon": 2.2068497, "tags": {"amenity": "bank", "atm": "yes", "atm:network": "Servired", "atm:operator": "BBVA", "brand": "BBVA", "brand:wikidata": "Q806189", "brand:wikipedia": "en:Banco Bilbao Vizcaya Argentaria", "name": "BBVA", "name:ca": "BBVA", "official_name": "Banco Bilbao Vizcaya Argentaria"}}, {"type": "node", "id": 3046155435, "lat": 41.413223, "lon": 2.1988597, "tags": {"amenity": "bank", "atm": "yes", "atm:network": "Servired", "brand": "Caixabank", "brand:website": "https://caixabank.es", "brand:wikidata": "Q847225", "brand:wikipedia": "es:CaixaBank", "contact:website": "https://www.caixabank.es", "name": "Caixabank", "wheelchair": "yes"}}, {"type": "node", "id": 3048036441, "lat": 41.4008262, "lon": 2.2060052, "tags": {"amenity": "bank", "atm": "yes", "atm:network": "Servired", "brand": "Caixabank", "brand:website": "https://caixabank.es", "brand:wikidata": "Q847225", "brand:wikipedia": "es:CaixaBank", "contact:website": "https://www.caixabank.es", "name": "Caixabank"}}, {"type": "node", "id": 3048077638, "lat": 41.3995802, "lon": 2.2027398, "tags": {"addr:city": "Barcelona", "addr:housenumber": "206", "addr:street": "Carrer de Ram\u00f3n Turr\u00f3", "amenity": "bank", "atm": "yes", "brand": "Kutxabank", "brand:wikidata": "Q5139377", "brand:wikipedia": "en:Kutxabank", "name": "Kutxabank"}}, {"type": "node", "id": 3049371938, "lat": 41.4076944, "lon": 2.1882482, "tags": {"addr:city": "Barcelona", "addr:country": "ES", "addr:housenumber": "62", "addr:postcode": "08018", "addr:street": "Carrer del Clot", "amenity": "bank", "atm": "yes", "atm:network": "Servired", "atm:operator": "CatalunyaCaixa", "brand": "BBVA", "brand:wikidata": "Q806189", "brand:wikipedia": "en:Banco Bilbao Vizcaya Argentaria", "name": "BBVA", "name:2011-2016": "CatalunyaCaixa", "name:ca": "BBVA", "official_name": "Banco Bilbao Vizcaya Argentaria"}}, {"type": "node", "id": 3049395436, "lat": 41.4069368, "lon": 2.1875245, "tags": {"amenity": "bank", "atm": "yes", "atm:network": "Servired", "brand": "Caixabank", "brand:website": "https://caixabank.es", "brand:wikidata": "Q847225", "brand:wikipedia": "es:CaixaBank", "contact:website": "https://www.caixabank.es", "name": "Caixabank", "opening_hours": "Sep-Jul: Mo-Fr 08:15-19:45; Aug: Mo-Fr 08:15-14:45", "wheelchair": "yes"}}, {"type": "node", "id": 3049395446, "lat": 41.4112068, "lon": 2.1897449, "tags": {"addr:city": "Barcelona", "addr:housenumber": "639-641", "addr:street": "Carrer d'Arag\u00f3", "amenity": "bank", "atm": "yes", "atm:network": "Telebanco 4B", "atm:operator": "Banco Santander", "brand": "Banco Santander", "brand:en": "Santander Bank", "brand:es": "Banco Santander", "brand:wikidata": "Q6496310", "brand:wikipedia": "es:Banco Santander", "name": "Banco Santander", "name:ca": "Banc Santander", "name:en": "Santander Bank", "name:es": "Banco Santander", "official_name": "Santander Group", "opening_hours": "Mo-Fr 08:30-14:30", "operator": "Santander", "wheelchair": "yes"}}, {"type": "node", "id": 3099901229, "lat": 41.4208171, "lon": 2.1874848, "tags": {"amenity": "bank", "atm": "yes", "atm:network": "Servired", "atm:operator": "CatalunyaCaixa", "brand": "BBVA", "brand:wikidata": "Q806189", "brand:wikipedia": "en:Banco Bilbao Vizcaya Argentaria", "name": "BBVA", "name:2011-2016": "CatalunyaCaixa", "name:ca": "BBVA", "official_name": "Banco Bilbao Vizcaya Argentaria"}}, {"type": "node", "id": 3099901329, "lat": 41.4204687, "lon": 2.1872963, "tags": {"amenity": "bank", "atm": "yes", "atm:network": "Servired", "brand": "Banco Sabadell", "brand:ca": "Banc Sabadell", "brand:es": "Banco Sabadell", "brand:wikidata": "Q762330", "brand:wikipedia": "es:Banco Sabadell", "name": "Banco Sabadell", "name:ca": "Banc Sabadell", "name:es": "Banco Sabadell", "official_name": "Banco de Sabadell, S.A.", "operator": "Sabadell Atl\u00e1ntico"}}, {"type": "node", "id": 3106920729, "lat": 41.3843727, "lon": 2.1747544, "tags": {"amenity": "bank", "atm": "yes", "check_date": "2023-07-30", "name": "arquia caixa d'arquitectes", "opening_hours": "Fr 08:00-14:30; Mo-Th 08:00-16:30", "wheelchair": "yes"}}, {"type": "node", "id": 3160193630, "lat": 41.3736912, "lon": 2.0851153, "tags": {"addr:city": "Esplugues de Llobregat", "amenity": "bank", "atm": "yes", "atm:network": "Servired", "brand": "Banco Sabadell", "brand:ca": "Banc Sabadell", "brand:es": "Banco Sabadell", "brand:wikidata": "Q762330", "brand:wikipedia": "es:Banco Sabadell", "name": "Banco Sabadell", "name:ca": "Banc Sabadell", "name:es": "Banco Sabadell", "official_name": "Banco de Sabadell, S.A.", "operator": "BancSabadell"}}, {"type": "node", "id": 3160209797, "lat": 41.3723064, "lon": 2.0838492, "tags": {"amenity": "bank", "atm": "yes", "atm:network": "Telebanco 4B", "atm:operator": "Banco Santander", "brand": "Banco Santander", "brand:en": "Santander Bank", "brand:es": "Banco Santander", "brand:wikidata": "Q6496310", "brand:wikipedia": "es:Banco Santander", "name": "Banco Santander", "name:ca": "Banc Santander", "name:en": "Santander Bank", "name:es": "Banco Santander", "official_name": "Santander Group", "operator": "Santander"}}, {"type": "node", "id": 3160213036, "lat": 41.3721228, "lon": 2.0838888, "tags": {"addr:city": "Esplugues de Llobregat", "addr:housenumber": "8", "addr:postcode": "08950", "addr:street": "Pla\u00e7a de la Sardana", "amenity": "bank", "atm": "yes", "atm:network": "Servired", "atm:operator": "CatalunyaCaixa", "brand": "BBVA", "brand:wikidata": "Q806189", "brand:wikipedia": "en:Banco Bilbao Vizcaya Argentaria", "name": "BBVA", "name:2011-2016": "CatalunyaCaixa", "name:ca": "BBVA", "official_name": "Banco Bilbao Vizcaya Argentaria"}}, {"type": "node", "id": 3160218428, "lat": 41.3725419, "lon": 2.0864859, "tags": {"amenity": "bank", "atm": "yes", "brand": "Caixabank", "brand:website": "https://caixabank.es", "brand:wikidata": "Q847225", "brand:wikipedia": "es:CaixaBank", "contact:website": "https://www.caixabank.es", "name": "Caixabank"}}, {"type": "node", "id": 3163748899, "lat": 41.3775633, "lon": 2.0854883, "tags": {"amenity": "bank", "atm": "yes", "atm:network": "Servired", "brand": "Banco Sabadell", "brand:ca": "Banc Sabadell", "brand:es": "Banco Sabadell", "brand:wikidata": "Q762330", "brand:wikipedia": "es:Banco Sabadell", "name": "Banco Sabadell", "name:ca": "Banc Sabadell", "name:es": "Banco Sabadell", "official_name": "Banco de Sabadell, S.A.", "operator": "Sabadell"}}, {"type": "node", "id": 3163751126, "lat": 41.3773912, "lon": 2.0866605, "tags": {"addr:city": "Esplugues de Llobregat", "addr:housenumber": "1", "addr:postcode": "08950", "addr:street": "Carrer d'\u00c0ngel Guimer\u00e0", "amenity": "bank", "atm": "yes", "brand": "Caixabank", "brand:website": "https://caixabank.es", "brand:wikidata": "Q847225", "brand:wikipedia": "es:CaixaBank", "contact:website": "https://www.caixabank.es", "name": "Caixabank"}}, {"type": "node", "id": 3280462064, "lat": 41.3753402, "lon": 2.0866673, "tags": {"amenity": "bank", "atm": "yes", "brand": "Caixabank", "brand:-2021": "Bankia", "brand:website": "https://caixabank.es", "brand:wikidata": "Q847225", "brand:wikidata:-2021": "Q806807", "brand:wikipedia": "es:CaixaBank", "brand:wikipedia:-2021": "es:Bankia", "contact:website": "https://www.caixabank.es", "name": "Caixabank", "name:-2021": "Bankia", "operator": "Caixabank", "operator:-2021": "Bankia", "operator:wikidata": "Q847225", "operator:wikidata:-2021": "Q806807", "operator:wikipedia": "es:CaixaBank", "operator:wikipedia:-2021": "es:Bankia"}}, {"type": "node", "id": 3280462195, "lat": 41.3765607, "lon": 2.087786, "tags": {"amenity": "bank", "brand": "BBVA", "brand:wikidata": "Q806189", "brand:wikipedia": "en:Banco Bilbao Vizcaya Argentaria", "name": "BBVA", "name:ca": "BBVA", "official_name": "Banco Bilbao Vizcaya Argentaria"}}, {"type": "node", "id": 3306382445, "lat": 41.3753611, "lon": 2.0834964, "tags": {"amenity": "bank", "brand": "Ibercaja", "brand:wikidata": "Q5907815", "brand:wikipedia": "es:Ibercaja", "name": "Ibercaja"}}, {"type": "node", "id": 3350782816, "lat": 41.3909874, "lon": 2.1939651, "tags": {"addr:city": "Barcelona", "addr:housenumber": "21", "addr:street": "Carrer de Joan Mir\u00f3", "amenity": "bank", "brand": "BBVA", "brand:wikidata": "Q806189", "brand:wikipedia": "en:Banco Bilbao Vizcaya Argentaria", "name": "BBVA", "name:ca": "BBVA", "official_name": "Banco Bilbao Vizcaya Argentaria", "operator": "BBVA"}}, {"type": "node", "id": 3529199133, "lat": 41.3863895, "lon": 2.1697363, "tags": {"amenity": "bank", "artwork_type": "Barcelona Inspiira"}}, {"type": "node", "id": 3634100004, "lat": 41.3765389, "lon": 2.0836194, "tags": {"amenity": "bank", "atm": "yes", "brand": "BBVA", "brand:wikidata": "Q806189", "brand:wikipedia": "en:Banco Bilbao Vizcaya Argentaria", "name": "BBVA", "name:ca": "BBVA", "official_name": "Banco Bilbao Vizcaya Argentaria"}}, {"type": "node", "id": 3718589942, "lat": 41.3592361, "lon": 2.0991455, "tags": {"amenity": "bank", "atm": "yes", "brand": "Kutxabank", "brand:wikidata": "Q5139377", "brand:wikipedia": "en:Kutxabank", "name": "Kutxabank"}}, {"type": "node", "id": 3722790606, "lat": 41.3607647, "lon": 2.1014124, "tags": {"addr:housenumber": "11", "addr:street": "Rambla de Just Oliveras", "amenity": "bank", "atm": "yes", "atm:network": "Servired", "atm:operator": "BBVA", "brand": "BBVA", "brand:wikidata": "Q806189", "brand:wikipedia": "en:Banco Bilbao Vizcaya Argentaria", "contact:phone": "+34 934 01 48 00", "contact:website": "https://www.bbva.es/general/oficinas/barcelona/hospitalet-de-llobregat-(l')/l'hospitalet-centro/3050", "name": "BBVA", "name:ca": "BBVA", "official_name": "Banco Bilbao Vizcaya Argentaria", "ref": "3050"}}, {"type": "node", "id": 3722790607, "lat": 41.3608772, "lon": 2.10169, "tags": {"addr:housenumber": "14", "addr:street": "Rambla de Just Oliveras", "amenity": "bank", "atm": "yes", "branch": "l'Hospitalet de Llobregat", "brand": "Bankinter", "brand:wikidata": "Q806808", "brand:wikipedia": "es:Bankinter", "contact:phone": "+34 932 60 20 20", "name": "Bankinter", "name:ca": "Bankinter"}}, {"type": "node", "id": 3813175975, "lat": 41.3855097, "lon": 2.1520431, "tags": {"addr:city": "Barcelona", "addr:housenumber": "200", "addr:postcode": "08029", "addr:street": "Carrer del Comte Borrell", "amenity": "bank", "atm": "yes", "atm:network": "Servired", "brand:wikipedia": "es:Banco Sabadell", "contact:fax": "+34 934527288", "contact:phone": "+34 934548403", "opening_hours": "Mo-Fr 08:15-14:00; Oct-Mar: Th 08:15-18:30; PH off", "operator": "Caixa d'Enginyers"}}, {"type": "node", "id": 3884061272, "lat": 41.3888064, "lon": 2.1734678, "tags": {"amenity": "bank", "atm": "yes", "brand": "Caixabank", "brand:website": "https://caixabank.es", "brand:wikidata": "Q847225", "brand:wikipedia": "es:CaixaBank", "contact:website": "https://www.caixabank.es", "name": "Caixabank"}}, {"type": "node", "id": 3937709092, "lat": 41.4431274, "lon": 2.2036363, "tags": {"addr:city": "Barcelona", "addr:housenumber": "22", "addr:postcode": "08030", "addr:street": "Carrer de Potos\u00ed"}}, {"type": "node", "id": 3992521462, "lat": 41.4047494, "lon": 2.2131585, "tags": {"addr:city": "Barcelona", "addr:housenumber": "222", "addr:postcode": "08019", "addr:street": "Passeig del Taulat", "amenity": "bank", "brand": "BBVA", "brand:wikidata": "Q806189", "brand:wikipedia": "en:Banco Bilbao Vizcaya Argentaria", "name": "BBVA", "name:ca": "BBVA", "official_name": "Banco Bilbao Vizcaya Argentaria"}}, {"type": "node", "id": 4047447375, "lat": 41.4015716, "lon": 2.1247277, "tags": {"addr:city": "Barcelona", "addr:housenumber": "99", "addr:street": "Passeig de la Bonanova", "amenity": "bank", "atm": "yes", "brand": "Caixabank", "brand:-2021": "Bankia", "brand:website": "https://caixabank.es", "brand:wikidata": "Q847225", "brand:wikidata:-2021": "Q806807", "brand:wikipedia": "es:CaixaBank", "brand:wikipedia:-2021": "es:Bankia", "contact:website": "https://www.caixabank.es", "name": "Caixabank", "name:-2021": "Bankia", "operator": "Caixabank", "operator:-2021": "Bankia", "operator:wikidata": "Q847225", "operator:wikidata:-2021": "Q806807", "operator:wikipedia": "es:CaixaBank", "operator:wikipedia:-2021": "es:Bankia"}}, {"type": "node", "id": 4126684772, "lat": 41.3959253, "lon": 2.1747194, "tags": {"amenity": "bank", "brand": "Cajamar", "brand:wikidata": "Q8254971", "brand:wikipedia": "es:Cajamar", "name": "Cajamar"}}, {"type": "node", "id": 4126685071, "lat": 41.3956514, "lon": 2.1750558, "tags": {"amenity": "bank", "brand": "BBVA", "brand:wikidata": "Q806189", "brand:wikipedia": "en:Banco Bilbao Vizcaya Argentaria", "name": "BBVA", "name:ca": "BBVA", "official_name": "Banco Bilbao Vizcaya Argentaria", "wheelchair": "yes"}}, {"type": "node", "id": 4126685394, "lat": 41.3957017, "lon": 2.1749133, "tags": {"amenity": "bank", "brand": "Caixabank", "brand:website": "https://caixabank.es", "brand:wikidata": "Q847225", "brand:wikipedia": "es:CaixaBank", "contact:website": "https://www.caixabank.es", "name": "Caixabank", "wheelchair": "yes"}}, {"type": "node", "id": 4140968824, "lat": 41.4064614, "lon": 2.1720479, "tags": {"amenity": "bank", "brand": "BBVA", "brand:wikidata": "Q806189", "brand:wikipedia": "en:Banco Bilbao Vizcaya Argentaria", "name": "BBVA", "name:ca": "BBVA", "official_name": "Banco Bilbao Vizcaya Argentaria", "opening_hours": "00:00-24:00"}}, {"type": "node", "id": 4172982292, "lat": 41.4074534, "lon": 2.1633212, "tags": {"amenity": "bank", "brand": "BBVA", "brand:wikidata": "Q806189", "brand:wikipedia": "en:Banco Bilbao Vizcaya Argentaria", "name": "BBVA", "name:ca": "BBVA", "official_name": "Banco Bilbao Vizcaya Argentaria"}}, {"type": "node", "id": 4174898036, "lat": 41.3926287, "lon": 2.1307742, "tags": {"amenity": "bank", "atm": "yes", "brand": "Caixabank", "brand:website": "https://caixabank.es", "brand:wikidata": "Q847225", "brand:wikipedia": "es:CaixaBank", "contact:website": "https://www.caixabank.es", "name": "Caixabank", "operator": "CaixaBank"}}, {"type": "node", "id": 4174899727, "lat": 41.3980087, "lon": 2.1272171, "tags": {"amenity": "bank", "atm": "yes", "brand": "Caixabank", "brand:website": "https://caixabank.es", "brand:wikidata": "Q847225", "brand:wikipedia": "es:CaixaBank", "contact:website": "https://www.caixabank.es", "name": "Caixabank", "operator": "CaixaBank"}}, {"type": "node", "id": 4236018214, "lat": 41.3942312, "lon": 2.1755352, "tags": {"addr:city": "Barcelona", "addr:housenumber": "5", "addr:postcode": "08010", "addr:street": "Pla\u00e7a de Tetuan", "amenity": "bank", "atm": "yes", "brand": "Banco Santander", "brand:en": "Santander Bank", "brand:es": "Banco Santander", "brand:wikidata": "Q6496310", "brand:wikipedia": "es:Banco Santander", "name": "Banco Santander", "name:ca": "Banc Santander", "name:en": "Santander Bank", "name:es": "Banco Santander", "official_name": "Santander Group", "opening_hours": "Mo-Fr 08:30-14:30", "operator": "Santander"}}, {"type": "node", "id": 4254648446, "lat": 41.397068, "lon": 2.1789481, "tags": {"amenity": "bank", "atm": "yes", "brand": "BBVA", "brand:wikidata": "Q806189", "brand:wikipedia": "en:Banco Bilbao Vizcaya Argentaria", "name": "BBVA", "name:2011-2016": "CatalunyaCaixa", "name:ca": "BBVA", "official_name": "Banco Bilbao Vizcaya Argentaria", "opening_hours": "Mo-Fr 08:30-14:15", "wheelchair": "yes"}}, {"type": "node", "id": 4254655789, "lat": 41.393635, "lon": 2.1872169, "tags": {"amenity": "bank", "atm": "yes", "brand": "Banco Sabadell", "brand:ca": "Banc Sabadell", "brand:es": "Banco Sabadell", "brand:wikidata": "Q762330", "brand:wikipedia": "es:Banco Sabadell", "name": "Banco Sabadell", "name:ca": "Banc Sabadell", "name:es": "Banco Sabadell", "official_name": "Banco de Sabadell, S.A."}}, {"type": "node", "id": 4254664042, "lat": 41.3930889, "lon": 2.1886246, "tags": {"amenity": "bank", "atm": "yes", "brand": "BBVA", "brand:wikidata": "Q806189", "brand:wikipedia": "en:Banco Bilbao Vizcaya Argentaria", "name": "BBVA", "name:ca": "BBVA", "official_name": "Banco Bilbao Vizcaya Argentaria"}}, {"type": "node", "id": 4254711150, "lat": 41.3926464, "lon": 2.1790005, "tags": {"amenity": "bank", "atm": "yes", "brand": "Caixabank", "brand:website": "https://caixabank.es", "brand:wikidata": "Q847225", "brand:wikipedia": "es:CaixaBank", "contact:website": "https://www.caixabank.es", "name": "Caixabank", "opening_hours": "Oct-Apr: Mo-Fr 08:15-14:00; Oct-Apr: Th 16:15-18:45; May-Sep: Mo-Fr 08:15-14:00", "wheelchair": "no"}}, {"type": "node", "id": 4254711366, "lat": 41.3940249, "lon": 2.1772375, "tags": {"amenity": "bank", "atm": "yes", "brand": "Caixabanc", "name": "Caixabanc"}}, {"type": "node", "id": 4316622890, "lat": 41.413363, "lon": 2.1937076, "tags": {"amenity": "bank", "brand": "Caixabank", "brand:website": "https://caixabank.es", "brand:wikidata": "Q847225", "brand:wikipedia": "es:CaixaBank", "contact:website": "https://www.caixabank.es", "name": "Caixabank", "opening_hours": "Mo-Fr 08:15-14:00; Oct-Apr: Th 16:15-18:45", "wheelchair": "yes"}}, {"type": "node", "id": 4346310436, "lat": 41.3764743, "lon": 2.138976, "tags": {"addr:city": "Barcelona", "addr:housenumber": "15", "addr:street": "Carrer de Premi\u00e0", "amenity": "bank", "atm": "no", "email": "coop57@coop57.coop", "name": "Coop57", "name:ca": "Coop57", "official_name": "Coop57 societat cooperativa catalana limitada", "opening_hours": "Mo-Th 09:00-18:00; Fr 09:00-15:00", "operator": "Coop57", "phone": "+34 932 68 29 49", "twitter": "https://twitter.com/coop_57", "website": "https://coop57.coop", "wikidata": "Q8462531", "wikipedia": "ca:Coop57"}}, {"type": "node", "id": 4346604589, "lat": 41.392909, "lon": 2.1901701, "tags": {"amenity": "bank", "brand": "Banco Santander", "brand:en": "Santander Bank", "brand:es": "Banco Santander", "brand:wikidata": "Q6496310", "brand:wikipedia": "es:Banco Santander", "name": "Banco Santander", "name:ca": "Banc Santander", "name:en": "Santander Bank", "name:es": "Banco Santander", "official_name": "Santander Group", "operator": "Santander"}}, {"type": "node", "id": 4350364289, "lat": 41.4230074, "lon": 2.1559824, "tags": {"amenity": "bank", "brand": "Banco Santander", "brand:en": "Santander Bank", "brand:es": "Banco Santander", "brand:wikidata": "Q6496310", "brand:wikipedia": "es:Banco Santander", "name": "Banco Santander", "name:ca": "Banc Santander", "name:en": "Santander Bank", "name:es": "Banco Santander", "official_name": "Santander Group", "operator": "Santander"}}, {"type": "node", "id": 4350364389, "lat": 41.4228023, "lon": 2.1559906, "tags": {"amenity": "bank", "brand": "Caixabank", "brand:website": "https://caixabank.es", "brand:wikidata": "Q847225", "brand:wikipedia": "es:CaixaBank", "contact:website": "https://www.caixabank.es", "name": "Caixabank"}}, {"type": "node", "id": 4361560992, "lat": 41.3316248, "lon": 2.1145051, "tags": {"amenity": "bank", "brand": "BBVA", "brand:wikidata": "Q806189", "brand:wikipedia": "en:Banco Bilbao Vizcaya Argentaria", "name": "BBVA", "name:ca": "BBVA", "official_name": "Banco Bilbao Vizcaya Argentaria"}}, {"type": "node", "id": 4361560993, "lat": 41.3313146, "lon": 2.1147858, "tags": {"amenity": "bank", "brand": "Caixabank", "brand:website": "https://caixabank.es", "brand:wikidata": "Q847225", "brand:wikipedia": "es:CaixaBank", "contact:website": "https://www.caixabank.es", "name": "Caixabank"}}, {"type": "node", "id": 4361598089, "lat": 41.3311647, "lon": 2.1141371, "tags": {"amenity": "bank", "brand": "Banco Sabadell", "brand:ca": "Banc Sabadell", "brand:es": "Banco Sabadell", "brand:wikidata": "Q762330", "brand:wikipedia": "es:Banco Sabadell", "name": "Banco Sabadell", "name:ca": "Banc Sabadell", "name:es": "Banco Sabadell", "official_name": "Banco de Sabadell, S.A.", "old_name": "SabadellAtl\u00e1ntico"}}, {"type": "node", "id": 4362332291, "lat": 41.3769388, "lon": 2.1137658, "tags": {"amenity": "bank", "brand": "Caixabank", "brand:website": "https://caixabank.es", "brand:wikidata": "Q847225", "brand:wikipedia": "es:CaixaBank", "contact:website": "https://www.caixabank.es", "name": "Caixabank"}}, {"type": "node", "id": 4369642795, "lat": 41.3682543, "lon": 2.1317191, "tags": {"amenity": "bank", "brand": "BBVA", "brand:wikidata": "Q806189", "brand:wikipedia": "en:Banco Bilbao Vizcaya Argentaria", "name": "BBVA", "name:2011-2016": "CatalunyaCaixa", "name:ca": "BBVA", "official_name": "Banco Bilbao Vizcaya Argentaria", "wheelchair": "no"}}, {"type": "node", "id": 4369761289, "lat": 41.3681823, "lon": 2.1317073, "tags": {"amenity": "bank", "atm": "yes", "brand": "Banco Sabadell", "brand:ca": "Banc Sabadell", "brand:es": "Banco Sabadell", "brand:wikidata": "Q762330", "brand:wikipedia": "es:Banco Sabadell", "name": "Banco Sabadell", "name:ca": "Banc Sabadell", "name:es": "Banco Sabadell", "official_name": "Banco de Sabadell, S.A.", "wheelchair": "limited"}}, {"type": "node", "id": 4369845491, "lat": 41.3700044, "lon": 2.1329586, "tags": {"addr:city": "Barcelona", "addr:housenumber": "90", "addr:postcode": "08014", "addr:street": "Rambla de Badal", "amenity": "bank", "brand": "Caixabank", "brand:website": "https://caixabank.es", "brand:wikidata": "Q847225", "brand:wikipedia": "es:CaixaBank", "contact:website": "https://www.caixabank.es", "name": "Caixabank", "phone": "+34 932774240", "wheelchair": "yes"}}, {"type": "node", "id": 4370160091, "lat": 41.379116, "lon": 2.1629793, "tags": {"amenity": "bank", "brand": "Caixabank", "brand:website": "https://caixabank.es", "brand:wikidata": "Q847225", "brand:wikipedia": "es:CaixaBank", "contact:website": "https://www.caixabank.es", "name": "Caixabank", "wheelchair": "yes"}}, {"type": "node", "id": 4402968589, "lat": 41.3629959, "lon": 2.1004284, "tags": {"amenity": "bank", "brand": "Ibercaja", "brand:wikidata": "Q5907815", "brand:wikipedia": "es:Ibercaja", "name": "Ibercaja", "opening_hours": "Oct-Apr Mo-We,Fr 08:15-14:00; Oct-Apr Th 08:15-13:45,16:15-18:30; Oct-Apr Mo-Fr 08:15-14:00", "wheelchair": "no"}}, {"type": "node", "id": 4422279491, "lat": 41.3883004, "lon": 2.1732555, "tags": {"amenity": "bank", "brand": "Caixabank", "brand:-2021": "Bankia", "brand:website": "https://caixabank.es", "brand:wikidata": "Q847225", "brand:wikidata:-2021": "Q806807", "brand:wikipedia": "es:CaixaBank", "brand:wikipedia:-2021": "es:Bankia", "contact:website": "https://www.caixabank.es", "name": "Caixabank", "name:-2021": "Bankia", "operator": "Caixabank", "operator:-2021": "Bankia", "operator:wikidata": "Q847225", "operator:wikidata:-2021": "Q806807", "operator:wikipedia": "es:CaixaBank", "operator:wikipedia:-2021": "es:Bankia"}}, {"type": "node", "id": 4422279492, "lat": 41.387715, "lon": 2.1744294, "tags": {"amenity": "bank", "brand": "Caixabank", "brand:-2021": "Bankia", "brand:website": "https://caixabank.es", "brand:wikidata": "Q847225", "brand:wikidata:-2021": "Q806807", "brand:wikipedia": "es:CaixaBank", "brand:wikipedia:-2021": "es:Bankia", "contact:website": "https://www.caixabank.es", "name": "Caixabank", "name:-2021": "Bankia", "operator": "Caixabank", "operator:-2021": "Bankia", "operator:wikidata": "Q847225", "operator:wikidata:-2021": "Q806807", "operator:wikipedia": "es:CaixaBank", "operator:wikipedia:-2021": "es:Bankia"}}, {"type": "node", "id": 4439592591, "lat": 41.3934744, "lon": 2.1659588, "tags": {"addr:housenumber": "133-135", "addr:postcode": "08009", "addr:street": "Carrer de Pau Claris", "amenity": "bank"}}, {"type": "node", "id": 4449161843, "lat": 41.3814139, "lon": 2.1733429, "tags": {"amenity": "bank", "atm": "yes", "brand": "BBVA", "brand:wikidata": "Q806189", "brand:wikipedia": "en:Banco Bilbao Vizcaya Argentaria", "name": "BBVA", "name:ca": "BBVA", "official_name": "Banco Bilbao Vizcaya Argentaria"}}, {"type": "node", "id": 4449161845, "lat": 41.3816595, "lon": 2.1757155, "tags": {"amenity": "bank", "atm": "yes", "brand": "Caixabank", "brand:website": "https://caixabank.es", "brand:wikidata": "Q847225", "brand:wikipedia": "es:CaixaBank", "contact:website": "https://www.caixabank.es", "name": "Caixabank"}}, {"type": "node", "id": 4449161847, "lat": 41.3822128, "lon": 2.1766724, "tags": {"addr:housenumber": "44", "addr:postcode": "08002", "addr:street": "Carrer de Ferran", "amenity": "bank", "atm": "yes", "brand": "BBVA", "brand:wikidata": "Q806189", "brand:wikipedia": "en:Banco Bilbao Vizcaya Argentaria", "name": "BBVA", "name:ca": "BBVA", "official_name": "Banco Bilbao Vizcaya Argentaria"}}, {"type": "node", "id": 4449161848, "lat": 41.3826687, "lon": 2.1775074, "tags": {"addr:housenumber": "1", "addr:postcode": "08002", "addr:street": "Carrer de la Ciutat", "amenity": "bank", "brand": "Caixabank", "brand:website": "https://caixabank.es", "brand:wikidata": "Q847225", "brand:wikipedia": "es:CaixaBank", "contact:website": "https://www.caixabank.es", "name": "Caixabank"}}, {"type": "node", "id": 4449185676, "lat": 41.3883669, "lon": 2.169076, "tags": {"addr:housenumber": "5", "addr:postcode": "08007", "addr:street": "Passeig de Gr\u00e0cia", "amenity": "bank", "brand": "Banco Santander", "brand:en": "Santander Bank", "brand:es": "Banco Santander", "brand:wikidata": "Q6496310", "brand:wikipedia": "es:Banco Santander", "name": "Banco Santander", "name:ca": "Banc Santander", "name:en": "Santander Bank", "name:es": "Banco Santander", "official_name": "Santander Group", "phone": "+34 93 4011442", "ref": "1806"}}, {"type": "node", "id": 4449185679, "lat": 41.3933972, "lon": 2.1660469, "tags": {"addr:housenumber": "135", "addr:postcode": "08009", "addr:street": "Carrer de Pau Claris", "amenity": "bank", "atm": "yes", "brand": "Caixabank", "brand:website": "https://caixabank.es", "brand:wikidata": "Q847225", "brand:wikipedia": "es:CaixaBank", "contact:website": "https://www.caixabank.es", "name": "Caixabank", "operator": "CaixaBank"}}, {"type": "node", "id": 4449185680, "lat": 41.395987, "lon": 2.1670845, "tags": {"addr:housenumber": "103-105", "addr:postcode": "08009", "addr:street": "Carrer del Bruc", "amenity": "bank", "atm": "yes", "brand": "Caixabank", "brand:website": "https://caixabank.es", "brand:wikidata": "Q847225", "brand:wikipedia": "es:CaixaBank", "contact:website": "https://www.caixabank.es", "entrance": "yes", "name": "Caixabank"}}, {"type": "node", "id": 4449185682, "lat": 41.4037875, "lon": 2.1732039, "tags": {"amenity": "bank", "atm": "yes", "brand": "Caixabank", "brand:website": "https://caixabank.es", "brand:wikidata": "Q847225", "brand:wikipedia": "es:CaixaBank", "contact:website": "https://www.caixabank.es", "name": "Caixabank"}}, {"type": "node", "id": 4449224229, "lat": 41.3893573, "lon": 2.1792215, "tags": {"amenity": "bank", "brand": "Caixabank", "brand:website": "https://caixabank.es", "brand:wikidata": "Q847225", "brand:wikipedia": "es:CaixaBank", "contact:website": "https://www.caixabank.es", "name": "Caixabank"}}, {"type": "node", "id": 4449232603, "lat": 41.3953412, "lon": 2.1813472, "tags": {"amenity": "bank", "atm": "yes", "brand": "Caixabank", "brand:website": "https://caixabank.es", "brand:wikidata": "Q847225", "brand:wikipedia": "es:CaixaBank", "contact:website": "https://www.caixabank.es", "name": "Caixabank", "opening_hours": "\"July 1st-Sept. 15: mon-fri 08:30-14:30; rest of year mon-thurs 08:30-18:30; fri+bank holidays 08:30-14:30\"", "wheelchair": "yes"}}, {"type": "node", "id": 4449240467, "lat": 41.4082974, "lon": 2.1511479, "tags": {"amenity": "bank", "brand": "Ibercaja", "brand:wikidata": "Q5907815", "brand:wikipedia": "es:Ibercaja", "name": "Ibercaja"}}, {"type": "node", "id": 4449240468, "lat": 41.4084709, "lon": 2.1515648, "tags": {"amenity": "bank", "atm": "yes", "brand": "BBVA", "brand:wikidata": "Q806189", "brand:wikipedia": "en:Banco Bilbao Vizcaya Argentaria", "name": "BBVA", "name:ca": "BBVA", "official_name": "Banco Bilbao Vizcaya Argentaria", "opening_hours": "Mo-Fr 08:30-14:00"}}, {"type": "node", "id": 4449241129, "lat": 41.4088788, "lon": 2.1537859, "tags": {"amenity": "bank", "brand": "Caixabank", "brand:website": "https://caixabank.es", "brand:wikidata": "Q847225", "brand:wikipedia": "es:CaixaBank", "contact:website": "https://www.caixabank.es", "name": "Caixabank"}}, {"type": "node", "id": 4452591840, "lat": 41.3969131, "lon": 2.1510642, "tags": {"addr:housenumber": "68", "addr:street": "Travessera de Gr\u00e0cia", "amenity": "bank", "brand": "Caixabank", "brand:website": "https://caixabank.es", "brand:wikidata": "Q847225", "brand:wikipedia": "es:CaixaBank", "contact:website": "https://www.caixabank.es", "name": "Caixabank", "opening_hours": "Mo-Th 08:30-18:30; Fr 08:30-14:30; Jul 01-Sep 15: Mo-Fr 08:30-14:30", "wheelchair": "yes"}}, {"type": "node", "id": 4459954890, "lat": 41.3969399, "lon": 2.1596237, "tags": {"amenity": "bank", "brand": "Deutsche Bank", "brand:wikidata": "Q66048", "brand:wikipedia": "en:Deutsche Bank", "check_date": "2024-06-24", "name": "Deutsche Bank", "wheelchair": "no"}}, {"type": "node", "id": 4579627889, "lat": 41.3763183, "lon": 2.1234923, "tags": {"addr:city": "Barcelona", "addr:housenumber": "9", "addr:postcode": "08028", "addr:street": "Avinguda de Madrid", "amenity": "bank", "atm": "yes", "brand": "Caixabank", "brand:website": "https://caixabank.es", "brand:wikidata": "Q847225", "brand:wikipedia": "es:CaixaBank", "contact:website": "https://www.caixabank.es", "drive_through": "yes", "name": "Caixabank", "phone": "+34 932 29 81 40"}}, {"type": "node", "id": 4621734934, "lat": 41.3879943, "lon": 2.1438521, "tags": {"addr:city": "Barcelona", "addr:housenumber": "281", "addr:postcode": "08029", "addr:street": "Carrer de Cal\u00e0bria", "amenity": "bank", "atm": "yes", "brand": "Banco Santander", "brand:en": "Santander Bank", "brand:es": "Banco Santander", "brand:wikidata": "Q6496310", "brand:wikipedia": "es:Banco Santander", "check_date": "2022-12-01", "name": "Banco Santander", "name:ca": "Banc Santander", "name:en": "Santander Bank", "name:es": "Banco Santander", "official_name": "Santander Group", "opening_hours": "8:00-14:00", "phone": "+34 934 39 79 42", "website": "https://www.bancosantander.es/es/particulares"}}, {"type": "node", "id": 4632049024, "lat": 41.4037505, "lon": 2.1421897, "tags": {"amenity": "bank", "brand": "Caixabank", "brand:website": "https://caixabank.es", "brand:wikidata": "Q847225", "brand:wikipedia": "es:CaixaBank", "contact:website": "https://www.caixabank.es", "name": "Caixabank"}}, {"type": "node", "id": 4638098645, "lat": 41.4042669, "lon": 2.1305083, "tags": {"addr:city": "Barcelona", "addr:housenumber": "138-140", "addr:postcode": "08022", "addr:street": "Carrer de Ganduxer", "amenity": "bank", "atm": "yes", "brand": "Caixabank", "brand:website": "https://caixabank.es", "brand:wikidata": "Q847225", "brand:wikipedia": "es:CaixaBank", "contact:website": "https://www.caixabank.es", "name": "Caixabank", "opening_hours": "Mo-Fr 08:15-14:00; Oct-Apr: Mo-Fr 08:15-14:00; Oct-Apr: Th 08:15-14:00, 16:15-18:45", "operator": "Caixabank S.A.", "phone": "+34934055120"}}, {"type": "node", "id": 4638548518, "lat": 41.4016271, "lon": 2.1731817, "tags": {"addr:city": "Barcelona", "amenity": "bank", "atm": "yes", "brand": "Caixabank", "brand:website": "https://caixabank.es", "brand:wikidata": "Q847225", "brand:wikipedia": "es:CaixaBank", "contact:website": "https://www.caixabank.es", "drive_through": "no", "name": "Caixabank", "opening_hours": "Mo-Tu 08:30-18:30; Fr,PH 08:30-14:30; Sa-Su off; Jul 01-Sep 15: Mo-Fr 08:30-14:30; Jul 01-Sep 15: Sa-Su off"}}, {"type": "node", "id": 4668776490, "lat": 41.3752004, "lon": 2.1625144, "tags": {"amenity": "bank", "brand": "Caixabank", "brand:website": "https://caixabank.es", "brand:wikidata": "Q847225", "brand:wikipedia": "es:CaixaBank", "contact:website": "https://www.caixabank.es", "name": "Caixabank"}}, {"type": "node", "id": 4677240140, "lat": 41.4025715, "lon": 2.1265151, "tags": {"alt_name": "La Caixa", "amenity": "bank", "atm": "yes", "brand": "Caixabank", "brand:website": "https://caixabank.es", "brand:wikidata": "Q847225", "brand:wikipedia": "es:CaixaBank", "contact:website": "https://www.caixabank.es", "name": "Caixabank"}}, {"type": "node", "id": 4680760652, "lat": 41.4044772, "lon": 2.13222, "tags": {"addr:city": "Barcelona", "addr:housenumber": "51", "addr:postcode": "08022", "addr:street": "Carrer de Mandri", "amenity": "bank", "email": "mandri@arquia.es", "name": "Arquia Banca", "opening_hours": "Mo-Fr 08:15-14:30; Oct-May: Mo-Th 08:15-16:30; Oct-May: Fr 08:15-14:30", "operator": "Grupo Arquia", "phone": "+34 934 342 630", "source": "https://www.arquia.es", "website": "https://www.arquia.es"}}, {"type": "node", "id": 4696278654, "lat": 41.4043651, "lon": 2.1296773, "tags": {"addr:city": "Barcelona", "addr:housenumber": "45", "addr:postcode": "08022", "addr:street": "Passeig de la Bonanova", "amenity": "bank", "atm": "yes", "brand": "Banco Sabadell", "brand:ca": "Banc Sabadell", "brand:es": "Banco Sabadell", "brand:wikidata": "Q762330", "brand:wikipedia": "es:Banco Sabadell", "name": "Banco Sabadell", "name:ca": "Banc Sabadell", "name:es": "Banco Sabadell", "official_name": "Banco de Sabadell, S.A.", "opening_hours": "Mo-Fr 08:15-14:00; Oct-Mar: Mo-Fr 08:15-14:00; Oct-Mar: Th 08:15-18:30", "phone": "+34934187797"}}, {"type": "node", "id": 4696278655, "lat": 41.4054882, "lon": 2.131647, "tags": {"addr:city": "Barcelona", "addr:housenumber": "25", "addr:postcode": "08022", "addr:street": "Passeig de la Bonanova", "amenity": "bank", "atm": "yes", "brand": "Banco Santander", "brand:en": "Santander Bank", "brand:es": "Banco Santander", "brand:wikidata": "Q6496310", "brand:wikipedia": "es:Banco Santander", "name": "Banco Santander", "name:ca": "Banc Santander", "name:en": "Santander Bank", "name:es": "Banco Santander", "official_name": "Santander Group", "operator": "Santander", "phone": "+34934189584", "website": "https://www.bancosantander.es"}}, {"type": "node", "id": 4718653789, "lat": 41.4164986, "lon": 2.1801868, "tags": {"amenity": "bank", "brand": "Banco Santander", "brand:en": "Santander Bank", "brand:es": "Banco Santander", "brand:wikidata": "Q6496310", "brand:wikipedia": "es:Banco Santander", "name": "Banco Santander", "name:ca": "Banc Santander", "name:en": "Santander Bank", "name:es": "Banco Santander", "official_name": "Santander Group", "operator": "Santander"}}, {"type": "node", "id": 4719213692, "lat": 41.3986258, "lon": 2.1778266, "tags": {"amenity": "bank", "atm": "yes", "brand": "Caixabank", "brand:website": "https://caixabank.es", "brand:wikidata": "Q847225", "brand:wikipedia": "es:CaixaBank", "contact:website": "https://www.caixabank.es", "name": "Caixabank", "opening_hours": "May-Sep: Mo-Fr 08:15-14:00; Oct-Apr: Mo-Fr 08:15-14:00; Oct-Apr: Th 16:15-18:45"}}, {"type": "node", "id": 4719820192, "lat": 41.3972454, "lon": 2.174909, "tags": {"amenity": "bank", "brand": "Banco Sabadell", "brand:ca": "Banc Sabadell", "brand:es": "Banco Sabadell", "brand:wikidata": "Q762330", "brand:wikipedia": "es:Banco Sabadell", "name": "Banco Sabadell", "name:ca": "Banc Sabadell", "name:es": "Banco Sabadell", "official_name": "Banco de Sabadell, S.A.", "opening_hours": "Tu-Th 08:15-11:00"}}, {"type": "node", "id": 4721516008, "lat": 41.4212938, "lon": 2.1797115, "tags": {"amenity": "bank", "brand": "BBVA", "brand:wikidata": "Q806189", "brand:wikipedia": "en:Banco Bilbao Vizcaya Argentaria", "name": "BBVA", "name:ca": "BBVA", "official_name": "Banco Bilbao Vizcaya Argentaria"}}, {"type": "node", "id": 4721519793, "lat": 41.4196687, "lon": 2.1805893, "tags": {"amenity": "bank", "brand": "Banco Sabadell", "brand:ca": "Banc Sabadell", "brand:es": "Banco Sabadell", "brand:wikidata": "Q762330", "brand:wikipedia": "es:Banco Sabadell", "name": "Banco Sabadell", "name:ca": "Banc Sabadell", "name:es": "Banco Sabadell", "official_name": "Banco de Sabadell, S.A."}}, {"type": "node", "id": 4721522000, "lat": 41.417738, "lon": 2.180264, "tags": {"amenity": "bank", "brand": "Bankinter", "brand:wikidata": "Q806808", "brand:wikipedia": "es:Bankinter", "name": "Bankinter", "name:ca": "Bankinter"}}, {"type": "node", "id": 4721547990, "lat": 41.4156016, "lon": 2.1798819, "tags": {"amenity": "bank", "brand": "BBVA", "brand:wikidata": "Q806189", "brand:wikipedia": "en:Banco Bilbao Vizcaya Argentaria", "name": "BBVA", "name:ca": "BBVA", "official_name": "Banco Bilbao Vizcaya Argentaria"}}, {"type": "node", "id": 4721547997, "lat": 41.4239943, "lon": 2.1776456, "tags": {"amenity": "bank", "brand": "Banco Sabadell", "brand:ca": "Banc Sabadell", "brand:es": "Banco Sabadell", "brand:wikidata": "Q762330", "brand:wikipedia": "es:Banco Sabadell", "name": "Banco Sabadell", "name:ca": "Banc Sabadell", "name:es": "Banco Sabadell", "official_name": "Banco de Sabadell, S.A."}}, {"type": "node", "id": 4726582795, "lat": 41.3901049, "lon": 2.1753291, "tags": {"amenity": "bank", "brand": "Banco Santander", "brand:en": "Santander Bank", "brand:es": "Banco Santander", "brand:wikidata": "Q6496310", "brand:wikipedia": "es:Banco Santander", "check_date": "2024-07-17", "name": "Banco Santander", "name:ca": "Banc Santander", "name:en": "Santander Bank", "name:es": "Banco Santander", "official_name": "Santander Group", "survey:date": "2024-01-20"}}, {"type": "node", "id": 4726583196, "lat": 41.3903166, "lon": 2.1768623, "tags": {"amenity": "bank", "brand": "Caixabank", "brand:website": "https://caixabank.es", "brand:wikidata": "Q847225", "brand:wikipedia": "es:CaixaBank", "check_date": "2024-01-16", "contact:website": "https://www.caixabank.es", "name": "Caixabank"}}, {"type": "node", "id": 4727974993, "lat": 41.4048938, "lon": 2.1822977, "tags": {"addr:city": "Barcelona", "addr:country": "ES", "amenity": "bank", "brand": "BBVA", "brand:wikidata": "Q806189", "brand:wikipedia": "en:Banco Bilbao Vizcaya Argentaria", "drive_through": "no", "name": "BBVA", "name:2011-2016": "CatalunyaCaixa", "name:ca": "BBVA", "official_name": "Banco Bilbao Vizcaya Argentaria"}}, {"type": "node", "id": 4728093793, "lat": 41.4145392, "lon": 2.1806305, "tags": {"amenity": "bank", "brand": "Caixabank", "brand:-2021": "Bankia", "brand:website": "https://caixabank.es", "brand:wikidata": "Q847225", "brand:wikidata:-2021": "Q806807", "brand:wikipedia": "es:CaixaBank", "brand:wikipedia:-2021": "es:Bankia", "contact:website": "https://www.caixabank.es", "name": "Caixabank", "name:-2021": "Bankia", "operator": "Caixabank", "operator:-2021": "Bankia", "operator:wikidata": "Q847225", "operator:wikidata:-2021": "Q806807", "operator:wikipedia": "es:CaixaBank", "operator:wikipedia:-2021": "es:Bankia"}}, {"type": "node", "id": 4729085293, "lat": 41.4192673, "lon": 2.1814069, "tags": {"addr:housenumber": "385", "addr:street": "Carrer de las Navas de Tolosa", "amenity": "bank", "brand": "Caixabank", "brand:website": "https://caixabank.es", "brand:wikidata": "Q847225", "brand:wikipedia": "es:CaixaBank", "contact:website": "https://www.caixabank.es", "name": "Caixabank", "opening_hours": "Mo-Fr 08:30-14:30", "wheelchair": "yes"}}, {"type": "node", "id": 4729304001, "lat": 41.375191, "lon": 2.1666108, "tags": {"addr:city": "Barcelona", "addr:housenumber": "88", "addr:postcode": "08015", "addr:street": "Avinguda del Paral\u00b7lel", "amenity": "bank", "brand": "Banco Sabadell", "brand:ca": "Banc Sabadell", "brand:es": "Banco Sabadell", "brand:wikidata": "Q762330", "name": "Banco Sabadell", "name:ca": "Banc Sabadell", "name:es": "Banco Sabadell", "official_name": "Banco de Sabadell, S.A."}}, {"type": "node", "id": 4736199933, "lat": 41.3810939, "lon": 2.1282494, "tags": {"amenity": "bank", "brand": "Banco Santander", "brand:en": "Santander Bank", "brand:es": "Banco Santander", "brand:wikidata": "Q6496310", "brand:wikipedia": "es:Banco Santander", "name": "Banco Santander", "name:ca": "Banc Santander", "name:en": "Santander Bank", "name:es": "Banco Santander", "official_name": "Santander Group", "operator": "Santander"}}, {"type": "node", "id": 4736314432, "lat": 41.3834678, "lon": 2.1294269, "tags": {"amenity": "bank", "brand": "Caixabank", "brand:website": "https://caixabank.es", "brand:wikidata": "Q847225", "brand:wikipedia": "es:CaixaBank", "contact:website": "https://www.caixabank.es", "name": "Caixabank"}}, {"type": "node", "id": 4753402931, "lat": 41.4078627, "lon": 2.2156586, "tags": {"addr:city": "Barcelona", "addr:housenumber": "283", "addr:postcode": "08019", "addr:street": "Passeig del Taulat", "amenity": "bank", "brand": "Banco Santander", "brand:en": "Santander Bank", "brand:es": "Banco Santander", "brand:wikidata": "Q6496310", "brand:wikipedia": "es:Banco Santander", "name": "Banco Santander", "name:ca": "Banc Santander", "name:en": "Santander Bank", "name:es": "Banco Santander", "official_name": "Santander Group"}}, {"type": "node", "id": 4771249523, "lat": 41.4097775, "lon": 2.1840905, "tags": {"amenity": "bank", "atm": "yes", "brand": "BBVA", "brand:wikidata": "Q806189", "brand:wikipedia": "en:Banco Bilbao Vizcaya Argentaria", "name": "BBVA", "name:ca": "BBVA", "official_name": "Banco Bilbao Vizcaya Argentaria", "opening_hours": "Mo-Fr 08:30-14:15"}}, {"type": "node", "id": 4771282524, "lat": 41.4099959, "lon": 2.1838015, "tags": {"amenity": "bank", "brand": "Banco Sabadell", "brand:ca": "Banc Sabadell", "brand:es": "Banco Sabadell", "brand:wikidata": "Q762330", "brand:wikipedia": "es:Banco Sabadell", "name": "Banco Sabadell", "name:ca": "Banc Sabadell", "name:es": "Banco Sabadell", "official_name": "Banco de Sabadell, S.A.", "wheelchair": "yes"}}, {"type": "node", "id": 4776358126, "lat": 41.4149876, "lon": 2.1796358, "tags": {"amenity": "bank", "brand": "Caixabank", "brand:website": "https://caixabank.es", "brand:wikidata": "Q847225", "brand:wikipedia": "es:CaixaBank", "contact:website": "https://www.caixabank.es", "name": "Caixabank"}}, {"type": "node", "id": 4776373822, "lat": 41.4094757, "lon": 2.1704184, "tags": {"amenity": "bank", "brand": "Banco Santander", "brand:en": "Santander Bank", "brand:es": "Banco Santander", "brand:wikidata": "Q6496310", "brand:wikipedia": "es:Banco Santander", "name": "Banco Santander", "name:ca": "Banc Santander", "name:en": "Santander Bank", "name:es": "Banco Santander", "official_name": "Santander Group"}}, {"type": "node", "id": 4776901741, "lat": 41.4074395, "lon": 2.1746314, "tags": {"amenity": "bank", "brand": "Banco Santander", "brand:en": "Santander Bank", "brand:es": "Banco Santander", "brand:wikidata": "Q6496310", "brand:wikipedia": "es:Banco Santander", "name": "Banco Santander", "name:ca": "Banc Santander", "name:en": "Santander Bank", "name:es": "Banco Santander", "official_name": "Santander Group", "operator": "Santander", "wheelchair": "limited"}}, {"type": "node", "id": 4777016723, "lat": 41.4146768, "lon": 2.1819356, "tags": {"amenity": "bank", "brand": "BBVA", "brand:wikidata": "Q806189", "brand:wikipedia": "en:Banco Bilbao Vizcaya Argentaria", "name": "BBVA", "name:2011-2016": "CatalunyaCaixa", "name:ca": "BBVA", "official_name": "Banco Bilbao Vizcaya Argentaria", "wheelchair": "limited"}}, {"type": "node", "id": 4777295522, "lat": 41.4131913, "lon": 2.1872106, "tags": {"amenity": "bank", "brand": "BBVA", "brand:wikidata": "Q806189", "brand:wikipedia": "en:Banco Bilbao Vizcaya Argentaria", "name": "BBVA", "name:2011-2016": "CatalunyaCaixa", "name:ca": "BBVA", "official_name": "Banco Bilbao Vizcaya Argentaria", "toilets:wheelchair": "no", "wheelchair": "yes"}}, {"type": "node", "id": 4777295523, "lat": 41.413481, "lon": 2.1872015, "tags": {"amenity": "bank", "brand": "Caixabank", "brand:website": "https://caixabank.es", "brand:wikidata": "Q847225", "brand:wikipedia": "es:CaixaBank", "contact:website": "https://www.caixabank.es", "name": "Caixabank", "toilets:wheelchair": "no", "wheelchair": "yes"}}, {"type": "node", "id": 4935118998, "lat": 41.4185109, "lon": 2.199477, "tags": {"addr:city": "Barcelona", "addr:housenumber": "83", "addr:postcode": "08020", "addr:street": "Rambla de Guip\u00fascoa", "amenity": "bank", "atm": "yes", "brand": "Caixabank", "brand:website": "https://caixabank.es", "brand:wikidata": "Q847225", "brand:wikipedia": "es:CaixaBank", "contact:website": "https://www.caixabank.es", "drive_through": "no", "name": "Caixabank", "opening_hours": "Mo-Fr 08:15-14:00", "wheelchair": "yes"}}, {"type": "node", "id": 4935118999, "lat": 41.4186578, "lon": 2.1996749, "tags": {"addr:city": "Barcelona", "addr:housenumber": "83", "addr:postcode": "08020", "addr:street": "Rambla de Guip\u00fascoa", "amenity": "bank", "atm": "yes", "brand": "Caixabank", "brand:wikidata": "Q847225", "drive_through": "no", "name": "Caixabank", "opening_hours": "Mo-Fr 08:15-14:00", "wheelchair": "yes"}}, {"type": "node", "id": 5004659768, "lat": 41.3822331, "lon": 2.1732369, "tags": {"addr:city": "Barcelona", "addr:housenumber": "9", "addr:postcode": "08002", "addr:street": "Carrer d'en Roca", "amenity": "bank", "designation": "Venture Capital Fund", "name": "JSC.es", "source": "Owner"}}, {"type": "node", "id": 5007447876, "lat": 41.3970755, "lon": 2.1521946, "tags": {"addr:housenumber": "195", "addr:postcode": "08006", "addr:street": "Carrer de Balmes", "amenity": "bank", "atm": "yes", "brand": "Banco Sabadell", "brand:ca": "Banc Sabadell", "brand:es": "Banco Sabadell", "brand:wikidata": "Q762330", "brand:wikipedia": "es:Banco Sabadell", "name": "Banco Sabadell", "name:ca": "Banc Sabadell", "name:es": "Banco Sabadell", "official_name": "Banco de Sabadell, S.A.", "opening_hours": "Mo-Fr 08:15-14:00", "wheelchair": "yes"}}, {"type": "node", "id": 5174017122, "lat": 41.384823, "lon": 2.1314848, "tags": {"addr:city": "Barcelona", "addr:housenumber": "241", "addr:postcode": "08028", "addr:street": "Travessera de les Corts", "amenity": "bank", "atm": "yes", "brand": "Deutsche Bank", "brand:wikidata": "Q66048", "brand:wikipedia": "en:Deutsche Bank", "name": "Deutsche Bank", "name:en": "Deutsche Bank", "opening_hours": "Mo-Th 08:30-14:30; Fr 08:30-13:00", "phone": "+34 933635490"}}, {"type": "node", "id": 5174020021, "lat": 41.3907748, "lon": 2.1310698, "tags": {"amenity": "bank", "name:en": "Deutsche Bank"}}, {"type": "node", "id": 5182261321, "lat": 41.3877767, "lon": 2.1682126, "tags": {"addr:housenumber": "6", "addr:street": "Rambla de Catalunya", "amenity": "bank", "brand": "Banco Santander", "brand:en": "Santander Bank", "brand:es": "Banco Santander", "brand:wikidata": "Q6496310", "brand:wikipedia": "es:Banco Santander", "check_date": "2023-04-25", "name": "Banco Santander", "name:ca": "Santander", "name:en": "Santander Bank", "name:es": "Banco Santander", "official_name": "Santander Group", "operator": "Santander"}}, {"type": "node", "id": 5190243123, "lat": 41.3873117, "lon": 2.1357022, "tags": {"amenity": "bank", "brand": "BBVA", "brand:wikidata": "Q806189", "brand:wikipedia": "en:Banco Bilbao Vizcaya Argentaria", "name": "BBVA", "name:2011-2016": "CatalunyaCaixa", "name:ca": "BBVA", "official_name": "Banco Bilbao Vizcaya Argentaria"}}, {"type": "node", "id": 5204555591, "lat": 41.4032038, "lon": 2.1341101, "tags": {"amenity": "bank", "atm": "yes", "brand": "Caixabank", "brand:website": "https://caixabank.es", "brand:wikidata": "Q847225", "brand:wikipedia": "es:CaixaBank", "contact:website": "https://www.caixabank.es", "name": "Caixabank"}}, {"type": "node", "id": 5204558863, "lat": 41.4038894, "lon": 2.1333819, "tags": {"amenity": "bank", "atm": "yes", "brand": "Caixabank", "brand:website": "https://caixabank.es", "brand:wikidata": "Q847225", "brand:wikipedia": "es:CaixaBank", "contact:website": "https://www.caixabank.es", "name": "Caixabank"}}, {"type": "node", "id": 5217923589, "lat": 41.3742828, "lon": 2.1200067}, {"type": "node", "id": 5217923590, "lat": 41.3741358, "lon": 2.1197076}, {"type": "node", "id": 5217988187, "lat": 41.4625894, "lon": 2.1697167, "tags": {"amenity": "bank", "brand": "Caixabank", "brand:website": "https://caixabank.es", "brand:wikidata": "Q847225", "brand:wikipedia": "es:CaixaBank", "contact:website": "https://www.caixabank.es", "name": "Caixabank"}}, {"type": "node", "id": 5270864387, "lat": 41.3856735, "lon": 2.1762968, "tags": {"addr:city": "Barcelona", "addr:country": "ES", "addr:housenumber": "35", "addr:postcode": "08003", "addr:street": "Via Laietana", "entrance": "yes"}}, {"type": "node", "id": 5282870132, "lat": 41.3651827, "lon": 2.1365588, "tags": {"addr:city": "Barcelona", "addr:postcode": "08038", "addr:street": "Carrer F\u00edsica", "amenity": "bank", "atm": "yes", "brand": "Caixabank", "brand:website": "https://caixabank.es", "brand:wikidata": "Q847225", "brand:wikipedia": "es:CaixaBank", "contact:website": "https://www.caixabank.es", "drive_through": "no", "name": "Caixabank", "operator": "La Caixa", "wheelchair": "yes"}}, {"type": "node", "id": 5418243455, "lat": 41.3784619, "lon": 2.1882451, "tags": {"amenity": "bank", "atm": "yes", "brand": "BBVA", "brand:wikidata": "Q806189", "brand:wikipedia": "en:Banco Bilbao Vizcaya Argentaria", "name": "BBVA", "name:ca": "BBVA", "official_name": "Banco Bilbao Vizcaya Argentaria", "opening_hours": "Mo-Fr 08:30-14:15", "wheelchair": "yes"}}, {"type": "node", "id": 5509139426, "lat": 41.4013472, "lon": 2.2073116, "tags": {"addr:city": "Barcelona", "addr:housenumber": "1", "addr:postcode": "08005", "addr:street": "Pla\u00e7a de Julio Gonz\u00e1lez", "amenity": "bank", "atm": "yes", "brand": "BBVA", "brand:wikidata": "Q806189", "brand:wikipedia": "en:Banco Bilbao Vizcaya Argentaria", "name": "BBVA", "name:ca": "BBVA", "official_name": "Banco Bilbao Vizcaya Argentaria"}}, {"type": "node", "id": 5538270174, "lat": 41.3787728, "lon": 2.1209921, "tags": {"addr:city": "Barcelona", "addr:postcode": "08028", "addr:street": "Carrer d'Ar\u00edstides Maillol", "amenity": "bank", "atm": "yes", "brand": "Caixabank", "brand:website": "https://caixabank.es", "brand:wikidata": "Q847225", "brand:wikipedia": "es:CaixaBank", "contact:website": "https://www.caixabank.es", "name": "Caixabank", "nohousenumber": "yes", "operator": "caixabanc", "phone": "+34 932 29 82 90"}}, {"type": "node", "id": 5540079454, "lat": 41.3753389, "lon": 2.1444944, "tags": {"amenity": "bank", "atm": "yes", "brand": "Banco Sabadell", "brand:ca": "Banc Sabadell", "brand:es": "Banco Sabadell", "brand:wikidata": "Q762330", "brand:wikipedia": "es:Banco Sabadell", "name": "Banco Sabadell", "name:ca": "Banc Sabadell", "name:es": "Banco Sabadell", "official_name": "Banco de Sabadell, S.A.", "opening_hours": "Mo-Fr 08:15-14:00; Oct-Mar: Th 08:15-18:30"}}, {"type": "node", "id": 5540079456, "lat": 41.3784267, "lon": 2.1531755, "tags": {"amenity": "bank", "atm": "yes", "brand": "Banco Sabadell", "brand:ca": "Banc Sabadell", "brand:es": "Banco Sabadell", "brand:wikidata": "Q762330", "brand:wikipedia": "es:Banco Sabadell", "name": "Banco Sabadell", "name:ca": "Banc Sabadell", "name:es": "Banco Sabadell", "official_name": "Banco de Sabadell, S.A."}}, {"type": "node", "id": 5540079457, "lat": 41.3816041, "lon": 2.1583877, "tags": {"amenity": "bank", "atm": "yes", "brand": "Banco Sabadell", "brand:ca": "Banc Sabadell", "brand:es": "Banco Sabadell", "brand:wikidata": "Q762330", "brand:wikipedia": "es:Banco Sabadell", "name": "Banco Sabadell", "name:ca": "Banc Sabadell", "name:es": "Banco Sabadell", "official_name": "Banco de Sabadell, S.A.", "wheelchair": "yes"}}, {"type": "node", "id": 5540079458, "lat": 41.3775472, "lon": 2.1614782, "tags": {"amenity": "bank", "atm": "yes", "brand": "Banco Sabadell", "brand:ca": "Banc Sabadell", "brand:es": "Banco Sabadell", "brand:wikidata": "Q762330", "brand:wikipedia": "es:Banco Sabadell", "name": "Banco Sabadell", "name:ca": "Banc Sabadell", "name:es": "Banco Sabadell", "official_name": "Banco de Sabadell, S.A.", "wheelchair": "limited"}}, {"type": "node", "id": 5540079459, "lat": 41.3795246, "lon": 2.1674086, "tags": {"amenity": "bank", "atm": "yes", "brand": "Banco Sabadell", "brand:ca": "Banc Sabadell", "brand:es": "Banco Sabadell", "brand:wikidata": "Q762330", "brand:wikipedia": "es:Banco Sabadell", "name": "Banco Sabadell", "name:ca": "Banc Sabadell", "name:es": "Banco Sabadell", "official_name": "Banco de Sabadell, S.A."}}, {"type": "node", "id": 5540079460, "lat": 41.381275, "lon": 2.1729011, "tags": {"amenity": "bank", "atm": "yes", "brand": "Banco Sabadell", "brand:ca": "Banc Sabadell", "brand:es": "Banco Sabadell", "brand:wikidata": "Q762330", "brand:wikipedia": "es:Banco Sabadell", "name": "Banco Sabadell", "name:ca": "Banc Sabadell", "name:es": "Banco Sabadell", "official_name": "Banco de Sabadell, S.A."}}, {"type": "node", "id": 5540094496, "lat": 41.3670912, "lon": 2.1264787, "tags": {"addr:city": "l'Hospitalet de Llobregat", "addr:housenumber": "114", "addr:postcode": "08902", "addr:street": "Carrer de Santa Eul\u00e0lia", "amenity": "bank", "atm": "yes", "brand": "Banco Sabadell", "brand:ca": "Banc Sabadell", "brand:es": "Banco Sabadell", "brand:wikidata": "Q762330", "brand:wikipedia": "es:Banco Sabadell", "fax": "+34 93 421 16 96", "name": "Banco Sabadell", "name:ca": "Banc Sabadell", "name:es": "Banco Sabadell", "official_name": "Banco de Sabadell, S.A.", "phone": "+34 93 331 78 58", "ref": "0161"}}, {"type": "node", "id": 5540094497, "lat": 41.3703255, "lon": 2.1383026, "tags": {"amenity": "bank", "atm": "yes", "brand": "Banco Sabadell", "brand:ca": "Banc Sabadell", "brand:es": "Banco Sabadell", "brand:wikidata": "Q762330", "brand:wikipedia": "es:Banco Sabadell", "name": "Banco Sabadell", "name:ca": "Banc Sabadell", "name:es": "Banco Sabadell", "official_name": "Banco de Sabadell, S.A."}}, {"type": "node", "id": 5540108685, "lat": 41.3979804, "lon": 2.135894, "tags": {"amenity": "bank", "atm": "yes", "brand": "Banco Sabadell", "brand:ca": "Banc Sabadell", "brand:es": "Banco Sabadell", "brand:wikidata": "Q762330", "brand:wikipedia": "es:Banco Sabadell", "check_date": "2023-09-28", "name": "Banco Sabadell", "name:ca": "Banc Sabadell", "name:es": "Banco Sabadell", "official_name": "Banco de Sabadell, S.A."}}, {"type": "node", "id": 5540108686, "lat": 41.3925699, "lon": 2.1313101, "tags": {"addr:housenumber": "146", "addr:street": "Avinguda de Sarri\u00e0", "amenity": "bank", "atm": "yes", "brand": "Banco Sabadell", "brand:ca": "Banc Sabadell", "brand:es": "Banco Sabadell", "brand:wikidata": "Q762330", "brand:wikipedia": "es:Banco Sabadell", "name": "Banco Sabadell", "name:ca": "Banc Sabadell", "name:es": "Banco Sabadell", "official_name": "Banco de Sabadell, S.A."}}, {"type": "node", "id": 5540108687, "lat": 41.3940911, "lon": 2.137852, "tags": {"amenity": "bank", "atm": "yes", "brand": "Banco Sabadell", "brand:ca": "Banc Sabadell", "brand:es": "Banco Sabadell", "brand:wikidata": "Q762330", "brand:wikipedia": "es:Banco Sabadell", "name": "Banco Sabadell", "name:ca": "Banc Sabadell", "name:es": "Banco Sabadell", "official_name": "Banco de Sabadell, S.A."}}, {"type": "node", "id": 5540108688, "lat": 41.3929583, "lon": 2.1407595, "tags": {"amenity": "bank", "atm": "yes", "brand": "Banco Sabadell", "brand:ca": "Banc Sabadell", "brand:es": "Banco Sabadell", "brand:wikidata": "Q762330", "brand:wikipedia": "es:Banco Sabadell", "check_date": "2023-09-28", "name": "Banco Sabadell", "name:ca": "Banc Sabadell", "name:es": "Banco Sabadell", "official_name": "Banco de Sabadell, S.A."}}, {"type": "node", "id": 5540108689, "lat": 41.3908414, "lon": 2.1347058, "tags": {"addr:housenumber": "644", "addr:street": "Avinguda Diagonal", "amenity": "bank", "atm": "yes", "brand": "Banco Sabadell", "brand:ca": "Banc Sabadell", "brand:es": "Banco Sabadell", "brand:wikidata": "Q762330", "brand:wikipedia": "es:Banco Sabadell", "name": "Banco Sabadell", "name:ca": "Banc Sabadell", "name:es": "Banco Sabadell", "official_name": "Banco de Sabadell, S.A."}}, {"type": "node", "id": 5540108690, "lat": 41.3847085, "lon": 2.131334, "tags": {"amenity": "bank", "atm": "yes", "brand": "Banco Sabadell", "brand:ca": "Banc Sabadell", "brand:es": "Banco Sabadell", "brand:wikidata": "Q762330", "brand:wikipedia": "es:Banco Sabadell", "name": "Banco Sabadell", "name:ca": "Banc Sabadell", "name:es": "Banco Sabadell", "official_name": "Banco de Sabadell, S.A."}}, {"type": "node", "id": 5540108692, "lat": 41.3866377, "lon": 2.1424225, "tags": {"addr:housenumber": "89", "addr:street": "Avinguda de Josep Tarradellas", "amenity": "bank", "atm": "yes", "brand": "Banco Sabadell", "brand:ca": "Banc Sabadell", "brand:es": "Banco Sabadell", "brand:wikidata": "Q762330", "brand:wikipedia": "es:Banco Sabadell", "name": "Banco Sabadell", "name:ca": "Banc Sabadell", "name:es": "Banco Sabadell", "official_name": "Banco de Sabadell, S.A.", "opening_hours": "Mo-Fr 08:15-11:00"}}, {"type": "node", "id": 5540108695, "lat": 41.3754721, "lon": 2.1391287, "tags": {"amenity": "bank", "atm": "yes", "brand": "Banco Santander", "brand:en": "Santander Bank", "brand:es": "Banco Santander", "brand:wikidata": "Q6496310", "brand:wikipedia": "es:Banco Santander", "name": "Banco Santander", "name:ca": "Banc Santander", "name:en": "Santander Bank", "name:es": "Banco Santander", "official_name": "Santander Group", "operator": "Santander"}}, {"type": "node", "id": 5540108696, "lat": 41.3754335, "lon": 2.1387204, "tags": {"amenity": "bank", "atm": "yes", "brand": "Banco Sabadell", "brand:ca": "Banc Sabadell", "brand:es": "Banco Sabadell", "brand:wikidata": "Q762330", "brand:wikipedia": "es:Banco Sabadell", "name": "Banco Sabadell", "name:ca": "Banc Sabadell", "name:es": "Banco Sabadell", "official_name": "Banco de Sabadell, S.A."}}, {"type": "node", "id": 5540108702, "lat": 41.3755705, "lon": 2.1214087, "tags": {"amenity": "bank", "atm": "yes", "brand": "Banco Sabadell", "brand:ca": "Banc Sabadell", "brand:es": "Banco Sabadell", "brand:wikidata": "Q762330", "brand:wikipedia": "es:Banco Sabadell", "check_date": "2024-04-09", "name": "Banco Sabadell", "name:ca": "Banc Sabadell", "name:es": "Banco Sabadell", "official_name": "Banco de Sabadell, S.A."}}, {"type": "node", "id": 5540108703, "lat": 41.3747717, "lon": 2.120828, "tags": {"amenity": "bank", "atm": "yes", "brand": "Banco Sabadell", "brand:ca": "Banc Sabadell", "brand:es": "Banco Sabadell", "brand:wikidata": "Q762330", "brand:wikipedia": "es:Banco Sabadell", "name": "Banco Sabadell", "name:ca": "Banc Sabadell", "name:es": "Banco Sabadell", "official_name": "Banco de Sabadell, S.A."}}, {"type": "node", "id": 5540108704, "lat": 41.3725335, "lon": 2.1257955, "tags": {"amenity": "bank", "atm": "yes", "brand": "Banco Sabadell", "brand:ca": "Banc Sabadell", "brand:es": "Banco Sabadell", "brand:wikidata": "Q762330", "brand:wikipedia": "es:Banco Sabadell", "name": "Banco Sabadell", "name:ca": "Banc Sabadell", "name:es": "Banco Sabadell", "official_name": "Banco de Sabadell, S.A."}}, {"type": "node", "id": 5540140666, "lat": 41.4025111, "lon": 2.1454795, "tags": {"amenity": "bank", "atm": "yes", "brand": "Banco Sabadell", "brand:ca": "Banc Sabadell", "brand:es": "Banco Sabadell", "brand:wikidata": "Q762330", "brand:wikipedia": "es:Banco Sabadell", "check_date": "2023-04-25", "name": "Banco Sabadell", "name:ca": "Banc Sabadell", "name:es": "Banco Sabadell", "official_name": "Banco de Sabadell, S.A."}}, {"type": "node", "id": 5540140667, "lat": 41.4012831, "lon": 2.1466416, "tags": {"amenity": "bank", "atm": "yes", "brand": "Banco Sabadell", "brand:ca": "Banc Sabadell", "brand:es": "Banco Sabadell", "brand:wikidata": "Q762330", "brand:wikipedia": "es:Banco Sabadell", "name": "Banco Sabadell", "name:ca": "Banc Sabadell", "name:es": "Banco Sabadell", "official_name": "Banco de Sabadell, S.A."}}, {"type": "node", "id": 5540140668, "lat": 41.3980428, "lon": 2.1446407, "tags": {"amenity": "bank", "atm": "yes", "brand": "Banco Sabadell", "brand:ca": "Banc Sabadell", "brand:es": "Banco Sabadell", "brand:wikidata": "Q762330", "brand:wikipedia": "es:Banco Sabadell", "check_date": "2023-09-28", "name": "Banco Sabadell", "name:ca": "Banc Sabadell", "name:es": "Banco Sabadell", "official_name": "Banco de Sabadell, S.A."}}, {"type": "node", "id": 5540151423, "lat": 41.405579, "lon": 2.1349915, "tags": {"amenity": "bank", "atm": "yes", "brand": "Banco Sabadell", "brand:ca": "Banc Sabadell", "brand:es": "Banco Sabadell", "brand:wikidata": "Q762330", "brand:wikipedia": "es:Banco Sabadell", "name": "Banco Sabadell", "name:ca": "Banc Sabadell", "name:es": "Banco Sabadell", "official_name": "Banco de Sabadell, S.A."}}, {"type": "node", "id": 5540151424, "lat": 41.4048592, "lon": 2.1380585, "tags": {"amenity": "bank", "atm": "yes", "brand": "Banco Sabadell", "brand:ca": "Banc Sabadell", "brand:es": "Banco Sabadell", "brand:wikidata": "Q762330", "brand:wikipedia": "es:Banco Sabadell", "name": "Banco Sabadell", "name:ca": "Banc Sabadell", "name:es": "Banco Sabadell", "official_name": "Banco de Sabadell, S.A."}}, {"type": "node", "id": 5559901721, "lat": 41.3861261, "lon": 2.1756413, "tags": {"addr:housenumber": "39", "addr:street": "Via Laietana", "amenity": "bank", "name": "Caixa d'Enginyers", "name:ca": "Caixa d'Enginyers"}}, {"type": "node", "id": 5820816853, "lat": 41.426081, "lon": 2.1911147, "tags": {"addr:housenumber": "172", "addr:street": "Carrer Gran de la Sagrera", "amenity": "bank", "brand": "Caixabank", "brand:website": "https://caixabank.es", "brand:wikidata": "Q847225", "brand:wikipedia": "es:CaixaBank", "contact:website": "https://www.caixabank.es", "name": "Caixabank"}}, {"type": "node", "id": 5820816855, "lat": 41.4302381, "lon": 2.1897877, "tags": {"amenity": "bank", "brand": "Banco Santander", "brand:en": "Santander Bank", "brand:es": "Banco Santander", "brand:wikidata": "Q6496310", "brand:wikipedia": "es:Banco Santander", "name": "Banco Santander", "name:ca": "Banc Santander", "name:en": "Santander Bank", "name:es": "Banco Santander", "official_name": "Santander Group", "operator": "Santander"}}, {"type": "node", "id": 5820816856, "lat": 41.4358713, "lon": 2.1913031, "tags": {"amenity": "bank", "brand": "Caixabank", "brand:-2021": "Bankia", "brand:website": "https://caixabank.es", "brand:wikidata": "Q847225", "brand:wikidata:-2021": "Q806807", "brand:wikipedia": "es:CaixaBank", "brand:wikipedia:-2021": "es:Bankia", "contact:website": "https://www.caixabank.es", "name": "Caixabank", "name:-2021": "Bankia", "operator": "Caixabank", "operator:-2021": "Bankia", "operator:wikidata": "Q847225", "operator:wikidata:-2021": "Q806807", "operator:wikipedia": "es:CaixaBank", "operator:wikipedia:-2021": "es:Bankia"}}, {"type": "node", "id": 5820817153, "lat": 41.4299281, "lon": 2.1900325, "tags": {"amenity": "bank", "brand": "Caixabank", "brand:website": "https://caixabank.es", "brand:wikidata": "Q847225", "brand:wikipedia": "es:CaixaBank", "contact:website": "https://www.caixabank.es", "name": "Caixabank"}}, {"type": "node", "id": 5856759985, "lat": 41.4466174, "lon": 2.2018484, "tags": {"amenity": "bank", "name": "Centre Caixa"}}, {"type": "node", "id": 5876046885, "lat": 41.4275791, "lon": 2.1679947, "tags": {"amenity": "bank", "brand": "Caixabank", "brand:-2021": "Bankia", "brand:website": "https://caixabank.es", "brand:wikidata": "Q847225", "brand:wikidata:-2021": "Q806807", "brand:wikipedia": "es:CaixaBank", "brand:wikipedia:-2021": "es:Bankia", "contact:website": "https://www.caixabank.es", "name": "Caixabank", "name:-2021": "Bankia", "opening_hours": "Mo-Fr 08:15-14:30; Th 16:15-18:30", "operator": "Caixabank", "operator:-2021": "Bankia", "operator:wikidata": "Q847225", "operator:wikidata:-2021": "Q806807", "operator:wikipedia": "es:CaixaBank", "operator:wikipedia:-2021": "es:Bankia"}}, {"type": "node", "id": 5893683805, "lat": 41.3517301, "lon": 2.1078212, "tags": {"addr:city": "L'Hospitalet de Llobregat", "addr:housenumber": "21", "addr:street": "Carrer del Prat", "amenity": "bank", "atm": "yes", "brand": "La Caixa", "brand:wikidata": "Q287753", "brand:wikipedia": "ca:La Caixa", "contact:phone": "+34934064580", "name": "La Caixa", "name:ca": "La Caixa", "opening_hours": "Oct-Jun: Mo-Th 08:30-18:30; Oct-Jun: Fr 08:30-14:30; Jul-Sep: Mo-Fr 08:30-14:30", "ref": "3051"}}, {"type": "node", "id": 5962206561, "lat": 41.4155233, "lon": 2.1872463, "tags": {"addr:housenumber": "216", "addr:postcode": "08027", "addr:street": "Avinguda Meridiana", "amenity": "bank", "atm": "yes", "brand": "ING", "brand:wikidata": "Q645708", "brand:wikipedia": "en:ING Group", "internet_access": "wlan", "name": "ING", "opening_hours": "Sep-Jun: Mo-Th 08:00-20:00; Jul-Aug: Mo-Th 09:00-19:30; Fr 09:00-15:00; Sep-Jun: Sa 09:00-14:00; PH closed", "wheelchair": "yes"}}, {"type": "node", "id": 6023998306, "lat": 41.4085271, "lon": 2.1603408, "tags": {"amenity": "bank", "brand": "Banco Sabadell", "brand:ca": "Banc Sabadell", "brand:es": "Banco Sabadell", "brand:wikidata": "Q762330", "brand:wikipedia": "es:Banco Sabadell", "name": "Banco Sabadell", "name:ca": "Banc Sabadell", "name:es": "Banco Sabadell", "official_name": "Banco de Sabadell, S.A.", "wheelchair": "yes"}}, {"type": "node", "id": 6040274893, "lat": 41.4431374, "lon": 2.2037301}, {"type": "node", "id": 6040274908, "lat": 41.4428477, "lon": 2.2035608}, {"type": "node", "id": 6040275013, "lat": 41.4431154, "lon": 2.2035282}, {"type": "node", "id": 6040275029, "lat": 41.4429792, "lon": 2.2035347}, {"type": "node", "id": 6040275085, "lat": 41.4428279, "lon": 2.2036372}, {"type": "node", "id": 6040275090, "lat": 41.4431133, "lon": 2.2035081}, {"type": "node", "id": 6040275091, "lat": 41.4429344, "lon": 2.2038357}, {"type": "node", "id": 6040275095, "lat": 41.4431442, "lon": 2.2037928}, {"type": "node", "id": 6040275104, "lat": 41.4428517, "lon": 2.2038526}, {"type": "node", "id": 6040275107, "lat": 41.4428437, "lon": 2.2037804}, {"type": "node", "id": 6040275111, "lat": 41.4428201, "lon": 2.2035663}, {"type": "node", "id": 6100559896, "lat": 41.3917612, "lon": 2.1262187, "tags": {"addr:city": "Barcelona", "addr:postcode": "08034", "addr:street": "Passeig de Manuel Girona", "amenity": "bank", "atm": "yes", "drive_through": "no", "name": "Caixa d'Enginyers", "name:ca": "Caixa d'Enginyers"}}, {"type": "node", "id": 6115282473, "lat": 41.3942144, "lon": 2.1514139, "tags": {"amenity": "bank", "branch": "private banking", "brand": "Banco Santander", "brand:en": "Santander Bank", "brand:es": "Banco Santander", "brand:wikidata": "Q6496310", "brand:wikipedia": "es:Banco Santander", "name": "Banco Santander", "name:ca": "Banc Santander", "name:en": "Santander Bank", "name:es": "Banco Santander", "official_name": "Santander Group", "wheelchair": "yes"}}, {"type": "node", "id": 6125430219, "lat": 41.407188, "lon": 2.1822608, "tags": {"amenity": "bank", "brand": "Caixabank", "brand:website": "https://caixabank.es", "brand:wikidata": "Q847225", "brand:wikipedia": "es:CaixaBank", "contact:website": "https://www.caixabank.es", "name": "Caixabank", "wheelchair": "yes"}}, {"type": "node", "id": 6133351379, "lat": 41.3850741, "lon": 2.1769881, "tags": {"addr:housenumber": "33", "addr:postcode": "08003", "addr:street": "Via Laietana", "amenity": "bank", "brand": "Banco Santander", "brand:en": "Santander Bank", "brand:es": "Banco Santander", "brand:wikidata": "Q6496310", "brand:wikipedia": "es:Banco Santander", "name": "Banco Santander", "name:ca": "Banc Santander", "name:en": "Santander Bank", "name:es": "Banco Santander", "official_name": "Santander Group", "old_name": "Banco Popular Espa\u00f1ol", "operator": "Banco Santander", "operator:wikidata": "Q6496310", "operator:wikipedia": "en:Banco Santander"}}, {"type": "node", "id": 6133352185, "lat": 41.4203718, "lon": 2.2021158, "tags": {"addr:housenumber": "111", "addr:street": "Rambla de Guip\u00fascoa", "amenity": "bank", "name": "Arquia"}}, {"type": "node", "id": 6188917649, "lat": 41.3995919, "lon": 2.1698526, "tags": {"amenity": "bank", "brand": "Caixabank", "brand:website": "https://caixabank.es", "brand:wikidata": "Q847225", "brand:wikipedia": "es:CaixaBank", "check_date": "2024-10-22", "contact:website": "https://www.caixabank.es", "drive_through": "no", "name": "Caixabank"}}, {"type": "node", "id": 6188919074, "lat": 41.3993008, "lon": 2.1692352, "tags": {"addr:city": "Barcelona", "addr:country": "ES", "addr:housenumber": "374B", "addr:postcode": "08037", "addr:street": "Avinguda Diagonal", "amenity": "bank", "atm": "yes", "branch": "513", "brand": "Bankinter", "brand:wikidata": "Q806808", "brand:wikipedia": "es:Bankinter", "contact:email": "buzon@bankinter.es", "contact:fax": "+34 932082690", "contact:phone": "+34 932082690", "contact:website": "https://www.bankinter.com/", "drive_through": "no", "entrance": "yes", "name": "Bankinter", "name:ca": "Bankinter", "opening_hours": "Mo-Fr 08:30-14:30"}}, {"type": "node", "id": 6189360917, "lat": 41.3704872, "lon": 2.1386554, "tags": {"addr:city": "Barcelona", "addr:postcode": "08014", "addr:street": "Carrer de Rossend Ar\u00fas", "amenity": "bank", "atm": "yes", "brand": "Caixabank", "brand:website": "https://caixabank.es", "brand:wikidata": "Q847225", "brand:wikipedia": "es:CaixaBank", "contact:website": "https://www.caixabank.es", "name": "Caixabank"}}, {"type": "node", "id": 6189840619, "lat": 41.3710159, "lon": 2.1394858, "tags": {"amenity": "bank", "atm": "yes", "brand": "Banco Santander", "brand:en": "Santander Bank", "brand:es": "Banco Santander", "brand:wikidata": "Q6496310", "brand:wikipedia": "es:Banco Santander", "name": "Banco Santander", "name:ca": "Banc Santander", "name:en": "Santander Bank", "name:es": "Banco Santander", "official_name": "Santander Group"}}, {"type": "node", "id": 6195973814, "lat": 41.3901896, "lon": 2.1403605, "tags": {"addr:city": "Barcelona", "addr:country": "ES", "addr:housenumber": "371", "addr:postcode": "08029", "addr:street": "Travessera de les Corts", "amenity": "bank", "brand": "Banco Santander", "brand:en": "Santander Bank", "brand:es": "Banco Santander", "brand:wikidata": "Q6496310", "brand:wikipedia": "es:Banco Santander", "name": "Banco Santander", "name:ca": "Banc Santander", "name:en": "Santander Bank", "name:es": "Banco Santander", "official_name": "Santander Group", "operator": "Santander"}}, {"type": "node", "id": 6197383682, "lat": 41.392583, "lon": 2.1498358, "tags": {"amenity": "bank", "brand": "Caixabank", "brand:website": "https://caixabank.es", "brand:wikidata": "Q847225", "brand:wikipedia": "es:CaixaBank", "contact:website": "https://www.caixabank.es", "name": "Caixabank"}}, {"type": "node", "id": 6197384216, "lat": 41.394815, "lon": 2.1586297, "tags": {"addr:city": "Barcelona", "addr:country": "ES", "addr:street": "Rambla de Catalunya", "amenity": "bank", "brand": "Banco Santander", "brand:en": "Santander Bank", "brand:es": "Banco Santander", "brand:wikidata": "Q6496310", "brand:wikipedia": "es:Banco Santander", "drive_through": "no", "name": "Banco Santander", "name:ca": "Banc Santander", "name:en": "Santander Bank", "name:es": "Banco Santander", "official_name": "Santander Group", "opening_hours": "Mo-Fr 08:30-14:30"}}, {"type": "node", "id": 6204018400, "lat": 41.3919407, "lon": 2.1657139, "tags": {"addr:city": "Barcelona", "addr:country": "ES", "addr:postcode": "08007", "addr:street": "Passeig de Gr\u00e0cia", "amenity": "bank", "brand": "Banco Santander", "brand:en": "Santander Bank", "brand:es": "Banco Santander", "brand:wikidata": "Q6496310", "brand:wikipedia": "es:Banco Santander", "name": "Banco Santander", "name:ca": "Banc Santander", "name:en": "Santander Bank", "name:es": "Banco Santander", "official_name": "Santander Group", "opening_hours": "Mo-Th 09:00-14:00,16:00-18:30; Fr 09:00-14:00", "operator": "Santander", "wheelchair": "yes"}}, {"type": "node", "id": 6208482084, "lat": 41.3852258, "lon": 2.1372363, "tags": {"addr:city": "Barcelona", "addr:country": "ES", "addr:housenumber": "84", "addr:postcode": "08029", "addr:street": "Carrer de Num\u00e0ncia", "amenity": "bank", "brand": "Banco Sabadell", "brand:ca": "Banc Sabadell", "brand:es": "Banco Sabadell", "brand:wikidata": "Q762330", "brand:wikipedia": "es:Banco Sabadell", "contact:phone": "+34 934193434", "contact:website": "https://www.bancsabadell.com/", "drive_through": "no", "name": "Banco Sabadell", "name:ca": "Banc Sabadell", "name:es": "Banco Sabadell", "official_name": "Banco de Sabadell, S.A.", "opening_hours": "Mo-Fr 08:15-14:00"}}, {"type": "node", "id": 6208571318, "lat": 41.3842572, "lon": 2.1336714, "tags": {"amenity": "bank", "brand": "Caixabank", "brand:-2021": "Bankia", "brand:website": "https://caixabank.es", "brand:wikidata": "Q847225", "brand:wikidata:-2021": "Q806807", "brand:wikipedia": "es:CaixaBank", "brand:wikipedia:-2021": "es:Bankia", "contact:website": "https://www.caixabank.es", "name": "Caixabank", "name:-2021": "Bankia", "operator": "Caixabank", "operator:-2021": "Bankia", "operator:wikidata": "Q847225", "operator:wikidata:-2021": "Q806807", "operator:wikipedia": "es:CaixaBank", "operator:wikipedia:-2021": "es:Bankia"}}, {"type": "node", "id": 6209024163, "lat": 41.3848325, "lon": 2.1370902, "tags": {"addr:city": "Barcelona", "addr:country": "ES", "amenity": "bank", "atm": "yes", "brand": "Banco Santander", "brand:en": "Santander Bank", "brand:es": "Banco Santander", "brand:wikidata": "Q6496310", "brand:wikipedia": "es:Banco Santander", "drive_through": "no", "name": "Banco Santander", "name:ca": "Banc Santander", "name:en": "Santander Bank", "name:es": "Banco Santander", "official_name": "Santander Group", "opening_hours": "Mo-Fr 08:30-14:30", "operator": "Santander"}}, {"type": "node", "id": 6216729952, "lat": 41.4094903, "lon": 2.1739878, "tags": {"amenity": "bank", "brand": "Bankinter", "brand:wikidata": "Q806808", "brand:wikipedia": "es:Bankinter", "name": "Bankinter", "name:ca": "Bankinter", "wheelchair": "yes"}}, {"type": "node", "id": 6222698238, "lat": 41.3873964, "lon": 2.1344944, "tags": {"amenity": "bank", "atm": "yes", "brand": "Banco Santander", "brand:en": "Santander Bank", "brand:es": "Banco Santander", "brand:wikidata": "Q6496310", "brand:wikipedia": "es:Banco Santander", "name": "Banco Santander", "name:ca": "Banc Santander", "name:en": "Santander Bank", "name:es": "Banco Santander", "official_name": "Santander Group", "operator": "Santander"}}, {"type": "node", "id": 6223371277, "lat": 41.3990775, "lon": 2.16873, "tags": {"addr:city": "Barcelona", "addr:housenumber": "382", "addr:street": "Avinguda Diagonal", "amenity": "bank", "check_date": "2024-10-22", "level": "0", "name": "Laboral Kutxa", "wheelchair": "yes"}}, {"type": "node", "id": 6232798045, "lat": 41.3590789, "lon": 2.1401857, "tags": {"addr:city": "Barcelona", "addr:postcode": "08038", "addr:street": "Passeig de la Zona Franca", "amenity": "bank", "atm": "yes", "brand": "Caixabank", "brand:website": "https://caixabank.es", "brand:wikidata": "Q847225", "brand:wikipedia": "es:CaixaBank", "contact:phone": "+34 934228052", "contact:website": "https://www.caixabank.es", "drive_through": "no", "name": "Caixabank", "opening_hours": "Mo-Fr 08:15-14:00"}}, {"type": "node", "id": 6235025728, "lat": 41.3905849, "lon": 2.1410264, "tags": {"addr:housenumber": "67", "addr:street": "Avinguda de Sarri\u00e0", "amenity": "bank", "brand": "Banco Sabadell", "brand:ca": "Banc Sabadell", "brand:es": "Banco Sabadell", "brand:wikidata": "Q762330", "brand:wikipedia": "es:Banco Sabadell", "name": "Banco Sabadell", "name:ca": "Banc Sabadell", "name:es": "Banco Sabadell", "official_name": "Banco de Sabadell, S.A."}}, {"type": "node", "id": 6237701059, "lat": 41.3748961, "lon": 2.1233712}, {"type": "node", "id": 6237756585, "lat": 41.374944, "lon": 2.1236953}, {"type": "node", "id": 6237756586, "lat": 41.3747684, "lon": 2.1238233}, {"type": "node", "id": 6237756587, "lat": 41.3746789, "lon": 2.1235726}, {"type": "node", "id": 6237756588, "lat": 41.3748198, "lon": 2.123425}, {"type": "node", "id": 6237756589, "lat": 41.3748409, "lon": 2.1234076}, {"type": "node", "id": 6237756590, "lat": 41.374853, "lon": 2.1233969}, {"type": "node", "id": 6237756594, "lat": 41.3749184, "lon": 2.123714}, {"type": "node", "id": 6258715952, "lat": 41.3575416, "lon": 2.1412507, "tags": {"addr:city": "Barcelona", "addr:country": "ES", "addr:housenumber": "116", "addr:postcode": "08038", "addr:street": "Passeig de la Zona Franca", "amenity": "bank", "atm": "yes", "branch": "0185 (Barcelona, Zona Franca - La Marina)", "brand": "Banco Sabadell", "brand:ca": "Banc Sabadell", "brand:es": "Banco Sabadell", "brand:wikidata": "Q762330", "brand:wikipedia": "es:Banco Sabadell", "contact:fax": "+34 932981671", "contact:phone": "+34 932981670", "drive_through": "no", "name": "Banco Sabadell", "name:ca": "Banc Sabadell", "name:es": "Banco Sabadell", "official_name": "Banco de Sabadell, S.A.", "opening_hours": "Mo-Fr 08:15-14:00"}}, {"type": "node", "id": 6260784861, "lat": 41.3755918, "lon": 2.1327421, "tags": {"amenity": "bank", "brand": "Banco Sabadell", "brand:ca": "Banc Sabadell", "brand:es": "Banco Sabadell", "brand:wikidata": "Q762330", "brand:wikipedia": "es:Banco Sabadell", "name": "Banco Sabadell", "name:ca": "Banc Sabadell", "name:es": "Banco Sabadell", "official_name": "Banco de Sabadell, S.A.", "wheelchair": "yes"}}, {"type": "node", "id": 6260784869, "lat": 41.3633543, "lon": 2.1370107, "tags": {"amenity": "bank", "brand": "Caixabank", "brand:website": "https://caixabank.es", "brand:wikidata": "Q847225", "brand:wikipedia": "es:CaixaBank", "contact:website": "https://www.caixabank.es", "drive_through": "no", "name": "Caixabank", "wheelchair": "yes"}}, {"type": "node", "id": 6260786185, "lat": 41.3870768, "lon": 2.1353085, "tags": {"amenity": "bank", "brand": "Kutxabank", "brand:wikidata": "Q5139377", "brand:wikipedia": "en:Kutxabank", "name": "Kutxabank"}}, {"type": "node", "id": 6271050379, "lat": 41.360293, "lon": 2.1396279, "tags": {"addr:city": "Barcelona", "addr:country": "ES", "addr:housenumber": "34", "addr:postcode": "08038", "addr:street": "Carrer de la Foneria", "amenity": "bank", "atm": "yes", "branch": "1731 (Barcelona, Foneria)", "brand": "Banco Sabadell", "brand:ca": "Banc Sabadell", "brand:es": "Banco Sabadell", "brand:wikidata": "Q762330", "brand:wikipedia": "es:Banco Sabadell", "contact:fax": "+34 932981655", "contact:phone": "+34 932964229", "drive_through": "no", "name": "Banco Sabadell", "name:ca": "Banc Sabadell", "name:es": "Banco Sabadell", "official_name": "Banco de Sabadell, S.A.", "opening_hours": "Mo-We,Fr,Sa 08:15-14:00; Th 08:15-18:30"}}, {"type": "node", "id": 6310314285, "lat": 41.3856966, "lon": 2.1328275, "tags": {"amenity": "bank", "brand": "Caixabank", "brand:website": "https://caixabank.es", "brand:wikidata": "Q847225", "brand:wikipedia": "es:CaixaBank", "contact:website": "https://www.caixabank.es", "name": "Caixabank"}}, {"type": "node", "id": 6324328578, "lat": 41.3756605, "lon": 2.1280237, "tags": {"addr:city": "Barcelona", "addr:housenumber": "258", "addr:postcode": "08028", "addr:street": "Carrer de Sants", "amenity": "bank", "atm": "yes", "brand": "Ibercaja", "brand:wikidata": "Q5907815", "brand:wikipedia": "es:Ibercaja", "name": "Ibercaja"}}, {"type": "node", "id": 6355587424, "lat": 41.3754685, "lon": 2.127517, "tags": {"amenity": "bank", "brand": "Kutxabank", "brand:wikidata": "Q5139377", "brand:wikipedia": "en:Kutxabank", "name": "Kutxabank", "operator": "kutxa"}}, {"type": "node", "id": 6368956894, "lat": 41.3605103, "lon": 2.1382707, "tags": {"amenity": "bank", "brand": "Banco Santander", "brand:en": "Santander Bank", "brand:es": "Banco Santander", "brand:wikidata": "Q6496310", "brand:wikipedia": "es:Banco Santander", "check_date": "2023-07-15", "name": "Banco Santander", "name:ca": "Banc Santander", "name:en": "Santander Bank", "name:es": "Banco Santander", "official_name": "Santander Group", "opening_hours": "Mo-Fr 08:30-14:30", "operator": "Santander", "wheelchair": "yes"}}, {"type": "node", "id": 6412450846, "lat": 41.3844033, "lon": 2.1270856, "tags": {"addr:city": "Barcelona", "addr:country": "ES", "addr:housenumber": "69", "addr:street": "Gran Via de Carles III", "amenity": "bank", "brand": "Caixabank", "brand:website": "https://caixabank.es", "brand:wikidata": "Q847225", "brand:wikipedia": "es:CaixaBank", "contact:website": "https://www.caixabank.es", "name": "Caixabank"}}, {"type": "node", "id": 6432191585, "lat": 41.3894001, "lon": 2.1287652, "tags": {"addr:housenumber": "662-664", "addr:street": "Avinguda Diagonal", "amenity": "bank", "name": "Banco Mediolanum", "name:ca": "Banc Mediolanum", "phone": "+34 932800664", "website": "https://www.bancomediolanum.es/es-ES/"}}, {"type": "node", "id": 6433913797, "lat": 41.3984831, "lon": 2.1535018, "tags": {"amenity": "bank", "brand": "BBVA", "brand:wikidata": "Q806189", "brand:wikipedia": "en:Banco Bilbao Vizcaya Argentaria", "name": "BBVA", "name:ca": "BBVA", "official_name": "Banco Bilbao Vizcaya Argentaria", "opening_hours": "Mo-Fr 08:30-11:00", "wheelchair": "yes"}}, {"type": "node", "id": 6435327320, "lat": 41.3854244, "lon": 2.1296176, "tags": {"amenity": "bank", "atm": "yes", "brand": "Cajamar", "brand:wikidata": "Q8254971", "brand:wikipedia": "es:Cajamar", "name": "Cajamar"}}, {"type": "node", "id": 6478758180, "lat": 41.3837259, "lon": 2.1293568, "tags": {"amenity": "bank", "brand": "BBVA", "brand:wikidata": "Q806189", "brand:wikipedia": "en:Banco Bilbao Vizcaya Argentaria", "name": "BBVA", "name:ca": "BBVA", "official_name": "Banco Bilbao Vizcaya Argentaria"}}, {"type": "node", "id": 6480118824, "lat": 41.3754503, "lon": 2.1394946, "tags": {"amenity": "bank", "brand": "Banco Sabadell", "brand:ca": "Banc Sabadell", "brand:es": "Banco Sabadell", "brand:wikidata": "Q762330", "brand:wikipedia": "es:Banco Sabadell", "name": "Banco Sabadell", "name:ca": "Banc Sabadell", "name:es": "Banco Sabadell", "official_name": "Banco de Sabadell, S.A."}}, {"type": "node", "id": 6635895086, "lat": 41.428353, "lon": 2.1839915, "tags": {"amenity": "bank", "brand": "Caixabank", "brand:-2021": "Bankia", "brand:website": "https://caixabank.es", "brand:wikidata": "Q847225", "brand:wikidata:-2021": "Q806807", "brand:wikipedia": "es:CaixaBank", "brand:wikipedia:-2021": "es:Bankia", "contact:website": "https://www.caixabank.es", "name": "Caixabank", "name:-2021": "Bankia", "operator": "Caixabank", "operator:-2021": "Bankia", "operator:wikidata": "Q847225", "operator:wikidata:-2021": "Q806807", "operator:wikipedia": "es:CaixaBank", "operator:wikipedia:-2021": "es:Bankia"}}, {"type": "node", "id": 6680094993, "lat": 41.357388, "lon": 2.126725, "tags": {"amenity": "bank", "brand": "Banco Santander", "brand:en": "Santander Bank", "brand:es": "Banco Santander", "brand:wikidata": "Q6496310", "brand:wikipedia": "es:Banco Santander", "name": "Banco Santander", "name:ca": "Banc Santander", "name:en": "Santander Bank", "name:es": "Banco Santander", "official_name": "Santander Group", "operator": "Santander"}}, {"type": "node", "id": 6802865486, "lat": 41.4016199, "lon": 2.1581332, "tags": {"addr:housenumber": "171", "addr:street": "Travessera de Gr\u00e0cia", "amenity": "bank", "brand": "Banco Sabadell", "brand:ca": "Banc Sabadell", "brand:es": "Banco Sabadell", "brand:wikidata": "Q762330", "brand:wikipedia": "es:Banco Sabadell", "check_date": "2024-11-13", "name": "Banco Sabadell", "name:ca": "Banc Sabadell", "name:es": "Banco Sabadell", "official_name": "Banco de Sabadell, S.A.", "opening_hours": "Su-Fr 08:00-14:00", "wheelchair": "yes"}}, {"type": "node", "id": 6833194806, "lat": 41.3755808, "lon": 2.1199295, "tags": {"amenity": "bank", "brand": "BBVA", "brand:wikidata": "Q806189", "brand:wikipedia": "en:Banco Bilbao Vizcaya Argentaria", "check_date": "2024-04-09", "name": "BBVA", "name:ca": "BBVA", "official_name": "Banco Bilbao Vizcaya Argentaria"}}, {"type": "node", "id": 6833194807, "lat": 41.3782516, "lon": 2.1274258, "tags": {"amenity": "bank", "brand": "Caixabank", "brand:website": "https://caixabank.es", "brand:wikidata": "Q847225", "brand:wikipedia": "es:CaixaBank", "contact:website": "https://www.caixabank.es", "name": "Caixabank"}}, {"type": "node", "id": 7084636315, "lat": 41.3922, "lon": 2.16988, "tags": {"amenity": "bank", "atm": "yes", "name": "Unicaja Banco", "old_name": "Liberbank"}}, {"type": "node", "id": 7084672678, "lat": 41.3869, "lon": 2.17434, "tags": {"amenity": "bank", "brand": "Caixabank", "brand:website": "https://caixabank.es", "brand:wikidata": "Q847225", "brand:wikipedia": "es:CaixaBank", "contact:website": "https://www.caixabank.es", "name": "Caixabank"}}, {"type": "node", "id": 7084674981, "lat": 41.3922381, "lon": 2.1654145, "tags": {"amenity": "bank", "brand": "Banco Santander", "brand:en": "Santander Bank", "brand:es": "Banco Santander", "brand:wikidata": "Q6496310", "brand:wikipedia": "es:Banco Santander", "name": "Banco Santander", "name:ca": "Banc Santander", "name:en": "Santander Bank", "name:es": "Banco Santander", "official_name": "Santander Group"}}, {"type": "node", "id": 7084928153, "lat": 41.3927382, "lon": 2.142678, "tags": {"amenity": "bank", "brand": "Caixabank", "brand:website": "https://caixabank.es", "brand:wikidata": "Q847225", "brand:wikipedia": "es:CaixaBank", "contact:website": "https://www.caixabank.es", "name": "Caixabank"}}, {"type": "node", "id": 7084941406, "lat": 41.3926296, "lon": 2.1422654, "tags": {"addr:housenumber": "612", "addr:street": "Avinguda Diagonal", "amenity": "bank", "brand": "Ibercaja", "brand:wikidata": "Q5907815", "brand:wikipedia": "es:Ibercaja", "name": "Ibercaja"}}, {"type": "node", "id": 7084941522, "lat": 41.3933, "lon": 2.14463, "tags": {"addr:housenumber": "3", "addr:street": "Pla\u00e7a de Francesc Maci\u00e0", "amenity": "bank", "brand": "Banco Santander", "brand:en": "Santander Bank", "brand:es": "Banco Santander", "brand:wikidata": "Q6496310", "brand:wikipedia": "es:Banco Santander", "name": "Banco Santander", "name:ca": "Banc Santander", "name:en": "Santander Bank", "name:es": "Banco Santander", "official_name": "Santander Group", "old_name": "Banco Popular Espa\u00f1ol", "website": "https://bancopopular.com"}}, {"type": "node", "id": 7085993494, "lat": 41.4011, "lon": 2.17245, "tags": {"amenity": "bank", "name": "Europhil change"}}, {"type": "node", "id": 7086464958, "lat": 41.3955819, "lon": 2.1569728, "tags": {"amenity": "bank", "name": "Pibank"}}, {"type": "node", "id": 7137169934, "lat": 41.3949947, "lon": 2.1644157, "tags": {"amenity": "bank", "brand": "Caixabank", "brand:website": "https://caixabank.es", "brand:wikidata": "Q847225", "brand:wikipedia": "es:CaixaBank", "contact:website": "https://www.caixabank.es", "name": "Caixabank", "opening_hours": "Mo-Fr 08:15-14:30; Th 16:15-18:30"}}, {"type": "node", "id": 7179749690, "lat": 41.3734778, "lon": 2.1186216, "tags": {"amenity": "bank", "name:en": "Barxia"}}, {"type": "node", "id": 7206933880, "lat": 41.3672089, "lon": 2.1274487, "tags": {"addr:city": "l'Hospitalet de Llobregat", "addr:housenumber": "86-94", "addr:postcode": "08902", "addr:street": "Carrer de Santa Eul\u00e0lia", "amenity": "bank", "atm": "yes", "brand": "Caixabank", "brand:website": "https://caixabank.es", "brand:wikidata": "Q847225", "brand:wikipedia": "es:CaixaBank", "contact:website": "https://www.caixabank.es", "name": "Caixabank", "opening_hours:atm": "24/7", "operator": "CaixaBank, S.A.", "phone": "+34 93 406 47 40", "ref": "0821", "wheelchair": "limited"}}, {"type": "node", "id": 7207743770, "lat": 41.3681933, "lon": 2.130231, "tags": {"addr:city": "l'Hospitalet de Llobregat", "addr:housenumber": "18-20", "addr:postcode": "08902", "addr:street": "Carrer de Santa Eul\u00e0lia", "amenity": "bank", "atm": "yes", "brand": "Caixabank", "brand:website": "https://caixabank.es", "brand:wikidata": "Q847225", "brand:wikipedia": "es:CaixaBank", "contact:website": "https://www.caixabank.es", "name": "Caixabank", "operator": "CaixaBank, S.A.", "phone": "+34 93 406 44 90", "ref": "0584"}}, {"type": "node", "id": 7208319080, "lat": 41.3647334, "lon": 2.1263761, "tags": {"addr:city": "l'Hospitalet de Llobregat", "addr:housenumber": "72-74", "addr:postcode": "08902", "addr:street": "Carrer del Comer\u00e7", "amenity": "bank", "atm": "yes", "brand": "Caixabank", "brand:website": "https://caixabank.es", "brand:wikidata": "Q847225", "brand:wikipedia": "es:CaixaBank", "contact:website": "https://www.caixabank.es", "name": "Caixabank", "opening_hours:atm": "24/7", "operator": "CaixaBank, S.A.", "phone": "+34 93 405 87 20", "ref": "3181", "wheelchair": "yes"}}, {"type": "node", "id": 7209379740, "lat": 41.3625656, "lon": 2.1267026, "tags": {"addr:city": "l'Hospitalet de Llobregat", "addr:housenumber": "82", "addr:postcode": "08902", "addr:street": "Carrer de l'Aprestadora", "amenity": "bank", "atm": "yes", "brand": "Caixabank", "brand:website": "https://caixabank.es", "brand:wikidata": "Q847225", "brand:wikipedia": "es:CaixaBank", "contact:website": "https://www.caixabank.es", "name": "Caixabank", "opening_hours:atm": "24/7", "operator": "CaixaBank, S.A.", "phone": "+34 93 405 88 70", "ref": "0445", "wheelchair": "yes"}}, {"type": "node", "id": 7211973508, "lat": 41.3664032, "lon": 2.1232395, "tags": {"addr:city": "l'Hospitalet de Llobregat", "addr:housenumber": "147", "addr:postcode": "08902", "addr:street": "Carrer de Santa Eul\u00e0lia", "amenity": "bank", "atm": "yes", "brand": "BBVA", "brand:wikidata": "Q806189", "brand:wikipedia": "en:Banco Bilbao Vizcaya Argentaria", "name": "BBVA", "name:ca": "BBVA", "official_name": "Banco Bilbao Vizcaya Argentaria", "opening_hours": "Mo-Fr 08:30-14:15", "opening_hours:atm": "24/7", "operator": "Banco Bilbao Vizcaya Argentaria, S.A.", "phone": "+34 93 298 83 90", "ref": "0813", "website": "https://www.bbva.es", "wheelchair": "yes"}}, {"type": "node", "id": 7211997774, "lat": 41.365737, "lon": 2.1194584, "tags": {"addr:city": "l'Hospitalet de Llobregat", "addr:housenumber": "228", "addr:postcode": "08902", "addr:street": "Carrer de Santa Eul\u00e0lia", "amenity": "bank", "atm": "yes", "brand": "Banco Santander", "brand:en": "Santander Bank", "brand:es": "Banco Santander", "brand:wikidata": "Q6496310", "brand:wikipedia": "es:Banco Santander", "name": "Banco Santander", "name:ca": "Banc Santander", "name:en": "Santander Bank", "name:es": "Banco Santander", "official_name": "Santander Group", "opening_hours": "Mo-Fr 08:30-14:30", "opening_hours:atm": "24/7", "operator": "Santander", "phone": "+34 93 422 10 19", "website": "https://www.bancosantander.es", "wheelchair": "yes"}}, {"type": "node", "id": 7574529785, "lat": 41.4039386, "lon": 2.1690022, "tags": {"amenity": "bank", "name": "Fiare bancaetica"}}, {"type": "node", "id": 7643812546, "lat": 41.3857668, "lon": 2.1761733}, {"type": "node", "id": 7643812552, "lat": 41.3855728, "lon": 2.1757992}, {"type": "node", "id": 7643812554, "lat": 41.3856499, "lon": 2.1758791}, {"type": "node", "id": 7643812561, "lat": 41.3851252, "lon": 2.1760493}, {"type": "node", "id": 7643812562, "lat": 41.3855638, "lon": 2.1758028}, {"type": "node", "id": 7643812565, "lat": 41.3855548, "lon": 2.176345}, {"type": "node", "id": 7643812568, "lat": 41.3851329, "lon": 2.1760671}, {"type": "node", "id": 7643812570, "lat": 41.3854229, "lon": 2.176345}, {"type": "node", "id": 7643812571, "lat": 41.3856274, "lon": 2.1757779}, {"type": "node", "id": 7643812576, "lat": 41.3855158, "lon": 2.1758205}, {"type": "node", "id": 7643812581, "lat": 41.3854213, "lon": 2.1763426}, {"type": "node", "id": 7643823886, "lat": 41.3855913, "lon": 2.1763935}, {"type": "node", "id": 7643823897, "lat": 41.3851732, "lon": 2.1761194}, {"type": "node", "id": 7643823900, "lat": 41.3856805, "lon": 2.1759578}, {"type": "node", "id": 7643823901, "lat": 41.3852075, "lon": 2.1759408}, {"type": "node", "id": 7643823907, "lat": 41.3856545, "lon": 2.1759914}, {"type": "node", "id": 7643823908, "lat": 41.3857738, "lon": 2.1760825}, {"type": "node", "id": 7643823909, "lat": 41.3853472, "lon": 2.1763528}, {"type": "node", "id": 7643823910, "lat": 41.3853861, "lon": 2.1763931}, {"type": "node", "id": 7643823912, "lat": 41.3852077, "lon": 2.1761672}, {"type": "node", "id": 7643823918, "lat": 41.3856791, "lon": 2.1759558}, {"type": "node", "id": 7643823927, "lat": 41.3854255, "lon": 2.1763367}, {"type": "node", "id": 7643823931, "lat": 41.3856573, "lon": 2.1759136}, {"type": "node", "id": 7643823932, "lat": 41.3856613, "lon": 2.1759318}, {"type": "node", "id": 7643823947, "lat": 41.3856437, "lon": 2.1758506}, {"type": "node", "id": 7643823962, "lat": 41.3851465, "lon": 2.1759663}, {"type": "node", "id": 7643823966, "lat": 41.3857401, "lon": 2.1760375}, {"type": "node", "id": 7643823968, "lat": 41.3851242, "lon": 2.1760018}, {"type": "node", "id": 7643823972, "lat": 41.3858047, "lon": 2.176124}, {"type": "node", "id": 7643823994, "lat": 41.3857999, "lon": 2.1761303}, {"type": "node", "id": 7643824000, "lat": 41.3855523, "lon": 2.176337}, {"type": "node", "id": 7643824001, "lat": 41.3851214, "lon": 2.1760228}, {"type": "node", "id": 7643824002, "lat": 41.3851298, "lon": 2.175987}, {"type": "node", "id": 7643824007, "lat": 41.3856428, "lon": 2.1758469}, {"type": "node", "id": 7643824010, "lat": 41.3851225, "lon": 2.1760373}, {"type": "node", "id": 7643824017, "lat": 41.385254, "lon": 2.1759223}, {"type": "node", "id": 7643824018, "lat": 41.3855977, "lon": 2.1763967}, {"type": "node", "id": 7643824019, "lat": 41.3855931, "lon": 2.1763914}, {"type": "node", "id": 7643824020, "lat": 41.3856315, "lon": 2.1763525}, {"type": "node", "id": 7643824025, "lat": 41.3851526, "lon": 2.1759623}, {"type": "node", "id": 7643824026, "lat": 41.3851287, "lon": 2.1760593}, {"type": "node", "id": 7643824040, "lat": 41.3857047, "lon": 2.1760579}, {"type": "node", "id": 7643824041, "lat": 41.3851374, "lon": 2.1759752}, {"type": "node", "id": 7643824042, "lat": 41.3857305, "lon": 2.1760245}, {"type": "node", "id": 7643824046, "lat": 41.3851416, "lon": 2.1759707}, {"type": "node", "id": 7684382380, "lat": 41.3522578, "lon": 2.1111077, "tags": {"amenity": "bank", "atm": "yes", "brand": "Banco Sabadell", "brand:ca": "Banc Sabadell", "brand:es": "Banco Sabadell", "brand:wikidata": "Q762330", "brand:wikipedia": "es:Banco Sabadell", "name": "Banco Sabadell", "name:ca": "Banc Sabadell", "name:es": "Banco Sabadell", "official_name": "Banco de Sabadell, S.A.", "opening_hours": "Mo,We,Fr 08:15-14:00", "wheelchair": "no"}}, {"type": "node", "id": 7684382381, "lat": 41.3522752, "lon": 2.1113682, "tags": {"amenity": "bank", "atm": "yes", "atm:network": "Servired", "atm:operator": "BBVA", "brand": "BBVA", "brand:wikidata": "Q806189", "brand:wikipedia": "en:Banco Bilbao Vizcaya Argentaria", "name": "BBVA", "name:ca": "BBVA", "network": "Servired", "official_name": "Banco Bilbao Vizcaya Argentaria", "opening_hours": "Mo-Fr 08:30-14:00", "operator": "BBVA", "wheelchair": "yes", "wikidata": "Q23827704", "wikimedia_commons": "Category:Edificio BBVA (antiguo Banco de Comercio)"}}, {"type": "node", "id": 7716896424, "lat": 41.375541, "lon": 2.1238931, "tags": {"addr:city": "Barcelona", "addr:housenumber": "395", "addr:postcode": "08028", "addr:street": "Carrer de Sants", "amenity": "bank", "brand": "Santander", "brand:wikidata": "Q5835668", "brand:wikipedia": "en:Santander Bank", "name": "Santander", "name:ca": "Santander"}}, {"type": "node", "id": 7760779940, "lat": 41.3754947, "lon": 2.126472, "tags": {"addr:city": "Barcelona", "addr:housenumber": "347", "addr:postcode": "08028", "addr:street": "Carrer de Sants", "amenity": "bank", "atm": "yes", "brand": "BBVA", "brand:wikidata": "Q806189", "brand:wikipedia": "en:Banco Bilbao Vizcaya Argentaria", "drive_through": "yes", "name": "BBVA", "name:ca": "BBVA", "official_name": "Banco Bilbao Vizcaya Argentaria", "phone": "+34933394208", "website": "https://www.bbva.es/"}}, {"type": "node", "id": 8064873786, "lat": 41.3966255, "lon": 2.1935086, "tags": {"amenity": "bank", "name": "Chaabi Bank"}}, {"type": "node", "id": 8320454723, "lat": 41.4217311, "lon": 2.1428724, "tags": {"amenity": "bank", "operator": "CaixaBank"}}, {"type": "node", "id": 8375493988, "lat": 41.3912703, "lon": 2.125222, "tags": {"addr:city": "Barcelona", "addr:housenumber": "54", "addr:postcode": "08034", "addr:street": "Passeig de Manuel Girona", "amenity": "bank", "name": "Caixabank", "operator": "Caixabank"}}, {"type": "node", "id": 8399290266, "lat": 41.3962812, "lon": 2.1536648, "tags": {"amenity": "bank", "atm": "yes", "brand": "Caixabank", "brand:website": "https://caixabank.es", "brand:wikidata": "Q847225", "brand:wikipedia": "es:CaixaBank", "contact:website": "https://www.caixabank.es", "name": "Caixabank", "opening_hours": "Mo-Th 08:30-18:30; Fr 08:30-14:30", "wheelchair": "yes"}}, {"type": "node", "id": 8418734871, "lat": 41.3907311, "lon": 2.1637184, "tags": {"addr:housenumber": "57;59", "addr:street": "Rambla de Catalunya", "amenity": "bank", "check_date": "2024-01-16", "name": "Deutsche Bank"}}, {"type": "node", "id": 8500524497, "lat": 41.420175, "lon": 2.1502602, "tags": {"amenity": "bank", "operator": "Santamder"}}, {"type": "node", "id": 8536460185, "lat": 41.3961982, "lon": 2.149522, "tags": {"addr:housenumber": "51", "addr:street": "Travessera de Gr\u00e0cia", "amenity": "bank", "atm": "yes", "name": "Banco Santander", "name:ca": "Banc Santander", "opening_hours": "Mo-Fr 08:30-11:00"}}, {"type": "node", "id": 8652137910, "lat": 41.4244572, "lon": 2.1561869, "tags": {"amenity": "bank", "brand": "Caixabank", "brand:website": "https://caixabank.es", "brand:wikidata": "Q847225", "brand:wikipedia": "es:CaixaBank", "contact:website": "https://www.caixabank.es", "name": "Caixabank"}}, {"type": "node", "id": 8659235618, "lat": 41.4274417, "lon": 2.156336, "tags": {"amenity": "bank", "brand": "Caixabank", "brand:website": "https://caixabank.es", "brand:wikidata": "Q847225", "brand:wikipedia": "es:CaixaBank", "contact:website": "https://www.caixabank.es", "name": "Caixabank"}}, {"type": "node", "id": 9023482393, "lat": 41.3920236, "lon": 2.1667288, "tags": {"amenity": "bank", "brand": "BBVA", "brand:wikidata": "Q806189", "name": "BBVA", "name:ca": "BBVA", "official_name": "Banco Bilbao Vizcaya Argentaria"}}, {"type": "node", "id": 9042478730, "lat": 41.3943546, "lon": 2.1499046, "tags": {"amenity": "bank", "atm": "yes", "branch": "Banca privada", "brand": "Caixabank", "brand:website": "https://caixabank.es", "brand:wikidata": "Q847225", "brand:wikipedia": "es:CaixaBank", "check_date:opening_hours": "2023-01-09", "contact:website": "https://www.caixabank.es", "name": "Caixabank", "opening_hours:signed": "no", "operator": "Caixabank"}}, {"type": "node", "id": 9107182022, "lat": 41.3809545, "lon": 2.1721215, "tags": {"addr:city": "Barcelona", "addr:housenumber": "26", "addr:postcode": "08001", "addr:street": "Carrer de l'Hospital", "amenity": "bank", "atm": "yes", "brand": "BBVA", "brand:wikidata": "Q806189", "brand:wikipedia": "en:Banco Bilbao Vizcaya Argentaria", "name": "BBVA", "name:ca": "BBVA", "official_name": "Banco Bilbao Vizcaya Argentaria", "operator": "BBVA"}}, {"type": "node", "id": 9144089706, "lat": 41.3950295, "lon": 2.1554154, "tags": {"addr:housenumber": "210", "addr:street": "Avinguda Diagonal", "amenity": "bank", "atm": "yes", "name": "Banc Sabadell", "name:ca": "Banc Sabadell", "opening_hours": "Mo-Fr 08:15-14:00; Th 08:15-18:30"}}, {"type": "node", "id": 9243716469, "lat": 41.3784859, "lon": 2.1444984, "tags": {"amenity": "bank", "brand": "Caixabank", "brand:website": "https://caixabank.es", "brand:wikidata": "Q847225", "brand:wikipedia": "es:CaixaBank", "contact:website": "https://www.caixabank.es", "name": "Caixabank"}}, {"type": "node", "id": 9277195379, "lat": 41.3976964, "lon": 2.1542666, "tags": {"addr:housenumber": "28", "addr:street": "Via Augusta", "amenity": "bank", "atm": "yes", "brand": "Banco Santander", "check_date": "2024-01-26", "contact:phone": "+34 93 4150 618", "name": "Banco Santander", "name:ca": "Banc Santander", "name:en": "Santander Bank", "name:es": "Banco Santander", "opening_hours": "Mo-Sa 09:00-14:00,16:00-18:30; Sa 09:00-14:00"}}, {"type": "node", "id": 9349366460, "lat": 41.3954213, "lon": 2.1560984, "tags": {"addr:housenumber": "405", "addr:street": "Avinguda Diagonal", "amenity": "bank", "atm": "yes", "contact:fax": "+34 93 415 35 55", "contact:phone": "+34 93 415 02 21", "contact:website": "https://www.bancamarch.es/es/", "name": "Banca March", "name:ca": "Banca March"}}, {"type": "node", "id": 9351267981, "lat": 41.3828686, "lon": 2.1506665, "tags": {"amenity": "bank", "brand": "Caixabank", "brand:website": "https://caixabank.es", "brand:wikidata": "Q847225", "brand:wikipedia": "es:CaixaBank", "contact:website": "https://www.caixabank.es", "name": "Caixabank"}}, {"type": "node", "id": 9351287982, "lat": 41.3834431, "lon": 2.1513144, "tags": {"amenity": "bank", "brand": "Banco Sabadell", "brand:ca": "Banc Sabadell", "brand:es": "Banco Sabadell", "brand:wikidata": "Q762330", "brand:wikipedia": "es:Banco Sabadell", "name": "Banco Sabadell", "name:ca": "Banc Sabadell", "name:es": "Banco Sabadell", "official_name": "Banco de Sabadell, S.A."}}, {"type": "node", "id": 9351295187, "lat": 41.3788451, "lon": 2.1452418, "tags": {"amenity": "bank", "brand": "Bankinter", "brand:wikidata": "Q806808", "name": "Bankinter", "name:ca": "Bankinter", "opening_hours": "Mo-Fr 08:30-14:30"}}, {"type": "node", "id": 9435276996, "lat": 41.3960415, "lon": 2.1520056, "tags": {"addr:housenumber": "20-24", "addr:street": "Carrer de Tuset", "amenity": "bank", "atm": "yes", "brand": "Banco Santander", "name": "Banco Santander", "name:ca": "Banc Santander", "opening_hours": "Mo-Fr 08:30-11:00"}}, {"type": "node", "id": 9529551944, "lat": 41.4400118, "lon": 2.1763556, "tags": {"addr:city": "Barcelona", "addr:housenumber": "32", "addr:postcode": "08016", "addr:street": "Via J\u00falia", "amenity": "bank", "atm": "yes", "brand": "Kutxabank", "brand:wikidata": "Q5139377", "brand:wikipedia": "en:Kutxabank", "name": "Kutxabank", "opening_hours": "Mo-We 08:30-14:00; Th 08:30-14:00,16:45-19:15; Fr 08:30-14:00"}}, {"type": "node", "id": 9529551945, "lat": 41.4339839, "lon": 2.1901568, "tags": {"addr:city": "Barcelona", "addr:housenumber": "1-9", "addr:postcode": "08030", "addr:street": "Carrer de Sant Adri\u00e0", "amenity": "bank", "atm": "yes", "brand": "Kutxabank", "brand:wikidata": "Q5139377", "brand:wikipedia": "en:Kutxabank", "name": "Kutxabank", "opening_hours": "Mo-We,Fr 08:30-14:00; Th 08:30-14:00,16:45-19:15"}}, {"type": "node", "id": 9569531608, "lat": 41.388812, "lon": 2.1246281, "tags": {"addr:city": "Barcelona", "addr:housenumber": "3", "addr:postcode": "08034", "addr:street": "Doctor Ferran", "addr:unit": "5", "amenity": "bank", "name": "Caixa Guissona", "name:ca": "Caixa Guissona", "opening_hours": "Mo-Fr 08:30-14:00,15:30-17:30", "phone": "+34 93-200-92-49"}}, {"type": "node", "id": 9580733139, "lat": 41.388674, "lon": 2.1264572, "tags": {"addr:city": "Barcelona", "addr:housenumber": "668", "addr:postcode": "08034", "addr:street": "Avinguda Diagonal", "amenity": "bank", "name": "Banco Mediolanum", "phone": "+34 900 800 108"}}, {"type": "node", "id": 9588055483, "lat": 41.3868589, "lon": 2.1746157, "tags": {"amenity": "bank", "brand": "Banco Sabadell", "brand:ca": "Banc Sabadell", "brand:es": "Banco Sabadell", "brand:wikidata": "Q762330", "check_date": "2023-05-27", "name": "Banco Sabadell", "name:ca": "Banc Sabadell", "name:es": "Banco Sabadell", "official_name": "Banco de Sabadell, S.A."}}, {"type": "node", "id": 9729266729, "lat": 41.3653709, "lon": 2.1334257, "tags": {"amenity": "bank", "brand": "Caixabank", "brand:wikidata": "Q847225", "name": "Caixabank"}}, {"type": "node", "id": 9739171785, "lat": 41.3992445, "lon": 2.1522637, "tags": {"addr:housenumber": "17", "addr:street": "Pla\u00e7a de Gal\u00b7la Plac\u00eddia", "amenity": "bank", "atm": "yes", "brand": "Caixabank", "brand:wikidata": "Q847225", "brand:wikipedia": "es:CaixaBank", "contact:website": "https://www.caixabank.es", "name": "Caixabank", "opening_hours": "Mo-Th 08:30-18:30; Fr 08:30-14:30; Jul 01-Sep 15: Mo-Fr 08:30-14:30"}}, {"type": "node", "id": 9799230917, "lat": 41.3913868, "lon": 2.146062, "tags": {"amenity": "bank", "name:en": "ABANCA", "opening_hours": "Mo-Fr 08:15-14:15", "phone": "+34 900815200"}}, {"type": "node", "id": 9801500017, "lat": 41.3933299, "lon": 2.1480593, "tags": {"addr:housenumber": "457", "addr:postcode": "08036", "addr:street": "Avinguda Diagonal", "amenity": "bank", "name:en": "Renta 4 Banco", "phone": "+34 931 18 20 65", "website": "https://www.r4.com/"}}, {"type": "node", "id": 9801826220, "lat": 41.3944079, "lon": 2.1497131, "tags": {"amenity": "bank", "name:en": "Arquia banca caixa advocats"}}, {"type": "node", "id": 9801832823, "lat": 41.3949251, "lon": 2.1503766, "tags": {"addr:housenumber": "185-187", "addr:street": "Carrer d'Aribau", "amenity": "bank", "name:en": "CaixaBank"}}, {"type": "node", "id": 9801944117, "lat": 41.3943463, "lon": 2.1496132, "tags": {"amenity": "bank", "name:en": "Sabadell", "opening_hours": "Mo-Fr 08:15-11:00"}}, {"type": "node", "id": 9806292517, "lat": 41.3854213, "lon": 2.1449757, "tags": {"amenity": "bank", "name:en": "BBVA"}}, {"type": "node", "id": 9807040117, "lat": 41.3763731, "lon": 2.14582, "tags": {"amenity": "bank", "name:en": "Santander"}}, {"type": "node", "id": 9807136219, "lat": 41.3786904, "lon": 2.1454494, "tags": {"amenity": "bank", "name:en": "BMCE Euro Services", "opening_hours": "Mo-Th 08:30-17:30; Fr 08:30-15:30"}}, {"type": "node", "id": 9814908417, "lat": 41.3934944, "lon": 2.1453959, "tags": {"addr:city": "Barcelona", "addr:housenumber": "3", "addr:postcode": "08021", "addr:street": "Travessera de Gr\u00e0cia", "amenity": "bank", "atm": "yes", "brand": "Banco Sabadell", "brand:ca": "Banc Sabadell", "brand:es": "Banco Sabadell", "brand:wikidata": "Q762330", "drive_through": "no", "level": "0", "name": "Banco Sabadell", "name:ca": "Banc Sabadell", "name:es": "Banco Sabadell", "official_name": "Banco de Sabadell, S.A.", "opening_hours": "Mo-Fr 08:15-14:00; PH off", "wheelchair": "yes"}}, {"type": "node", "id": 9820200018, "lat": 41.3925897, "lon": 2.1451903, "tags": {"amenity": "bank", "name:en": "all in one CaixaBank", "opening_hours": "Mo-Th 08:30-18:30; Fr 08:30-14:30"}}, {"type": "node", "id": 9823584917, "lat": 41.3967861, "lon": 2.1615456, "tags": {"amenity": "bank", "brand": "Bankinter", "brand:wikidata": "Q806808", "name": "Bankinter", "name:ca": "Bankinter", "name:en": "Bankinter"}}, {"type": "node", "id": 9823596018, "lat": 41.387053, "lon": 2.1515726, "tags": {"amenity": "bank", "name:en": "CaixaBank"}}, {"type": "node", "id": 9825404817, "lat": 41.3915215, "lon": 2.1414449, "tags": {"addr:housenumber": "507", "addr:street": "Avinguda Diagonal", "amenity": "bank", "check_date": "2023-10-19", "name": "Bankinter", "name:en": "Bankinter"}}, {"type": "node", "id": 9825433917, "lat": 41.3949794, "lon": 2.1475248, "tags": {"amenity": "bank", "name:en": "Deutsche Bank"}}, {"type": "node", "id": 9846873820, "lat": 41.399452, "lon": 2.1426407, "tags": {"amenity": "bank", "name:en": "Bankinter"}}, {"type": "node", "id": 9846881618, "lat": 41.4015973, "lon": 2.1393035, "tags": {"amenity": "bank", "brand": "Banco Santander", "brand:wikidata": "Q6496310", "name": "Banco Santander", "name:en": "Santander", "official_name": "Santander Group"}}, {"type": "node", "id": 9846884517, "lat": 41.3999646, "lon": 2.1415033, "tags": {"amenity": "bank", "name:en": "CaixaBank"}}, {"type": "node", "id": 9846888617, "lat": 41.4030474, "lon": 2.1378703, "tags": {"amenity": "bank", "brand": "Caixabank", "brand:wikidata": "Q847225", "name": "Caixabank", "name:en": "CaixaBank"}}, {"type": "node", "id": 9846888621, "lat": 41.4044179, "lon": 2.1359331, "tags": {"amenity": "bank", "brand": "Banco Santander", "brand:wikidata": "Q6496310", "name": "Banco Santander", "name:en": "Santander", "official_name": "Santander Group"}}, {"type": "node", "id": 9850980117, "lat": 41.3913722, "lon": 2.146059, "tags": {"amenity": "bank", "name:en": "Abanca", "opening_hours": "Mo-Fr 08:15-14:15"}}, {"type": "node", "id": 9866707773, "lat": 41.3816353, "lon": 2.1690109, "tags": {"addr:city": "Barcelona", "addr:housenumber": "44", "addr:postcode": "08001", "addr:street": "Carrer del Carme", "amenity": "bank", "atm": "yes", "brand": "Caixabank", "brand:wikidata": "Q847225", "drive_through": "no", "name": "Caixabank"}}, {"type": "node", "id": 9868535417, "lat": 41.392981, "lon": 2.147574, "tags": {"amenity": "bank", "name:en": "BBVA"}}, {"type": "node", "id": 9992898564, "lat": 41.3954341, "lon": 2.1678578, "tags": {"addr:city": "Barcelona", "addr:housenumber": "93", "addr:postcode": "08009", "addr:street": "Carrer del Bruc", "amenity": "bank", "atm": "yes", "brand": "Banco Sabadell", "brand:ca": "Banc Sabadell", "brand:es": "Banco Sabadell", "brand:wikidata": "Q762330", "drive_through": "no", "name": "Banco Sabadell", "name:ca": "Banc Sabadell", "name:es": "Banco Sabadell", "official_name": "Banco de Sabadell, S.A.", "opening_hours": "Mo-Fr 08:00-14:00", "operator": "Sabadell"}}, {"type": "node", "id": 9992916520, "lat": 41.3961561, "lon": 2.1650373, "tags": {"addr:city": "Barcelona", "addr:housenumber": "104", "addr:postcode": "08037", "addr:street": "Carrer de Roger de Ll\u00faria", "amenity": "bank", "atm": "yes", "drive_through": "no", "name": "Caixa Advocats", "name:ca": "Caixa Advocats", "opening_hours": "Mo-Fr 08:00-14:30", "operator": "Caixa Advocats"}}, {"type": "node", "id": 10006575273, "lat": 41.3865799, "lon": 2.1531664, "tags": {"addr:city": "Barcelona", "addr:housenumber": "120", "addr:postcode": "08036", "addr:street": "Carrer de Mallorca", "amenity": "bank", "brand": "BBVA", "brand:wikidata": "Q806189", "name": "BBVA", "name:ca": "BBVA", "official_name": "Banco Bilbao Vizcaya Argentaria", "operator": "BBVA"}}, {"type": "node", "id": 10159141771, "lat": 41.4077097, "lon": 2.1344605, "tags": {"addr:housenumber": "10", "addr:street": "Passeig de Sant Gervasi", "amenity": "bank", "atm": "no", "branch": "Banca privada", "brand": "Caixabank", "entrance": "yes", "name": "Caixabank Banca Privada", "not:brand:wikidata": "Q847225"}}, {"type": "node", "id": 10180350984, "lat": 41.4193457, "lon": 2.2006677, "tags": {"amenity": "bank", "brand": "Ibercaja", "brand:wikidata": "Q5907815", "name": "Ibercaja"}}, {"type": "node", "id": 10202248229, "lat": 41.3812085, "lon": 2.1579098, "tags": {"amenity": "bank", "brand": "BBVA", "brand:wikidata": "Q806189", "name": "BBVA", "official_name": "Banco Bilbao Vizcaya Argentaria"}}, {"type": "node", "id": 10230571443, "lat": 41.3912137, "lon": 2.1403022, "tags": {"amenity": "bank", "branch": "Banca privada", "brand": "Caixabank", "brand:wikidata": "Q847225", "check_date": "2022-12-01", "name": "Caixabank"}}, {"type": "node", "id": 10595953579, "lat": 41.3536827, "lon": 2.1168912, "tags": {"amenity": "bank", "name": "Caixabank"}}, {"type": "node", "id": 10596381066, "lat": 41.3597667, "lon": 2.100445, "tags": {"amenity": "bank", "brand": "Caixabank", "brand:wikidata": "Q847225", "name": "Caixabank"}}, {"type": "node", "id": 10597020849, "lat": 41.3901293, "lon": 2.1687444, "tags": {"addr:housenumber": "613", "addr:street": "Gran Via de les Corts Catalanes", "amenity": "bank", "check_date": "2023-10-28", "name": "Abanca"}}, {"type": "node", "id": 10660773977, "lat": 41.4061693, "lon": 2.1740404, "tags": {"amenity": "bank", "atm": "yes", "brand": "Caixabank", "level": "0", "name": "Caixabank"}}, {"type": "node", "id": 10674574817, "lat": 41.3525017, "lon": 2.1120425, "tags": {"addr:city": "L'Hospitalet de Llobregat", "addr:housenumber": "208", "addr:postcode": "08907", "addr:street": "Rambla de la Marina", "amenity": "bank", "atm": "yes", "brand": "Banco Santander", "contact:phone": "+34933353035", "contact:website": "https://www.bancosantander.es", "name": "Banco Santander", "opening_hours": "Mo-Fr 08:30-14:30", "operator:wikidata": "Q6496310"}}, {"type": "node", "id": 10780385744, "lat": 41.3745805, "lon": 2.167129, "tags": {"amenity": "bank", "name": "Santander"}}, {"type": "node", "id": 10830036505, "lat": 41.4091579, "lon": 2.1728343, "tags": {"addr:housenumber": "316", "addr:street": "Carrer de Padilla", "amenity": "bank", "name:en": "Banc Sabadell"}}, {"type": "node", "id": 10841478993, "lat": 41.3832215, "lon": 2.1835792, "tags": {"amenity": "bank", "check_date": "2023-04-26", "name": "BBVA"}}, {"type": "node", "id": 10845754821, "lat": 41.397915, "lon": 2.1640501, "tags": {"addr:city": "Barcelona", "addr:housenumber": "418", "addr:place": "Casa de les Punxes", "addr:postcode": "08037", "addr:street": "Avinguda Diagonal", "amenity": "bank", "atm": "yes", "name": "Triodos Bank", "opening_hours": "Mo 10:00-15:00; Tu-We 09:00-15:00; Th 09:00-17:30; Fr 09:00-15:00", "operator": "Triodos Bank", "phone": "+34 902 360 940", "website": "https://www.triodos.es/", "wheelchair": "limited"}}, {"type": "node", "id": 10958928153, "lat": 41.4072415, "lon": 2.1611921, "tags": {"amenity": "bank", "brand": "BBVA", "brand:wikidata": "Q806189", "check_date": "2023-06-06", "name": "BBVA", "official_name": "Banco Bilbao Vizcaya Argentaria"}}, {"type": "node", "id": 10958966312, "lat": 41.40067, "lon": 2.1546463, "tags": {"amenity": "bank", "brand": "Santander", "brand:wikidata": "Q5835668", "check_date": "2023-06-06", "name": "Santander"}}, {"type": "node", "id": 10958966313, "lat": 41.4004046, "lon": 2.1549808, "tags": {"amenity": "bank", "atm": "yes", "brand": "Banco Sabadell", "brand:ca": "Banc Sabadell", "brand:es": "Banco Sabadell", "brand:wikidata": "Q762330", "check_date": "2023-06-06", "name": "Banco Sabadell", "name:ca": "Banc Sabadell", "name:es": "Banco Sabadell", "official_name": "Banco de Sabadell, S.A.", "wheelchair": "yes"}}, {"type": "node", "id": 11026639423, "lat": 41.3906, "lon": 2.1959352, "tags": {"addr:housenumber": "137", "addr:street": "Avinguda d'Ic\u00e0ria", "amenity": "bank", "name": "CaixaBank", "name:-2019": "Bankia"}}, {"type": "node", "id": 11028063353, "lat": 41.3858992, "lon": 2.1278112, "tags": {"addr:housenumber": "86", "addr:street": "Gran Via de Carles III", "amenity": "bank", "name": "Banco Santander"}}, {"type": "node", "id": 11028173767, "lat": 41.423703, "lon": 2.175478, "tags": {"addr:housenumber": "249", "addr:street": "Avinguda de la Mare de D\u00e9u de Montserrat", "amenity": "bank", "name": "CaixaBank", "name:-2019": "Bankia"}}, {"type": "node", "id": 11028444147, "lat": 41.4090899, "lon": 2.1466376, "tags": {"addr:housenumber": "51", "addr:street": "Avinguda de la Rep\u00fablica Argentina", "amenity": "bank", "name": "Banc Sabadell"}}, {"type": "node", "id": 11028575839, "lat": 41.3906206, "lon": 2.1703248, "tags": {"addr:housenumber": "650", "addr:street": "Gran Via de les Corts Catalanes", "amenity": "bank", "name": "Banco Pichincha"}}, {"type": "node", "id": 11028575840, "lat": 41.3885348, "lon": 2.1675333, "tags": {"addr:housenumber": "628", "addr:street": "Gran Via de les Corts Catalanes", "amenity": "bank", "name": "Banc Sabadell"}}, {"type": "node", "id": 11028575844, "lat": 41.3836536, "lon": 2.1600818, "tags": {"addr:housenumber": "549", "addr:street": "Gran Via de les Corts Catalanes", "amenity": "bank", "name": "Banc Sabadell"}}, {"type": "node", "id": 11028575846, "lat": 41.382649, "lon": 2.1587284, "tags": {"addr:housenumber": "529", "addr:street": "Gran Via de les Corts Catalanes", "amenity": "bank", "name": "Bankinter"}}, {"type": "node", "id": 11032317012, "lat": 41.3747828, "lon": 2.1599869, "tags": {"addr:housenumber": "123", "addr:street": "Avinguda del Paral\u00b7lel", "amenity": "bank", "name": "Banc Sabadell"}}, {"type": "node", "id": 11032317016, "lat": 41.3747717, "lon": 2.1654439, "tags": {"addr:housenumber": "87B", "addr:street": "Avinguda del Paral\u00b7lel", "amenity": "bank", "name": "CaixaBank", "name:-2019": "Bankia"}}, {"type": "node", "id": 11048673080, "lat": 41.3800937, "lon": 2.1309137, "tags": {"addr:housenumber": "156", "addr:street": "Avinguda de Madrid", "amenity": "bank", "name": "Banc Sabadell"}}, {"type": "node", "id": 11048673087, "lat": 41.3816609, "lon": 2.1345697, "tags": {"addr:housenumber": "211", "addr:street": "Avinguda de Madrid", "amenity": "bank", "name": "Banc Sabadell"}}, {"type": "node", "id": 11048673090, "lat": 41.3815134, "lon": 2.1341466, "tags": {"addr:housenumber": "201", "addr:street": "Avinguda de Madrid", "amenity": "bank", "brand": "Banco Santander", "brand:wikidata": "Q6496310", "name": "Banco Santander", "official_name": "Santander Group"}}, {"type": "node", "id": 11048677957, "lat": 41.3897125, "lon": 2.1352382, "tags": {"addr:housenumber": "557", "addr:street": "Avinguda Diagonal", "amenity": "bank", "brand": "Banco Santander", "brand:wikidata": "Q6496310", "name": "Banco Santander", "official_name": "Santander Group"}}, {"type": "node", "id": 11059779007, "lat": 41.396294, "lon": 2.1575332, "tags": {"addr:housenumber": "456", "addr:street": "Avinguda Diagonal", "amenity": "bank", "atm": "yes", "check_date": "2023-10-11", "name": "Banc Sabadell", "wheelchair": "yes"}}, {"type": "node", "id": 11067138966, "lat": 41.3988377, "lon": 2.1676451, "tags": {"addr:housenumber": "392", "addr:street": "Avinguda Diagonal", "amenity": "bank", "name": "Banco Santander"}}, {"type": "node", "id": 11150234666, "lat": 41.3991716, "lon": 2.1560931, "tags": {"amenity": "bank", "brand": "BBVA", "brand:wikidata": "Q806189", "check_date": "2023-09-08", "name": "BBVA", "official_name": "Banco Bilbao Vizcaya Argentaria"}}, {"type": "node", "id": 11174342792, "lat": 41.398774, "lon": 2.1432198, "tags": {"amenity": "bank", "brand": "BBVA", "brand:wikidata": "Q806189", "name": "BBVA", "official_name": "Banco Bilbao Vizcaya Argentaria"}}, {"type": "node", "id": 11204429437, "lat": 41.446101, "lon": 2.1776822, "tags": {"amenity": "bank", "name": "Sentit muntanya"}}, {"type": "node", "id": 11234500445, "lat": 41.4012373, "lon": 2.1652513, "tags": {"amenity": "bank", "brand": "Banco Santander", "brand:wikidata": "Q6496310", "check_date": "2024-07-09", "name": "Banco Santander", "official_name": "Santander Group"}}, {"type": "node", "id": 11255866904, "lat": 41.3963805, "lon": 2.1578399, "tags": {"amenity": "bank", "atm": "yes", "check_date": "2023-10-11", "name": "CaixaBank", "wheelchair": "yes"}}, {"type": "node", "id": 11266466419, "lat": 41.4091338, "lon": 2.215741, "tags": {"amenity": "bank", "atm": "yes", "brand": "Banco Sabadell", "brand:ca": "Banc Sabadell", "brand:es": "Banco Sabadell", "brand:wikidata": "Q762330", "name": "Banco Sabadell", "name:ca": "Banc Sabadell", "name:es": "Banco Sabadell", "official_name": "Banco de Sabadell, S.A.", "operator": "Banco Sabadell"}}, {"type": "node", "id": 11287898869, "lat": 41.3950181, "lon": 2.1690007, "tags": {"amenity": "bank", "name": "CaixaBank"}}, {"type": "node", "id": 11290553398, "lat": 41.3832724, "lon": 2.1835499, "tags": {"addr:city": "Barcelona", "addr:housenumber": "14", "addr:street": "Pla de Palau", "amenity": "bank", "brand": "BBVA", "brand:wikidata": "Q806189", "name": "BBVA", "official_name": "Banco Bilbao Vizcaya Argentaria"}}, {"type": "node", "id": 11298022704, "lat": 41.3813697, "lon": 2.1735409, "tags": {"amenity": "bank", "check_date": "2023-10-29", "name": "Santander"}}, {"type": "node", "id": 11334762043, "lat": 41.4095112, "lon": 2.1738615}, {"type": "node", "id": 11334762044, "lat": 41.4093869, "lon": 2.1740298}, {"type": "node", "id": 11334762046, "lat": 41.4096632, "lon": 2.174025}, {"type": "node", "id": 11334762047, "lat": 41.4095267, "lon": 2.1738411}, {"type": "node", "id": 11334762049, "lat": 41.4095487, "lon": 2.1738708}, {"type": "node", "id": 11355825314, "lat": 41.3964605, "lon": 2.1641488, "tags": {"amenity": "bank", "name": "BBVA"}}, {"type": "node", "id": 11360421643, "lat": 41.3741799, "lon": 2.1200966}, {"type": "node", "id": 11360421644, "lat": 41.3740328, "lon": 2.1197975}, {"type": "node", "id": 11361592499, "lat": 41.394213, "lon": 2.1756892, "tags": {"amenity": "bank", "atm": "yes", "name": "bankinter."}}, {"type": "node", "id": 11434440469, "lat": 41.4292726, "lon": 2.1745737, "tags": {"amenity": "bank", "name": "CaixaBank"}}, {"type": "node", "id": 11653090810, "lat": 41.4089716, "lon": 2.1732535, "tags": {"addr:city": "Barcelona", "addr:housenumber": "137", "addr:postcode": "08025", "addr:street": "Carrer de la Ind\u00fastria", "amenity": "bank", "atm": "yes", "brand": "Caixabank", "brand:wikidata": "Q847225", "drive_through": "no", "name": "Caixabank", "opening_hours": "Mo-Th 08:30-18:30; Fr 08:30-14:30", "phone": "+34 934 064 960", "website": "https://www.caixabank.es/es/app/caixamaps/barcelona/barcelona-c-industria-137/oficina?id=3035"}}, {"type": "node", "id": 11653090811, "lat": 41.4173599, "lon": 2.1709357, "tags": {"addr:city": "Barcelona", "addr:housenumber": "2", "addr:postcode": "08041", "addr:street": "Carrer de G\u00e8nova", "amenity": "bank", "atm": "yes", "brand": "Caixabank", "brand:wikidata": "Q847225", "drive_through": "no", "name": "Caixabank", "opening_hours": "Mo-Fr 08:15-14:30; Th 08:15-14:30,16:15-18:30", "phone": "+34 932 772 440", "website": "https://www.caixabank.es/en/app/caixamaps/barcelona/barcelona-c-genova-2/oficina?id=0858"}}, {"type": "node", "id": 11700909152, "lat": 41.3994104, "lon": 2.1545434, "tags": {"amenity": "bank", "brand": "Caixabank", "brand:wikidata": "Q847225", "name": "Caixabank"}}, {"type": "node", "id": 11834685967, "lat": 41.4295556, "lon": 2.1604377, "tags": {"amenity": "bank", "name": "CaixaBank"}}, {"type": "node", "id": 11834702551, "lat": 41.4297877, "lon": 2.1597575, "tags": {"amenity": "bank", "name": "Banco Sabadell"}}, {"type": "node", "id": 11834710443, "lat": 41.4295265, "lon": 2.1607892, "tags": {"amenity": "bank", "name": "BBVA"}}, {"type": "node", "id": 11915687011, "lat": 41.3969814, "lon": 2.1640281, "tags": {"addr:housenumber": "118", "addr:street": "Carrer de Roger de Ll\u00faria", "amenity": "bank", "check_date": "2024-05-18", "name": "Nationale Nederlanden"}}, {"type": "node", "id": 12005715852, "lat": 41.3973121, "lon": 2.1590668, "tags": {"addr:housenumber": "118", "addr:street": "Passeig de Gr\u00e0cia", "amenity": "bank", "check_date": "2024-06-24", "name": "kutxabank"}}, {"type": "node", "id": 12041211311, "lat": 41.3971034, "lon": 2.1238626, "tags": {"amenity": "bank", "name": "Occident"}}, {"type": "node", "id": 12042586923, "lat": 41.3740453, "lon": 2.1197866, "tags": {"amenity": "atm", "cash_in": "customers", "network": "Servired", "opening_hours": "24/7", "operator": "La Caixa"}}, {"type": "node", "id": 12042586924, "lat": 41.3740571, "lon": 2.1197763, "tags": {"amenity": "atm", "cash_in": "customers", "network": "Servired", "opening_hours": "24/7", "operator": "La Caixa"}}, {"type": "node", "id": 12042586925, "lat": 41.3741062, "lon": 2.1197334, "tags": {"amenity": "atm", "cash_in": "customers", "network": "Servired", "opening_hours": "24/7", "operator": "La Caixa"}}, {"type": "node", "id": 12042586926, "lat": 41.3741166, "lon": 2.1197244, "tags": {"amenity": "atm", "cash_in": "customers", "network": "Servired", "opening_hours": "24/7", "operator": "La Caixa"}}, {"type": "node", "id": 12042586929, "lat": 41.3749532, "lon": 2.1211099, "tags": {"amenity": "bank", "atm": "yes", "brand": "Banco Santander", "name": "Banco Santander"}}, {"type": "node", "id": 12047175469, "lat": 41.4033911, "lon": 2.198414, "tags": {"amenity": "bank", "name": "Laboral Kutxa"}}, {"type": "node", "id": 12083554871, "lat": 41.4063725, "lon": 2.1695886, "tags": {"amenity": "bank", "name": "BBVA"}}, {"type": "node", "id": 12204914801, "lat": 41.4052333, "lon": 2.1667123, "tags": {"amenity": "bank", "name": "CaixaBank"}}, {"type": "node", "id": 12229267201, "lat": 41.4438797, "lon": 2.1783958, "tags": {"amenity": "bank", "name": "BBVA"}}, {"type": "node", "id": 12278145231, "lat": 41.4003671, "lon": 2.1731023, "tags": {"amenity": "bank", "check_date": "2024-10-22", "name": "Santander"}}, {"type": "node", "id": 12279112001, "lat": 41.3912579, "lon": 2.1369575, "tags": {"amenity": "bank", "name": "Deutsche Bank"}}, {"type": "node", "id": 12279112101, "lat": 41.3919129, "lon": 2.1393714, "tags": {"amenity": "bank", "name": "BancaMarch"}}, {"type": "node", "id": 12343429929, "lat": 41.4047809, "lon": 2.1973753, "tags": {"amenity": "bank", "brand": "Unicaja", "name": "Unicaja"}}, {"type": "way", "id": 147858916, "nodes": [1610091496, 1610091478, 1610091453, 1610091507, 1610091525, 1610091496], "tags": {"amenity": "bank", "brand": "Banco Santander", "brand:en": "Santander Bank", "brand:es": "Banco Santander", "brand:wikidata": "Q6496310", "brand:wikipedia": "es:Banco Santander", "building": "yes", "name": "Banco Santander", "name:ca": "Banc Santander", "name:en": "Santander Bank", "name:es": "Banco Santander", "official_name": "Santander Group", "operator": "Banco Santander"}}, {"type": "way", "id": 306692817, "nodes": [7643823947, 7643812554, 7643823931, 7643823932, 7643823918, 7643823900, 7643823907, 7643824040, 7643824042, 7643823966, 7643823908, 7643823972, 7643823994, 7643812546, 5270864387, 7643824020, 7643824018, 7643824019, 7643823886, 7643812565, 7643824000, 7643823927, 7643812581, 7643812570, 7643823910, 2264344249, 7643823909, 7643823912, 7643823897, 2264344228, 7643812568, 7643824026, 7643812561, 7643824010, 7643824001, 7643823968, 7643824002, 7643824041, 7643824046, 7643823962, 7643824025, 7643823901, 7643824017, 7643812576, 7643812562, 7643812552, 7643812571, 7643824007, 7643823947], "tags": {"amenity": "bank", "atm": "yes", "brand": "CatalunyaCaixa", "brand:wikidata": "Q3750952", "brand:wikipedia": "en:CatalunyaCaixa", "name": "CatalunyaCaixa"}}, {"type": "way", "id": 641354047, "nodes": [6040275013, 3937709092, 6040274893, 6040275095, 6040275091, 6040275104, 6040275107, 6040275085, 6040275111, 6040274908, 6040275029, 6040275090, 6040275013], "tags": {"amenity": "bank", "atm": "yes", "building": "office", "building:levels": "6", "drive_through": "no", "name": "Caja de Ingenieros"}}, {"type": "way", "id": 666269634, "nodes": [6237756585, 6237756594, 6237756586, 6237756587, 6237756588, 6237756589, 6237756590, 6237701059, 6237756585], "tags": {"amenity": "bank", "brand": "Caixabank", "brand:wikidata": "Q847225", "brand:wikipedia": "en:CaixaBank", "building": "yes", "name": "Caixabank"}}, {"type": "way", "id": 1222119338, "nodes": [11334762044, 391065322, 391065323, 11334762046, 11334762049, 11334762047, 11334762043, 11334762044], "tags": {"amenity": "bank", "building": "apartments"}}, {"type": "way", "id": 1225032821, "nodes": [5217923590, 12042586926, 12042586925, 12042586924, 12042586923, 11360421644, 11360421643, 5217923589, 5217923590], "tags": {"amenity": "bank", "atm": "yes", "brand": "La Caixa", "building": "office", "name": "La Caixa", "opening_hours": "Mo-Fr 09:00-17:00", "operator": "La Caixa"}}]}